{"type":"FeatureCollection","features":[{"type":"Feature","properties":{"c":"build","n":"なにわ筋線","g":"jp"},"geometry":{"type":"MultiLineString","coordinates":[[[135.49136,34.70078],[135.4881,34.698],[135.48772,34.69771],[135.48744,34.69745],[135.48724,34.69711],[135.48711,34.69672],[135.48707,34.69637],[135.48708,34.69598],[135.48714,34.69559],[135.48722,34.69522],[135.48735,34.69485],[135.4875,34.69447],[135.48767,34.6941],[135.48794,34.69367],[135.48825,34.69325],[135.4886,34.69276],[135.49108,34.68922],[135.49153,34.68859],[135.4919,34.68804],[135.49208,34.68773],[135.49226,34.68743],[135.49242,34.68711],[135.49254,34.68679],[135.4926,34.68649],[135.49262,34.68619],[135.49263,34.68586],[135.49265,34.68544],[135.49331,34.67758],[135.49342,34.67625],[135.49346,34.67581],[135.49348,34.67537],[135.49346,34.67492],[135.49339,34.67452],[135.49327,34.67411],[135.49316,34.67371],[135.4931,34.67336],[135.4931,34.67294],[135.49317,34.67257],[135.49331,34.67221],[135.4935,34.67187],[135.49373,34.67156],[135.49401,34.67124],[135.49435,34.67083],[135.49474,34.67038],[135.49508,34.66991],[135.49523,34.66959],[135.49533,34.66925],[135.49545,34.66892],[135.49566,34.66864],[135.49604,34.66839],[135.49653,34.6682],[135.49705,34.66803],[135.49755,34.66784]],[[135.49461,34.67051],[135.4959,34.66938],[135.49719,34.66825],[135.49835,34.66707],[135.49936,34.6657],[135.50024,34.66428],[135.50084,34.6633],[135.50108,34.66293],[135.50115,34.6625],[135.50108,34.66208],[135.50096,34.66152],[135.50079,34.66075],[135.50063,34.65991],[135.50057,34.65914],[135.50062,34.65856],[135.50075,34.658],[135.50088,34.65747],[135.50096,34.65697],[135.50093,34.65649],[135.50086,34.65604],[135.50083,34.65559],[135.50087,34.65524],[135.50095,34.6549],[135.50103,34.65454],[135.50106,34.65416],[135.501,34.6536],[135.50088,34.653],[135.50073,34.65238],[135.5006,34.65176]]]}},{"type":"Feature","properties":{"c":"build","n":"中央新幹線","g":"jp","h":1,"ne":"Chuo Shinkansen"},"geometry":{"type":"MultiLineString","coordinates":[[[139.74107,35.63189],[139.73834,35.62187],[139.73815,35.62105],[139.738,35.62037],[139.73784,35.61975],[139.7376,35.61912],[139.73725,35.61846],[139.73684,35.61781],[139.73639,35.6172],[139.73592,35.61665],[139.7355,35.61625],[139.73507,35.61589],[139.73461,35.61556],[139.73413,35.61525],[139.7334,35.61482],[139.73263,35.61443],[139.73184,35.61406],[139.73075,35.61361],[139.7294,35.6131],[139.71698,35.60821],[139.70954,35.60529],[139.70161,35.60261],[139.69611,35.60104],[139.69049,35.59976],[139.67572,35.59639],[139.66644,35.59363],[139.64907,35.58789],[139.64498,35.58648],[139.64123,35.5853],[139.6372,35.58427],[139.63309,35.5834],[139.62876,35.58266],[139.62444,35.58208],[139.62048,35.58173],[139.6166,35.58151],[139.60934,35.58137],[139.59814,35.58143],[139.59053,35.58188],[139.58379,35.58271],[139.57975,35.58342],[139.57572,35.58429],[139.57225,35.58524],[139.56876,35.58629],[139.55994,35.58883],[139.55483,35.5903],[139.54963,35.59149],[139.5461,35.59216],[139.5424,35.59275],[139.53871,35.59317],[139.53499,35.59348],[139.52755,35.59387],[139.48037,35.59635],[139.41407,35.59799],[139.40241,35.59802],[139.38482,35.59708],[139.34812,35.59302]],[[138.80398,35.59545],[138.79071,35.59616],[138.77801,35.59725],[138.71907,35.60313],[138.70843,35.604],[138.70345,35.60422],[138.69847,35.60425],[138.68698,35.60433],[138.67053,35.60375],[138.62148,35.60199],[138.6173,35.6018],[138.61394,35.60173],[138.61017,35.60191],[138.60641,35.60223],[138.59893,35.60307],[138.59131,35.60402],[138.5824,35.60491],[138.56917,35.60535],[138.55652,35.60553],[138.5452,35.6058],[138.5339,35.60531],[138.52236,35.60439],[138.51356,35.60325],[138.5101,35.60261],[138.50672,35.60186],[138.50302,35.6009],[138.49928,35.59977],[138.49515,35.59833],[138.49132,35.59686],[138.48704,35.59494],[138.4811,35.59179],[138.4776,35.5897],[138.47414,35.58743],[138.47092,35.58502],[138.46804,35.58268],[138.46473,35.57974],[138.46166,35.57666],[138.45916,35.57392],[138.45654,35.5707],[138.45339,35.56605],[138.45035,35.56103],[138.44508,35.55116],[138.44219,35.54638],[138.44013,35.54342],[138.43782,35.5404],[138.43504,35.53717],[138.43233,35.53427],[138.43086,35.5328],[138.42937,35.5315],[138.42736,35.52998],[138.42518,35.5285],[138.4207,35.5258],[138.41076,35.51981],[138.40412,35.5164],[138.40079,35.51469],[138.39881,35.5138],[138.39661,35.51293],[138.39322,35.51177],[138.38959,35.5107],[138.38618,35.50987],[138.38272,35.50918],[138.37903,35.50857],[138.37528,35.5081],[138.37174,35.50781],[138.36775,35.50757],[138.3483,35.50623],[138.28859,35.50268],[138.28546,35.50247],[138.28306,35.50235],[138.28038,35.50234],[138.27751,35.50246],[138.2729,35.50283],[138.26798,35.5034],[138.25841,35.50492],[138.24592,35.50753],[138.23834,35.50964],[138.23093,35.51212],[138.20538,35.52064],[138.18191,35.52713],[138.17391,35.52905],[138.16579,35.5306],[138.15358,35.53294],[138.14341,35.53488],[138.1319,35.53646],[138.11642,35.53804],[138.09543,35.53929],[138.08928,35.53966],[138.08312,35.5398],[138.07377,35.53941],[138.06332,35.53834],[137.985,35.52838],[137.97029,35.52638],[137.96012,35.52472],[137.94994,35.52366],[137.944,35.52338],[137.93755,35.52324],[137.92886,35.52335],[137.92018,35.52377],[137.82245,35.52853],[137.81021,35.529],[137.80738,35.52913],[137.80482,35.52921],[137.80212,35.52916],[137.79943,35.52903],[137.79407,35.52856],[137.77893,35.52724],[137.77178,35.52686],[137.76163,35.52663],[137.75276,35.52675],[137.74285,35.52741],[137.73428,35.5285],[137.72583,35.53013],[137.69039,35.53701],[137.68461,35.53827],[137.6443,35.5482],[137.62568,35.55229],[137.61868,35.55383],[137.61518,35.55452],[137.61161,35.55511],[137.60774,35.55555],[137.60365,35.55587],[137.59831,35.55615],[137.59291,35.55622],[137.58827,35.55604],[137.5841,35.55568],[137.5818,35.55531],[137.57957,35.55483],[137.57245,35.55308],[137.56485,35.55079],[137.55745,35.54807],[137.54505,35.54353],[137.53675,35.54048],[137.53258,35.5388],[137.52868,35.53708],[137.52606,35.53579],[137.52356,35.53442],[137.52038,35.53249],[137.51698,35.53028],[137.50731,35.52365],[137.50186,35.51933],[137.49884,35.51662],[137.48891,35.5069],[137.48028,35.49961],[137.4778,35.49751],[137.47515,35.49555],[137.46898,35.49164],[137.4625,35.48809],[137.44106,35.47631],[137.42631,35.4686],[137.41756,35.46484],[137.41183,35.46281],[137.40312,35.46035],[137.39376,35.45817],[137.38424,35.45649],[137.36419,35.45296],[137.35373,35.45069],[137.34292,35.44809],[137.32962,35.44371],[137.31644,35.4391],[137.29694,35.43144],[137.27972,35.42521],[137.26027,35.41899],[137.23756,35.41304],[137.23061,35.41145],[137.22416,35.41019],[137.21838,35.40934],[137.21216,35.40856],[137.18817,35.40529],[137.17229,35.40427],[137.15423,35.4035],[137.15085,35.40324],[137.14637,35.4026],[137.14198,35.40167],[137.12483,35.39804],[137.12009,35.39711],[137.11576,35.39612],[137.11129,35.39468],[137.10715,35.39312],[137.10192,35.3909],[137.09809,35.38914],[137.09406,35.38709],[137.0895,35.38439],[137.08511,35.38155],[137.07839,35.37675],[137.07504,35.3741],[137.07064,35.36999],[137.06401,35.36297],[137.05842,35.35636],[137.04906,35.34311],[137.04409,35.33499],[137.0396,35.32669],[137.03257,35.314],[137.025,35.29972],[137.02048,35.2874],[137.01713,35.27754],[137.01548,35.27351],[137.01355,35.26962],[137.01088,35.26498],[137.00924,35.26248],[137.00734,35.25989],[137.00431,35.25632],[137.00103,35.25282],[136.99841,35.25026],[136.99569,35.24787],[136.99234,35.24531],[136.98917,35.24305],[136.98615,35.24104],[136.98293,35.23915],[136.97682,35.23598],[136.96742,35.23146],[136.96293,35.22931],[136.95859,35.22696],[136.952,35.22283],[136.94989,35.22137],[136.94784,35.21982],[136.9447,35.21717],[136.94163,35.21435],[136.93956,35.21224],[136.93749,35.20998],[136.93016,35.20164],[136.92777,35.19908],[136.92531,35.19665],[136.92167,35.19344],[136.918,35.19046],[136.91583,35.18885],[136.91357,35.18734],[136.90997,35.18512],[136.90565,35.18268],[136.89732,35.17852],[136.88855,35.17443],[136.88256,35.17221],[136.87679,35.17026]],[[139.00369,35.56363],[139.01728,35.56026],[139.02329,35.559],[139.03176,35.5577],[139.03879,35.55705],[139.04624,35.55675],[139.10871,35.5559],[139.11255,35.55596],[139.12058,35.55651],[139.12947,35.55753],[139.13712,35.55885],[139.14214,35.55996],[139.14709,35.56126],[139.18645,35.57157],[139.19532,35.57389],[139.20439,35.57566],[139.20747,35.57617],[139.21058,35.57659],[139.21528,35.57701],[139.22006,35.57731],[139.22706,35.57748],[139.24728,35.57746],[139.26394,35.57778],[139.26598,35.5778],[139.26769,35.57785],[139.26957,35.57798],[139.27141,35.57818],[139.273,35.57842],[139.27454,35.5787],[139.27763,35.57939],[139.29227,35.58264],[139.3122,35.58721],[139.32216,35.58949],[139.33295,35.59128],[139.34102,35.59225]]]}},{"type":"Feature","properties":{"c":"build","n":"中央新幹線 回送線","g":"jp","h":1},"geometry":{"type":"LineString","coordinates":[[137.44226,35.47702],[137.44814,35.48036],[137.44968,35.48121],[137.45108,35.48204],[137.45213,35.48283],[137.45318,35.48369],[137.45413,35.48439],[137.4547,35.48472],[137.45523,35.48497],[137.45576,35.48519],[137.45622,35.48535],[137.45668,35.48547],[137.45719,35.48558],[137.45794,35.4857],[137.45876,35.48579],[137.45955,35.48583],[137.46018,35.4858],[137.46078,35.48573],[137.46139,35.48563],[137.46238,35.48541],[137.46338,35.48515]]}},{"type":"Feature","properties":{"c":"build","n":"中央新幹線 引上線","g":"jp","h":1,"ne":"Chuo Shinkansen"},"geometry":{"type":"LineString","coordinates":[[136.87679,35.17026],[136.87489,35.16957],[136.873,35.16889],[136.87131,35.16837],[136.87036,35.16815],[136.86951,35.16801],[136.86865,35.16793],[136.86783,35.16792],[136.867,35.16796],[136.86595,35.16801],[136.85313,35.1684]]}},{"type":"Feature","properties":{"c":"build","n":"北海道新幹線","g":"jp","h":1,"ne":"Hokkaido Shinkansen"},"geometry":{"type":"LineString","coordinates":[[140.65231,41.90369],[140.64784,41.9047],[140.64344,41.90587],[140.62395,41.91103],[140.60082,41.91873],[140.49379,41.95434],[140.4891,41.95585],[140.48562,41.95705],[140.48167,41.95862],[140.47785,41.96032],[140.47424,41.96216],[140.47079,41.96413],[140.4675,41.96624],[140.46437,41.96849],[140.46133,41.97093],[140.45858,41.97339],[140.45667,41.97527],[140.45495,41.97715],[140.45164,41.98122],[140.44857,41.9854],[140.40107,42.05049],[140.33685,42.13791],[140.29445,42.18525],[140.25844,42.22506],[140.22616,42.26146],[140.22154,42.26666],[140.21936,42.26932],[140.21733,42.27204],[140.21542,42.27508],[140.21383,42.27791],[140.21251,42.28072],[140.21118,42.28418],[140.21013,42.28775],[140.20948,42.2908],[140.20884,42.29705],[140.20889,42.30055],[140.20917,42.30365],[140.20967,42.30664],[140.21042,42.3099],[140.21148,42.31313],[140.21264,42.3161],[140.21423,42.31939],[140.2159,42.3223],[140.21931,42.32717],[140.22309,42.3319],[140.27888,42.40182],[140.28095,42.40449],[140.28256,42.40643],[140.28464,42.40864],[140.28684,42.41076],[140.28905,42.41271],[140.29133,42.41454],[140.29356,42.4161],[140.29581,42.41759],[140.30029,42.42065],[140.30477,42.4237],[140.30692,42.42527],[140.30906,42.42695],[140.31152,42.42907],[140.31389,42.43131],[140.31587,42.43338],[140.31771,42.4355],[140.31953,42.43784],[140.32124,42.44025],[140.32438,42.44515],[140.33267,42.4581],[140.33816,42.46795],[140.33967,42.47033],[140.34117,42.47245],[140.34276,42.4744],[140.34476,42.47672],[140.36303,42.49844],[140.38427,42.52512],[140.38702,42.52857],[140.39016,42.53184],[140.3935,42.53486],[140.39705,42.53776],[140.46813,42.59592],[140.47101,42.59847],[140.47387,42.60131],[140.47699,42.60491],[140.56035,42.7098],[140.56488,42.71549],[140.56736,42.71833],[140.56987,42.72097],[140.5718,42.72279],[140.57376,42.72447],[140.57812,42.7278],[140.58265,42.73076],[140.58797,42.7337],[140.59358,42.73634],[140.68169,42.77788],[140.68651,42.78034],[140.68945,42.78205],[140.69235,42.7839],[140.69487,42.78567],[140.69726,42.78751],[140.6996,42.78947],[140.70183,42.79152],[140.70405,42.7938],[140.70605,42.79604],[140.70856,42.79926],[140.71073,42.80249],[140.71268,42.8058],[140.71621,42.81177],[140.71865,42.8159],[140.72081,42.82012],[140.72252,42.82444],[140.74077,42.87058],[140.74194,42.87394],[140.74304,42.87834],[140.74382,42.88366],[140.74658,42.91337],[140.74696,42.9175],[140.74705,42.91948],[140.74701,42.92164],[140.74651,42.9258],[140.74595,42.92993],[140.74573,42.93378],[140.7459,42.93809],[140.74646,42.94213],[140.74744,42.9462],[140.74882,42.95022],[140.75066,42.95413],[140.75462,42.96249],[140.75659,42.96769],[140.75772,42.9714],[140.75885,42.97497],[140.75968,42.97697],[140.76055,42.9788],[140.76256,42.98245],[140.76516,42.98635],[140.76795,42.98984],[140.77121,42.99332],[140.77305,42.99507],[140.775,42.99677],[140.77677,42.99813],[140.77924,42.99994],[140.8516,43.05393],[140.85502,43.05643],[140.85754,43.05837],[140.8603,43.06073],[140.86292,43.06317],[140.8678,43.06825],[140.87564,43.07641],[140.87908,43.07999],[140.8823,43.08368],[140.88518,43.08762],[140.88739,43.09128],[140.8895,43.09563],[140.89063,43.09857],[140.8917,43.10215],[140.89243,43.10576],[140.89438,43.11534],[140.89526,43.11872],[140.89615,43.12132],[140.89724,43.12403],[140.89842,43.12651],[140.89979,43.12897],[140.90155,43.13175],[140.90355,43.13451],[140.90572,43.13715],[140.9081,43.1397],[140.91072,43.14221],[140.91354,43.14462],[140.91665,43.14698],[140.91979,43.14914],[140.92221,43.15065],[140.9246,43.152],[140.92937,43.15442],[140.93456,43.15664],[140.93967,43.15848],[140.94522,43.1601],[140.95007,43.16123],[140.95583,43.16226],[140.96166,43.16297],[140.9672,43.16334],[140.96951,43.16342],[140.97197,43.16342],[140.97667,43.16326],[140.98142,43.16296],[140.98416,43.16267],[140.9867,43.16233],[140.99193,43.16152],[141.0108,43.15857],[141.01639,43.1577],[141.02188,43.15655],[141.03376,43.15354],[141.04911,43.14991],[141.07309,43.14573],[141.09362,43.14239],[141.10052,43.14122],[141.10394,43.14056],[141.10732,43.13981],[141.11016,43.13901],[141.11389,43.13788],[141.1984,43.1131],[141.20459,43.11128],[141.20765,43.11045],[141.21089,43.10968],[141.21537,43.10883],[141.2201,43.10809],[141.22947,43.10707],[141.26748,43.10293],[141.26883,43.1028],[141.26982,43.10268],[141.27039,43.1026],[141.27096,43.10251],[141.27153,43.1024],[141.27211,43.10225],[141.27287,43.10199],[141.27365,43.10167],[141.27443,43.10132],[141.27518,43.10095],[141.27639,43.10026],[141.27792,43.0993],[141.29126,43.09106],[141.30807,43.08104],[141.32013,43.07558],[141.33033,43.07123],[141.33785,43.06821],[141.33856,43.0679],[141.33916,43.06763],[141.33973,43.06739],[141.34034,43.06721],[141.341,43.06706],[141.34165,43.06696],[141.34236,43.06691],[141.34315,43.06692],[141.34466,43.06708],[141.3464,43.06741],[141.34822,43.06779],[141.34993,43.06809],[141.35267,43.06845],[141.35536,43.06867],[141.35796,43.06866],[141.36084,43.06855],[141.37329,43.06829]]}},{"type":"Feature","properties":{"c":"build","n":"名鉄三河線","g":"jp","ne":"Meitetsu Mikawa Line"},"geometry":{"type":"MultiLineString","coordinates":[[[137.04099,35.00523],[137.04135,35.00489],[137.04165,35.00456],[137.04183,35.00408],[137.0418,35.00372],[137.04167,35.00336],[137.04144,35.00307],[137.04113,35.00283],[137.04082,35.00268],[137.04039,35.00252],[137.03251,34.99927]],[[137.05174,35.00509],[137.04475,35.00395],[137.04417,35.00383],[137.04371,35.00379],[137.04321,35.00389],[137.04272,35.00409],[137.04234,35.00432],[137.0419,35.00463],[137.03829,35.00696]]]}},{"type":"Feature","properties":{"c":"build","n":"名鉄名古屋本線","g":"jp","ne":"Meitetsu Nagoya Main Line"},"geometry":{"type":"MultiLineString","coordinates":[[[137.0417,35.00467],[137.04098,35.00529],[137.04025,35.00591],[137.03948,35.00647],[137.03867,35.00692],[137.03781,35.00732],[137.0368,35.0078],[137.02907,35.01164]],[[137.04553,35.003],[137.04486,35.00321],[137.04419,35.00341],[137.04351,35.00363],[137.04279,35.00394],[137.04168,35.00459],[137.04049,35.0054],[137.03928,35.00627],[137.03808,35.00712]]]}},{"type":"Feature","properties":{"c":"build","n":"多摩都市モノレール","g":"jp","nz":"多摩单轨","ne":"Tama Monorail"},"geometry":{"type":"LineString","coordinates":[[139.34789,35.77145],[139.34761,35.76952],[139.34755,35.76913],[139.34768,35.76875],[139.34809,35.76853],[139.35621,35.76416],[139.36248,35.76098],[139.3698,35.75731],[139.37689,35.75396],[139.3832,35.75229],[139.38939,35.75079],[139.39525,35.74946],[139.40018,35.74892],[139.40492,35.74862],[139.40899,35.74829],[139.41233,35.74774],[139.41467,35.74729],[139.41534,35.74717],[139.41582,35.74677],[139.41587,35.7464]]}},{"type":"Feature","properties":{"c":"build","n":"大阪モノレール本線","g":"jp","ne":"Osaka Monorail Main Line"},"geometry":{"type":"LineString","coordinates":[[135.58255,34.73494],[135.58269,34.72933],[135.58269,34.72897],[135.58271,34.72869],[135.58278,34.72838],[135.58288,34.72807],[135.583,34.7278],[135.58317,34.72748],[135.58444,34.72494],[135.58683,34.72081],[135.58743,34.71972],[135.58803,34.71874],[135.58888,34.71773],[135.58973,34.71674],[135.59017,34.71617],[135.59057,34.71561],[135.59093,34.715],[135.59128,34.71413],[135.59157,34.71319],[135.59183,34.71235],[135.592,34.71188],[135.59215,34.71146],[135.59228,34.71102],[135.59237,34.71051],[135.59242,34.70997],[135.59246,34.70944],[135.59247,34.70873],[135.59245,34.70784],[135.59237,34.70493],[135.59228,34.70094],[135.59241,34.69689],[135.59322,34.69371],[135.59412,34.69031],[135.59502,34.68715],[135.59585,34.68471],[135.59706,34.68392],[135.59837,34.68324],[135.59958,34.68267],[135.60049,34.68223],[135.601,34.68199],[135.60137,34.68176],[135.60167,34.68142],[135.60186,34.681],[135.60195,34.68062],[135.602,34.68019],[135.60198,34.67973],[135.60184,34.67927],[135.60126,34.67856],[135.60034,34.67783],[135.5994,34.67705],[135.59872,34.67621],[135.59848,34.67522],[135.59837,34.67414],[135.59834,34.67309],[135.59833,34.67218],[135.59839,34.67152],[135.5985,34.67094],[135.59859,34.67036],[135.59866,34.66854],[135.59892,34.66197]]}},{"type":"Feature","properties":{"c":"build","n":"有楽町線豊洲〜住吉延伸","g":"jp"},"geometry":{"type":"LineString","coordinates":[[139.81553,35.69102],[139.8161,35.68656],[139.8162,35.68587],[139.8163,35.68526],[139.81634,35.68465],[139.8163,35.68401],[139.8162,35.68338],[139.81612,35.68274],[139.81607,35.68082],[139.81595,35.67669],[139.81635,35.67141],[139.81656,35.66877],[139.81653,35.66735],[139.8165,35.66599],[139.81659,35.66499],[139.81668,35.66413],[139.81674,35.66369],[139.81676,35.6633],[139.81672,35.66288],[139.8166,35.66248],[139.81642,35.66218],[139.81618,35.6619],[139.81592,35.66166],[139.81554,35.66142],[139.81509,35.66125],[139.81467,35.66114],[139.81419,35.66104],[139.81368,35.66096],[139.81316,35.66091],[139.8126,35.6609],[139.81201,35.66093],[139.81144,35.66095],[139.81093,35.66093],[139.81052,35.66085],[139.81015,35.66073],[139.8098,35.66058],[139.80951,35.66042],[139.80924,35.66022],[139.80887,35.65996],[139.79975,35.6539],[139.79926,35.65357],[139.79864,35.65344],[139.79824,35.65345],[139.79782,35.65355],[139.79753,35.65372],[139.79724,35.65396],[139.79694,35.65422],[139.79665,35.65448]]}},{"type":"Feature","properties":{"c":"build","n":"東京メトロ南北線分岐線","g":"jp"},"geometry":{"type":"LineString","coordinates":[[139.73768,35.62659],[139.73756,35.62732],[139.73747,35.62811],[139.73747,35.62879],[139.73753,35.62956],[139.73755,35.6303],[139.73745,35.63091],[139.73724,35.6313],[139.73697,35.63161],[139.73668,35.63186],[139.73633,35.63205],[139.73595,35.63216],[139.73557,35.63221],[139.73514,35.63223],[139.73454,35.63229],[139.73384,35.63236],[139.73317,35.6324],[139.73262,35.63238],[139.73209,35.63234],[139.73162,35.6323],[139.73121,35.63226],[139.73084,35.63225],[139.73045,35.63232],[139.73006,35.63244],[139.72973,35.63257],[139.72939,35.63272],[139.72906,35.6329],[139.7287,35.63314],[139.72833,35.63341],[139.72797,35.63373],[139.72752,35.6342],[139.72707,35.63473],[139.72667,35.6352],[139.72642,35.63546],[139.7262,35.63569],[139.72602,35.63594],[139.72588,35.63629],[139.72579,35.63667],[139.72577,35.637],[139.72591,35.63749],[139.7263,35.63788],[139.7268,35.63818],[139.72735,35.63853],[139.72809,35.639],[139.72889,35.63948],[139.72964,35.63984],[139.73016,35.64001],[139.73068,35.64011],[139.73118,35.64019],[139.73169,35.64029]]}},{"type":"Feature","properties":{"c":"build","n":"羽田空港アクセス線","g":"jp","ne":"Haneda Airport Access Line"},"geometry":{"type":"MultiLineString","coordinates":[[[139.75265,35.64796],[139.74618,35.64452]],[[139.7562,35.6107],[139.75563,35.61172],[139.75504,35.61275],[139.7545,35.61376],[139.75411,35.61473],[139.75395,35.61548],[139.75388,35.61619],[139.75386,35.6169],[139.75382,35.61761]],[[139.75985,35.60339],[139.76036,35.60219],[139.76083,35.60092],[139.76128,35.59895],[139.76162,35.59687],[139.76178,35.59496],[139.76189,35.59296],[139.76229,35.58735],[139.76232,35.58673],[139.76233,35.58618],[139.76236,35.58567],[139.76245,35.58516],[139.76262,35.58463],[139.76283,35.5841],[139.7631,35.58359],[139.76338,35.5831],[139.76372,35.58265],[139.7641,35.58222],[139.76447,35.5818],[139.76479,35.58136],[139.76501,35.58093],[139.76518,35.58049],[139.76534,35.58004],[139.76551,35.5796],[139.76622,35.57783],[139.76644,35.57723],[139.76666,35.57664],[139.76694,35.57606],[139.76731,35.57552],[139.76773,35.57499],[139.76818,35.57448],[139.76888,35.57381],[139.7697,35.57307],[139.77404,35.56904],[139.77607,35.56706],[139.77809,35.56485],[139.78118,35.5606],[139.78365,35.55693],[139.78395,35.55653],[139.78417,35.55623],[139.78436,35.55592],[139.78453,35.55556],[139.78467,35.55519],[139.78477,35.55481],[139.7848,35.55443],[139.78479,35.55404],[139.78484,35.55365],[139.78497,35.5533],[139.78514,35.55294],[139.78535,35.55257],[139.78557,35.55221],[139.78611,35.55142],[139.78669,35.55062]]]}},{"type":"Feature","properties":{"c":"build","n":"関東回送線","g":"jp"},"geometry":{"type":"MultiLineString","coordinates":[[[139.25115,35.57748],[139.2498,35.57722],[139.24845,35.57697],[139.24721,35.57681],[139.24642,35.57678],[139.2457,35.57681],[139.24489,35.57686],[139.24338,35.57701],[139.24168,35.57722],[139.24011,35.57734],[139.23933,35.57735],[139.2386,35.57734],[139.2379,35.57727],[139.23717,35.57714],[139.23628,35.57689],[139.23539,35.57654],[139.23447,35.57611],[139.23352,35.57563],[139.23166,35.57458],[139.22971,35.57334],[139.2281,35.57216],[139.22732,35.57147],[139.2267,35.57081],[139.22616,35.57016],[139.22585,35.56974],[139.22557,35.56934],[139.22534,35.56892],[139.22515,35.56847],[139.225,35.56796],[139.2249,35.56741],[139.22484,35.56685],[139.2248,35.56631],[139.22476,35.56534],[139.22476,35.56435],[139.22473,35.56197],[139.22473,35.56156],[139.22474,35.56118],[139.22474,35.56081],[139.2247,35.56044],[139.22461,35.56006],[139.2245,35.55968],[139.22435,35.55931],[139.22418,35.55897],[139.22399,35.55868],[139.22378,35.55842],[139.22356,35.55816],[139.22331,35.55786],[139.22159,35.55564]],[[139.22685,35.57097],[139.22742,35.57169],[139.22799,35.5724],[139.22863,35.5731],[139.22941,35.5738],[139.23027,35.57448],[139.23116,35.57512],[139.23207,35.57572],[139.23301,35.57627],[139.23401,35.57678],[139.23491,35.57717],[139.23586,35.57754],[139.23681,35.57786],[139.23769,35.57809],[139.23828,35.5782],[139.23883,35.57825],[139.23938,35.57828],[139.23997,35.5783],[139.2415,35.57835],[139.24325,35.57829],[139.24655,35.57789],[139.25016,35.57736]]]}},{"type":"Feature","properties":{"c":"build","n":"阪急京都本線","g":"jp"},"geometry":{"type":"LineString","coordinates":[[135.53099,34.74514],[135.52762,34.74401],[135.52459,34.74305],[135.52314,34.74269],[135.52195,34.74244],[135.52149,34.74234],[135.52108,34.74226],[135.52068,34.74214],[135.52029,34.74199],[135.5199,34.7418],[135.51955,34.74159],[135.51928,34.7414],[135.51903,34.7412],[135.51877,34.74094],[135.51833,34.74042],[135.51785,34.73977],[135.5173,34.73909],[135.51589,34.73766],[135.51429,34.73601],[135.51186,34.73307],[135.50974,34.7304],[135.50934,34.72989],[135.50903,34.72948],[135.50868,34.7291],[135.50827,34.72873],[135.50782,34.72838],[135.5073,34.72802],[135.50588,34.72721],[135.5043,34.72639]]}},{"type":"Feature","properties":{"c":"build","n":"阪急千里線","g":"jp","ne":"Hankyū Senri Line"},"geometry":{"type":"LineString","coordinates":[[135.5103,34.72497],[135.51034,34.72555],[135.51039,34.72613],[135.51047,34.72666],[135.51056,34.72706],[135.51067,34.72742],[135.51083,34.72777],[135.51103,34.72807],[135.51127,34.72836],[135.51158,34.72873],[135.51496,34.73301],[135.51528,34.73339],[135.51553,34.73369],[135.51575,34.73401],[135.51591,34.73437],[135.51603,34.73476],[135.5161,34.73516],[135.51609,34.73556],[135.51603,34.73599],[135.51596,34.73642],[135.51594,34.7368],[135.51594,34.73713],[135.51597,34.73743],[135.51606,34.7377],[135.51632,34.73804],[135.51666,34.73839],[135.51726,34.73903],[135.51787,34.73975],[135.51838,34.74047],[135.51883,34.74119],[135.51915,34.74176],[135.51942,34.74232],[135.51962,34.74295],[135.51979,34.74361],[135.51998,34.74457],[135.5201,34.74551],[135.52012,34.7459],[135.52011,34.74626],[135.52007,34.74661],[135.51998,34.74695],[135.51986,34.74728],[135.51971,34.74768],[135.51861,34.75093],[135.51774,34.7544]]}}]}