{"type":"FeatureCollection","features":[{"type":"Feature","properties":{"n":"近江鉄道彦根車庫","g":"jp","from":"ground"},"geometry":{"type":"Point","coordinates":[136.26386,35.27266]}},{"type":"Feature","properties":{"n":"吹田総合車両所 京都支所","g":"jp","from":"ground"},"geometry":{"type":"Point","coordinates":[135.70923,34.94153]}},{"type":"Feature","properties":{"n":"阪神電気鉄道尼崎車庫","g":"jp","from":"ground"},"geometry":{"type":"Point","coordinates":[135.4215,34.71727]}},{"type":"Feature","properties":{"n":"阪急電鉄西宮車庫","g":"jp","from":"ground","ne":"Hankyu Nishinomiya Train Depot"},"geometry":{"type":"Point","coordinates":[135.3621,34.74743]}},{"type":"Feature","properties":{"n":"南入曽車両基地","g":"jp","from":"ground"},"geometry":{"type":"Point","coordinates":[139.43832,35.82145]}},{"type":"Feature","properties":{"n":"大宮総合車両センター","g":"jp","from":"ground"},"geometry":{"type":"Point","coordinates":[139.62173,35.91133]}},{"type":"Feature","properties":{"n":"秋田総合車両センター","g":"jp","from":"ground"},"geometry":{"type":"Point","coordinates":[140.13502,39.69605]}},{"type":"Feature","properties":{"n":"下関総合車両所 本所","g":"jp","from":"ground"},"geometry":{"type":"Point","coordinates":[130.92945,33.98302]}},{"type":"Feature","properties":{"n":"広島車両所","g":"jp","from":"ground"},"geometry":{"type":"Point","coordinates":[132.5007,34.40412]}},{"type":"Feature","properties":{"n":"広島貨物ターミナル駅","g":"jp","from":"ground"},"geometry":{"type":"Point","coordinates":[132.49017,34.39271]}},{"type":"Feature","properties":{"n":"福岡貨物ターミナル駅","g":"jp","from":"ground"},"geometry":{"type":"Point","coordinates":[130.41888,33.62732]}},{"type":"Feature","properties":{"n":"越谷貨物ターミナル駅","g":"jp","from":"ground","ne":"Koshigaya Freight Terminal Station"},"geometry":{"type":"Point","coordinates":[139.80197,35.87637]}},{"type":"Feature","properties":{"n":"西神車両基地","g":"jp","from":"ground","ne":"Seishin Train Depot"},"geometry":{"type":"Point","coordinates":[135.0135,34.7242]}},{"type":"Feature","properties":{"n":"中野車両基地","g":"jp","from":"ground","ne":"Nakano Train Depot"},"geometry":{"type":"Point","coordinates":[139.66373,35.68632]}},{"type":"Feature","properties":{"n":"東海旅客鉄道 名古屋車両区","g":"jp","from":"ground"},"geometry":{"type":"Point","coordinates":[136.87779,35.15969]}},{"type":"Feature","properties":{"n":"東海旅客鉄道 名古屋車両所","g":"jp","from":"ground"},"geometry":{"type":"Point","coordinates":[136.85623,35.18408]}},{"type":"Feature","properties":{"n":"JR貨物 愛知機関区","g":"jp","from":"ground"},"geometry":{"type":"Point","coordinates":[136.82506,35.24546]}},{"type":"Feature","properties":{"n":"東海旅客鉄道 神領車両区","g":"jp","from":"ground"},"geometry":{"type":"Point","coordinates":[137.00436,35.25353]}},{"type":"Feature","properties":{"n":"富士見ヶ丘車庫","g":"jp","from":"ground"},"geometry":{"type":"Point","coordinates":[139.6032,35.68584]}},{"type":"Feature","properties":{"n":"旧津山扇形機関車庫","g":"jp","from":"object","ne":"Tsuyama Ogi Locomotive Depot"},"geometry":{"type":"Point","coordinates":[133.99975,35.05383]}},{"type":"Feature","properties":{"n":"東京新幹線車両センター","g":"jp","from":"ground","ne":"Tokyo Shinkansen Train Depot"},"geometry":{"type":"Point","coordinates":[139.75648,35.74182]}},{"type":"Feature","properties":{"n":"尾久車両センター","g":"jp","from":"ground","ne":"Oku Train Depot"},"geometry":{"type":"Point","coordinates":[139.75367,35.74581]}},{"type":"Feature","properties":{"n":"東京地下鉄和光検車区","g":"jp","from":"ground","ne":"Tokyo Metro Wako Train Depot"},"geometry":{"type":"Point","coordinates":[139.6032,35.78862]}},{"type":"Feature","properties":{"n":"東京総合車両センター","g":"jp","from":"ground"},"geometry":{"type":"Point","coordinates":[139.73429,35.61141]}},{"type":"Feature","properties":{"n":"JR豊田車両区小金井派出","g":"jp","from":"ground"},"geometry":{"type":"Point","coordinates":[139.49604,35.70121]}},{"type":"Feature","properties":{"n":"美濃太田車両区","g":"jp","from":"ground"},"geometry":{"type":"Point","coordinates":[137.04045,35.44555]}},{"type":"Feature","properties":{"n":"網干総合車両所加古川派出所","g":"jp","from":"ground"},"geometry":{"type":"Point","coordinates":[134.91072,34.79627]}},{"type":"Feature","properties":{"n":"京成電鉄高砂険車区","g":"jp","from":"ground"},"geometry":{"type":"Point","coordinates":[139.87247,35.75076]}},{"type":"Feature","properties":{"n":"東京地下鉄綾瀬車庫","g":"jp","from":"ground","ne":"Tokyo Metro Ayase Train Depot"},"geometry":{"type":"Point","coordinates":[139.83247,35.78321]}},{"type":"Feature","properties":{"n":"三鷹車両センター","g":"jp","from":"ground"},"geometry":{"type":"Point","coordinates":[139.55323,35.7021]}},{"type":"Feature","properties":{"n":"西武鉄道武蔵丘車両基地","g":"jp","from":"ground"},"geometry":{"type":"Point","coordinates":[139.3094,35.8691]}},{"type":"Feature","properties":{"n":"熊谷貨物ターミナル","g":"jp","from":"ground"},"geometry":{"type":"Point","coordinates":[139.3506,36.16286]}},{"type":"Feature","properties":{"n":"長野総合車両センター","g":"jp","from":"ground"},"geometry":{"type":"Point","coordinates":[138.21024,36.65706]}},{"type":"Feature","properties":{"n":"新幹線総合車両センター","g":"jp","from":"ground","ne":"Shinkansen General Rolling Stock Center"},"geometry":{"type":"Point","coordinates":[140.96786,38.31251]}},{"type":"Feature","properties":{"n":"鳥飼車両基地","g":"jp","from":"ground"},"geometry":{"type":"Point","coordinates":[135.57198,34.77707]}},{"type":"Feature","properties":{"n":"桟橋車庫","g":"jp","from":"ground"},"geometry":{"type":"Point","coordinates":[133.55069,33.54166]}},{"type":"Feature","properties":{"n":"長津田検車区","g":"jp","from":"ground"},"geometry":{"type":"Point","coordinates":[139.48437,35.53194]}},{"type":"Feature","properties":{"n":"運輸車両部 検車区 住ノ江検車","g":"jp","from":"ground"},"geometry":{"type":"Point","coordinates":[135.48706,34.60634]}},{"type":"Feature","properties":{"n":"南海電鉄 小原田検車区千代田検車支区","g":"jp","from":"ground","ne":"Chiyoda Train Depot"},"geometry":{"type":"Point","coordinates":[135.57086,34.46138]}},{"type":"Feature","properties":{"n":"阪神電鉄 石屋川車庫","g":"jp","from":"ground"},"geometry":{"type":"Point","coordinates":[135.24492,34.71146]}},{"type":"Feature","properties":{"n":"六甲島検車場","g":"jp","from":"ground"},"geometry":{"type":"Point","coordinates":[135.26437,34.68294]}},{"type":"Feature","properties":{"n":"神戸新交通 中埠頭車両基地","g":"jp","from":"ground"},"geometry":{"type":"Point","coordinates":[135.22058,34.66531]}},{"type":"Feature","properties":{"n":"阪急電鉄 平井車庫","g":"jp","from":"ground"},"geometry":{"type":"Point","coordinates":[135.39497,34.8212]}},{"type":"Feature","properties":{"n":"富沢車両基地","g":"jp","from":"ground","ne":"Tomizawa Yard"},"geometry":{"type":"Point","coordinates":[140.86346,38.20794]}},{"type":"Feature","properties":{"n":"網干総合車両所宮原支所","g":"jp","from":"ground"},"geometry":{"type":"Point","coordinates":[135.4915,34.73009]}},{"type":"Feature","properties":{"n":"相模鉄道 車両センター","g":"jp","from":"ground"},"geometry":{"type":"Point","coordinates":[139.4133,35.46602]}},{"type":"Feature","properties":{"n":"東京メトロ 鷺沼車両基地","g":"jp","from":"ground"},"geometry":{"type":"Point","coordinates":[139.57648,35.58211]}},{"type":"Feature","properties":{"n":"梶ヶ谷貨物ターミナル駅","g":"jp","from":"ground","ne":"Kajigaya Freight Terminal Station"},"geometry":{"type":"Point","coordinates":[139.60377,35.5812]}},{"type":"Feature","properties":{"n":"鎌倉車両センター中原支所","g":"jp","from":"ground"},"geometry":{"type":"Point","coordinates":[139.63488,35.58437]}},{"type":"Feature","properties":{"n":"東急長津田車両工場","g":"jp","from":"ground"},"geometry":{"type":"Point","coordinates":[139.49331,35.54414]}},{"type":"Feature","properties":{"n":"長野新幹線車両センター","g":"jp","from":"ground"},"geometry":{"type":"Point","coordinates":[138.26673,36.6981]}},{"type":"Feature","properties":{"n":"小石川車両基地","g":"jp","from":"ground"},"geometry":{"type":"Point","coordinates":[139.7397,35.71334]}},{"type":"Feature","properties":{"n":"保谷電留線","g":"jp","from":"ground","ne":"Hoya Rail Terminal"},"geometry":{"type":"Point","coordinates":[139.56422,35.74832]}},{"type":"Feature","properties":{"n":"深川車両基地","g":"jp","from":"ground"},"geometry":{"type":"Point","coordinates":[139.81528,35.6633]}},{"type":"Feature","properties":{"n":"運営基地","g":"jp","from":"ground","ne":"Operating train depot"},"geometry":{"type":"Point","coordinates":[127.65558,26.20073]}},{"type":"Feature","properties":{"n":"新座貨物ターミナル駅","g":"jp","from":"ground","ne":"Niiza Freight Terminal Station"},"geometry":{"type":"Point","coordinates":[139.54769,35.80253]}},{"type":"Feature","properties":{"n":"横浜市営地下鉄 川和車両基地","g":"jp","from":"ground"},"geometry":{"type":"Point","coordinates":[139.54813,35.52331]}},{"type":"Feature","properties":{"n":"大阪市高速電気軌道大日検車場","g":"jp","from":"ground"},"geometry":{"type":"Point","coordinates":[135.57535,34.75066]}},{"type":"Feature","properties":{"n":"横浜市交通局 上永谷車両基地","g":"jp","from":"ground"},"geometry":{"type":"Point","coordinates":[139.57211,35.39628]}},{"type":"Feature","properties":{"n":"元住吉検車区","g":"jp","from":"ground"},"geometry":{"type":"Point","coordinates":[139.6526,35.56267]}},{"type":"Feature","properties":{"n":"京福電気鉄道西院車庫","g":"jp","from":"ground","ne":"Keifuku Railway Train Depot"},"geometry":{"type":"Point","coordinates":[135.73324,35.00448]}},{"type":"Feature","properties":{"n":"茅ヶ崎運輸区","g":"jp","from":"ground"},"geometry":{"type":"Point","coordinates":[139.4122,35.33293]}},{"type":"Feature","properties":{"n":"若葉台工場","g":"jp","from":"ground"},"geometry":{"type":"Point","coordinates":[139.46828,35.62087]}},{"type":"Feature","properties":{"n":"相模貨物駅","g":"jp","from":"ground"},"geometry":{"type":"Point","coordinates":[139.3323,35.32291]}},{"type":"Feature","properties":{"n":"北大阪急行電鉄 桃山台車庫","g":"jp","from":"ground"},"geometry":{"type":"Point","coordinates":[135.49421,34.78954]}},{"type":"Feature","properties":{"n":"蒲田電車区","g":"jp","from":"ground"},"geometry":{"type":"Point","coordinates":[139.71093,35.55678]}},{"type":"Feature","properties":{"n":"近畿日本鉄道 富吉検車区","g":"jp","from":"ground"},"geometry":{"type":"Point","coordinates":[136.7717,35.1244]}},{"type":"Feature","properties":{"n":"検修庫","g":"jp","from":"object"},"geometry":{"type":"Point","coordinates":[140.13951,39.23011]}},{"type":"Feature","properties":{"n":"東京地下鉄新木場検車区","g":"jp","from":"ground"},"geometry":{"type":"Point","coordinates":[139.83927,35.64166]}},{"type":"Feature","properties":{"n":"浦和美園車両基地","g":"jp","from":"ground","ne":"Urawa-misono Rail Yard"},"geometry":{"type":"Point","coordinates":[139.72425,35.89707]}},{"type":"Feature","properties":{"n":"名古屋市営地下鉄 高畑車庫","g":"jp","from":"ground"},"geometry":{"type":"Point","coordinates":[136.85912,35.14315]}},{"type":"Feature","properties":{"n":"田端運転所","g":"jp","from":"ground","ne":"Tabata Operation Office"},"geometry":{"type":"Point","coordinates":[139.75751,35.74263]}},{"type":"Feature","properties":{"n":"田端運転所","g":"jp","from":"ground","ne":"Tabata Operation Office"},"geometry":{"type":"Point","coordinates":[139.75759,35.74316]}},{"type":"Feature","properties":{"n":"名古屋市交通局藤が丘工場","g":"jp","from":"ground"},"geometry":{"type":"Point","coordinates":[137.02608,35.18238]}},{"type":"Feature","properties":{"n":"明星検車区","g":"jp","from":"ground"},"geometry":{"type":"Point","coordinates":[136.64401,34.53133]}},{"type":"Feature","properties":{"n":"札幌貨物ターミナル","g":"jp","from":"ground"},"geometry":{"type":"Point","coordinates":[141.43868,43.04545]}},{"type":"Feature","properties":{"n":"網干総合車両所","g":"jp","from":"ground"},"geometry":{"type":"Point","coordinates":[134.5704,34.81675]}},{"type":"Feature","properties":{"n":"西神戸保守基地","g":"jp","from":"ground"},"geometry":{"type":"Point","coordinates":[135.0146,34.66797]}},{"type":"Feature","properties":{"n":"志村車両検修場","g":"jp","from":"ground"},"geometry":{"type":"Point","coordinates":[139.6699,35.78802]}},{"type":"Feature","properties":{"n":"国府津車両センター","g":"jp","from":"ground"},"geometry":{"type":"Point","coordinates":[139.19348,35.29348]}},{"type":"Feature","properties":{"n":"JR東海 浜松工場","g":"jp","from":"ground"},"geometry":{"type":"Point","coordinates":[137.70947,34.69902]}},{"type":"Feature","properties":{"n":"川内新幹線車両センター","g":"jp","from":"ground"},"geometry":{"type":"Point","coordinates":[130.31602,31.80149]}},{"type":"Feature","properties":{"n":"上石神井車両基地","g":"jp","from":"ground"},"geometry":{"type":"Point","coordinates":[139.59541,35.72553]}},{"type":"Feature","properties":{"n":"東二見車両基地","g":"jp","from":"ground"},"geometry":{"type":"Point","coordinates":[134.88362,34.70325]}},{"type":"Feature","properties":{"n":"東海旅客鉄道 名古屋工場","g":"jp","from":"ground"},"geometry":{"type":"Point","coordinates":[136.87001,35.15514]}},{"type":"Feature","properties":{"n":"神戸電鉄鈴蘭台車両工場","g":"jp","from":"ground"},"geometry":{"type":"Point","coordinates":[135.14663,34.71731]}},{"type":"Feature","properties":{"n":"喜多見検車区","g":"jp","from":"ground"},"geometry":{"type":"Point","coordinates":[139.58934,35.6394]}},{"type":"Feature","properties":{"n":"川崎貨物駅","g":"jp","from":"ground"},"geometry":{"type":"Point","coordinates":[139.74648,35.53013]}},{"type":"Feature","properties":{"n":"阪急電鉄株式会社 正雀工場","g":"jp","from":"ground"},"geometry":{"type":"Point","coordinates":[135.54642,34.77844]}},{"type":"Feature","properties":{"n":"吹田総合車両所本所","g":"jp","from":"ground"},"geometry":{"type":"Point","coordinates":[135.53416,34.76979]}},{"type":"Feature","properties":{"n":"南福岡車両区","g":"jp","from":"ground"},"geometry":{"type":"Point","coordinates":[130.4598,33.54131]}},{"type":"Feature","properties":{"n":"東武鉄道 川越工場","g":"jp","from":"ground"},"geometry":{"type":"Point","coordinates":[139.47715,35.91368]}},{"type":"Feature","properties":{"n":"名古屋臨海鉄道 名古屋南貨物駅","g":"jp","from":"ground"},"geometry":{"type":"Point","coordinates":[136.87998,35.02066]}},{"type":"Feature","properties":{"n":"大阪モノレール車両基地","g":"jp","from":"ground"},"geometry":{"type":"Point","coordinates":[135.52593,34.80625]}},{"type":"Feature","properties":{"n":"多々良車両基地","g":"jp","from":"ground","ne":"Tatara Rail Yard"},"geometry":{"type":"Point","coordinates":[130.42577,33.63612]}},{"type":"Feature","properties":{"n":"函館新幹線総合車両所","g":"jp","from":"ground"},"geometry":{"type":"Point","coordinates":[140.66688,41.89972]}},{"type":"Feature","properties":{"n":"旧会津若松機関区","g":"jp","from":"object"},"geometry":{"type":"Point","coordinates":[139.92994,37.51249]}},{"type":"Feature","properties":{"n":"名古屋市交通局 名港工場","g":"jp","from":"ground"},"geometry":{"type":"Point","coordinates":[136.8782,35.10023]}},{"type":"Feature","properties":{"n":"つくばエクスプレス総合基地","g":"jp","from":"ground"},"geometry":{"type":"Point","coordinates":[139.99517,35.96315]}},{"type":"Feature","properties":{"n":"神戸電鉄 第三車庫","g":"jp","from":"ground"},"geometry":{"type":"Point","coordinates":[135.22369,34.85267]}},{"type":"Feature","properties":{"n":"東海旅客鉄道 大垣車両区","g":"jp","from":"ground"},"geometry":{"type":"Point","coordinates":[136.6057,35.37045]}},{"type":"Feature","properties":{"n":"大阪市高速電気軌道 緑木検車場","g":"jp","from":"ground"},"geometry":{"type":"Point","coordinates":[135.47096,34.61786]}},{"type":"Feature","properties":{"n":"名古屋臨海高速鉄道 潮凪車庫","g":"jp","from":"ground"},"geometry":{"type":"Point","coordinates":[136.86016,35.07839]}},{"type":"Feature","properties":{"n":"新大牟田保守基地","g":"jp","from":"ground"},"geometry":{"type":"Point","coordinates":[130.49102,33.062]}},{"type":"Feature","properties":{"n":"関東鉄道常総線 水海道車庫","g":"jp","from":"ground"},"geometry":{"type":"Point","coordinates":[139.98123,36.00495]}},{"type":"Feature","properties":{"n":"仮屋川操車場","g":"jp","from":"ground","ne":"Kariyagawa Yard"},"geometry":{"type":"Point","coordinates":[130.4547,33.04434]}},{"type":"Feature","properties":{"n":"西鉄柳川車両基地","g":"jp","from":"ground","ne":"Yanagawa Maintenance Yard"},"geometry":{"type":"Point","coordinates":[130.42144,33.16147]}},{"type":"Feature","properties":{"n":"吹田総合車両所奈良支所","g":"jp","from":"ground"},"geometry":{"type":"Point","coordinates":[135.80974,34.70944]}},{"type":"Feature","properties":{"n":"東日本旅客鉄道 高崎車両センター高崎支所","g":"jp","from":"ground"},"geometry":{"type":"Point","coordinates":[139.01747,36.31424]}},{"type":"Feature","properties":{"n":"日本貨物鉄道 高崎機関区","g":"jp","from":"ground"},"geometry":{"type":"Point","coordinates":[139.02133,36.31198]}},{"type":"Feature","properties":{"n":"川崎重工業 兵庫工場","g":"jp","from":"ground","ne":"Kawasaki Heavy Industries"},"geometry":{"type":"Point","coordinates":[135.16113,34.65693]}},{"type":"Feature","properties":{"n":"玉川上水車両基地","g":"jp","from":"ground"},"geometry":{"type":"Point","coordinates":[139.42499,35.7309]}},{"type":"Feature","properties":{"n":"JR東日本 小山新幹線車両センター那須電留基地","g":"jp","from":"ground"},"geometry":{"type":"Point","coordinates":[140.03511,36.94558]}},{"type":"Feature","properties":{"n":"叡山電鉄修学院車庫","g":"jp","from":"ground"},"geometry":{"type":"Point","coordinates":[135.79029,35.04972]}},{"type":"Feature","properties":{"n":"京阪電気鉄道四宮車庫","g":"jp","from":"ground"},"geometry":{"type":"Point","coordinates":[135.824,34.99212]}},{"type":"Feature","properties":{"n":"鹿児島車両センター","g":"jp","from":"ground","ne":"Kagoshima Train Depot"},"geometry":{"type":"Point","coordinates":[130.53916,31.5752]}},{"type":"Feature","properties":{"n":"一畑電車 平田車庫","g":"jp","from":"ground"},"geometry":{"type":"Point","coordinates":[132.82424,35.4325]}},{"type":"Feature","properties":{"n":"京阪電気鉄道淀車庫","g":"jp","from":"ground"},"geometry":{"type":"Point","coordinates":[135.70911,34.89918]}},{"type":"Feature","properties":{"n":"旧豊後森機関庫","g":"jp","from":"object"},"geometry":{"type":"Point","coordinates":[131.1585,33.28102]}},{"type":"Feature","properties":{"n":"大阪市高速電気軌道 東吹田検車場","g":"jp","from":"ground"},"geometry":{"type":"Point","coordinates":[135.54083,34.76797]}},{"type":"Feature","properties":{"n":"JR九州 小倉工場","g":"jp","from":"ground"},"geometry":{"type":"Point","coordinates":[130.86287,33.88171]}},{"type":"Feature","properties":{"n":"大阪市高速電気軌道 森之宮検車場","g":"jp","from":"ground"},"geometry":{"type":"Point","coordinates":[135.53632,34.68721]}},{"type":"Feature","properties":{"n":"吹田総合車両所森ノ宮支所","g":"jp","from":"ground"},"geometry":{"type":"Point","coordinates":[135.53474,34.6849]}},{"type":"Feature","properties":{"n":"吹田総合車両所日根野支所","g":"jp","from":"ground"},"geometry":{"type":"Point","coordinates":[135.32478,34.38356]}},{"type":"Feature","properties":{"n":"吹田総合車両所鳳派出所","g":"jp","from":"ground"},"geometry":{"type":"Point","coordinates":[135.45587,34.52727]}},{"type":"Feature","properties":{"n":"吹田総合車両所王寺派出所","g":"jp","from":"ground"},"geometry":{"type":"Point","coordinates":[135.70356,34.5971]}},{"type":"Feature","properties":{"n":"吹田総合車両所天理電留線","g":"jp","from":"ground"},"geometry":{"type":"Point","coordinates":[135.82948,34.60678]}},{"type":"Feature","properties":{"n":"京阪電気鉄道錦織車庫","g":"jp","from":"ground"},"geometry":{"type":"Point","coordinates":[135.85628,35.02977]}},{"type":"Feature","properties":{"n":"仙台貨物ターミナル駅","g":"jp","from":"ground","ne":"Sendai Freight Terminal Station"},"geometry":{"type":"Point","coordinates":[140.90735,38.25672]}},{"type":"Feature","properties":{"n":"小名浜駅","g":"jp","from":"ground"},"geometry":{"type":"Point","coordinates":[140.89686,36.94827]}},{"type":"Feature","properties":{"n":"名谷車両基地","g":"jp","from":"ground","ne":"Myodani Train Depot"},"geometry":{"type":"Point","coordinates":[135.08234,34.67899]}},{"type":"Feature","properties":{"n":"金沢総合車両所 松任本所","g":"jp","from":"object"},"geometry":{"type":"Point","coordinates":[136.5682,36.53015]}},{"type":"Feature","properties":{"n":"荒井車両基地","g":"jp","from":"ground"},"geometry":{"type":"Point","coordinates":[140.95128,38.24233]}},{"type":"Feature","properties":{"n":"西浜松駅","g":"jp","from":"ground"},"geometry":{"type":"Point","coordinates":[137.71277,34.69349]}},{"type":"Feature","properties":{"n":"神戸市交通局谷上車庫","g":"jp","from":"ground"},"geometry":{"type":"Point","coordinates":[135.16446,34.7598]}},{"type":"Feature","properties":{"n":"網干総合車両所高槻派出所","g":"jp","from":"ground"},"geometry":{"type":"Point","coordinates":[135.63023,34.85743]}},{"type":"Feature","properties":{"n":"網干総合車両所野洲派出所","g":"jp","from":"ground"},"geometry":{"type":"Point","coordinates":[136.03334,35.07567]}},{"type":"Feature","properties":{"n":"網干総合車両所米原派出所","g":"jp","from":"ground"},"geometry":{"type":"Point","coordinates":[136.29342,35.32188]}},{"type":"Feature","properties":{"n":"網干総合車両所放出派出所","g":"jp","from":"ground"},"geometry":{"type":"Point","coordinates":[135.57531,34.68492]}},{"type":"Feature","properties":{"n":"吹田総合車両所新在家派出所","g":"jp","from":"ground"},"geometry":{"type":"Point","coordinates":[135.20392,34.24242]}},{"type":"Feature","properties":{"n":"亀山鉄道部亀山運転区","g":"jp","from":"ground"},"geometry":{"type":"Point","coordinates":[136.44583,34.85045]}},{"type":"Feature","properties":{"n":"宇都宮貨物ターミナル","g":"jp","from":"ground","ne":"Utsunomiya Cargo Terminal"},"geometry":{"type":"Point","coordinates":[139.87025,36.4501]}},{"type":"Feature","properties":{"n":"神戸電鉄見津車庫","g":"jp","from":"ground"},"geometry":{"type":"Point","coordinates":[135.08007,34.74697]}},{"type":"Feature","properties":{"n":"大阪貨物ターミナル駅","g":"jp","from":"ground"},"geometry":{"type":"Point","coordinates":[135.5714,34.77795]}},{"type":"Feature","properties":{"n":"京阪電気鉄道寝屋川車庫","g":"jp","from":"ground"},"geometry":{"type":"Point","coordinates":[135.61803,34.75382]}},{"type":"Feature","properties":{"n":"南栗橋車両管区","g":"jp","from":"ground"},"geometry":{"type":"Point","coordinates":[139.70526,36.1211]}},{"type":"Feature","properties":{"n":"北海道旅客鉄道 旭川運転所","g":"jp","from":"ground","ne":"JR Hokkaido Asahikawa Rail Yard"},"geometry":{"type":"Point","coordinates":[142.41021,43.79951]}},{"type":"Feature","properties":{"n":"ＪＲ東日本高崎支社総合訓練センター","g":"jp","from":"ground"},"geometry":{"type":"Point","coordinates":[139.31334,36.4059]}},{"type":"Feature","properties":{"n":"近畿日本鉄道 東花園車庫","g":"jp","from":"ground"},"geometry":{"type":"Point","coordinates":[135.63198,34.66575]}},{"type":"Feature","properties":{"n":"百済貨物ターミナル","g":"jp","from":"ground"},"geometry":{"type":"Point","coordinates":[135.54199,34.63605]}},{"type":"Feature","properties":{"n":"苫小牧貨物駅","g":"jp","from":"ground"},"geometry":{"type":"Point","coordinates":[141.63464,42.65221]}},{"type":"Feature","properties":{"n":"横瀬車両基地","g":"jp","from":"ground"},"geometry":{"type":"Point","coordinates":[139.09867,35.98345]}},{"type":"Feature","properties":{"n":"吹田貨物ターミナル駅","g":"jp","from":"ground"},"geometry":{"type":"Point","coordinates":[135.53648,34.77383]}},{"type":"Feature","properties":{"n":"日本製紙石巻工場","g":"jp","from":"ground","ne":"Ishinomaki Mill power station"},"geometry":{"type":"Point","coordinates":[141.28719,38.41743]}},{"type":"Feature","properties":{"n":"都営地下鉄浅草線 馬込車両検修場","g":"jp","from":"ground","ne":"Magome vehicle inspection ground"},"geometry":{"type":"Point","coordinates":[139.70419,35.58299]}},{"type":"Feature","properties":{"n":"札幌市交通局 電車事業所 電車車両センター","g":"jp","from":"ground"},"geometry":{"type":"Point","coordinates":[141.33649,43.03048]}},{"type":"Feature","properties":{"n":"新潟新幹線車両センター","g":"jp","from":"ground"},"geometry":{"type":"Point","coordinates":[139.11128,37.91203]}},{"type":"Feature","properties":{"n":"新潟車両センター","g":"jp","from":"ground"},"geometry":{"type":"Point","coordinates":[139.09021,37.90185]}},{"type":"Feature","properties":{"n":"盛岡新幹線車両センター青森派出","g":"jp","from":"ground"},"geometry":{"type":"Point","coordinates":[140.6963,40.84483]}},{"type":"Feature","properties":{"n":"函館貨物駅","g":"jp","from":"ground"},"geometry":{"type":"Point","coordinates":[140.71849,41.80215]}},{"type":"Feature","properties":{"n":"上野検車区","g":"jp","from":"ground","ne":"Ueno car inspection ward"},"geometry":{"type":"Point","coordinates":[139.78095,35.71513]}},{"type":"Feature","properties":{"n":"金沢検車区","g":"jp","from":"ground"},"geometry":{"type":"Point","coordinates":[139.62042,35.33606]}},{"type":"Feature","properties":{"n":"奥津軽保守基地","g":"jp","from":"ground"},"geometry":{"type":"Point","coordinates":[140.51751,41.14232]}},{"type":"Feature","properties":{"n":"JR東日本 盛岡車両センター","g":"jp","from":"ground"},"geometry":{"type":"Point","coordinates":[141.12444,39.71101]}},{"type":"Feature","properties":{"n":"JR東日本盛岡新幹線車両センター","g":"jp","from":"ground"},"geometry":{"type":"Point","coordinates":[141.12326,39.73536]}},{"type":"Feature","properties":{"n":"盛岡貨物ターミナル","g":"jp","from":"ground"},"geometry":{"type":"Point","coordinates":[141.14512,39.63795]}},{"type":"Feature","properties":{"n":"下関総合車両所 運用研修センター","g":"jp","from":"ground"},"geometry":{"type":"Point","coordinates":[130.91781,33.94295]}},{"type":"Feature","properties":{"n":"幡生操車場","g":"jp","from":"ground"},"geometry":{"type":"Point","coordinates":[130.92271,33.9729]}},{"type":"Feature","properties":{"n":"北九州モノレール企救丘総合基地","g":"jp","from":"ground"},"geometry":{"type":"Point","coordinates":[130.87974,33.82044]}},{"type":"Feature","properties":{"n":"大阪市高速電気軌道 南港検車場","g":"jp","from":"ground"},"geometry":{"type":"Point","coordinates":[135.41717,34.63288]}},{"type":"Feature","properties":{"n":"郡山総合車両センター","g":"jp","from":"ground"},"geometry":{"type":"Point","coordinates":[140.38495,37.38924]}},{"type":"Feature","properties":{"n":"郡山貨物ターミナル","g":"jp","from":"ground"},"geometry":{"type":"Point","coordinates":[140.37554,37.3703]}},{"type":"Feature","properties":{"n":"勝田車両センター","g":"jp","from":"ground"},"geometry":{"type":"Point","coordinates":[140.52822,36.40631]}},{"type":"Feature","properties":{"n":"丸山車両基地","g":"jp","from":"ground"},"geometry":{"type":"Point","coordinates":[139.62529,35.97937]}},{"type":"Feature","properties":{"n":"秋田総合車両センター","g":"jp","from":"ground"},"geometry":{"type":"Point","coordinates":[140.08012,39.75368]}},{"type":"Feature","properties":{"n":"名古屋市交通局 日進工場","g":"jp","from":"ground"},"geometry":{"type":"Point","coordinates":[137.02606,35.11932]}},{"type":"Feature","properties":{"n":"唐木田検車区","g":"jp","from":"ground"},"geometry":{"type":"Point","coordinates":[139.40944,35.61323]}},{"type":"Feature","properties":{"n":"大井車両基地","g":"jp","from":"ground"},"geometry":{"type":"Point","coordinates":[139.75698,35.59787]}},{"type":"Feature","properties":{"n":"熊本総合車両所","g":"jp","from":"ground"},"geometry":{"type":"Point","coordinates":[130.67212,32.70562]}},{"type":"Feature","properties":{"n":"鳥栖貨物ターミナル","g":"jp","from":"ground","ne":"Tosu Freight Terminal"},"geometry":{"type":"Point","coordinates":[130.52432,33.38289]}},{"type":"Feature","properties":{"n":"JR多度津駅 車庫","g":"jp","from":"ground"},"geometry":{"type":"Point","coordinates":[133.75583,34.26937]}},{"type":"Feature","properties":{"n":"西九州新幹線 大村車両基地","g":"jp","from":"ground"},"geometry":{"type":"Point","coordinates":[129.94518,32.95493]}},{"type":"Feature","properties":{"n":"Busshoyama Depot","g":"jp","from":"ground"},"geometry":{"type":"Point","coordinates":[134.04302,34.28403]}},{"type":"Feature","properties":{"n":"東京メトロ竹ノ塚車両基地","g":"jp","from":"ground"},"geometry":{"type":"Point","coordinates":[139.78811,35.78902]}},{"type":"Feature","properties":{"n":"鎌倉総合車両センター 橋本出張所","g":"jp","from":"ground"},"geometry":{"type":"Point","coordinates":[139.35222,35.59152]}},{"type":"Feature","properties":{"n":"西日本旅客鉄道 福知山電車区","g":"jp","from":"ground"},"geometry":{"type":"Point","coordinates":[135.0995,35.29802]}},{"type":"Feature","properties":{"n":"千早操車場","g":"jp","from":"ground"},"geometry":{"type":"Point","coordinates":[130.43557,33.64424]}},{"type":"Feature","properties":{"n":"白山総合車両所","g":"jp","from":"ground"},"geometry":{"type":"Point","coordinates":[136.54462,36.5136]}},{"type":"Feature","properties":{"n":"広島電鉄江波車庫","g":"jp","from":"ground","ne":"Hiroshima Electric Railway Eba Depot"},"geometry":{"type":"Point","coordinates":[132.4346,34.37158]}},{"type":"Feature","properties":{"n":"東急電鉄南町田保線機械基地","g":"jp","from":"ground"},"geometry":{"type":"Point","coordinates":[139.47328,35.51195]}},{"type":"Feature","properties":{"n":"東武鉄道南栗橋車両管区新栃木出張所","g":"jp","from":"ground"},"geometry":{"type":"Point","coordinates":[139.74033,36.39873]}},{"type":"Feature","properties":{"n":"鎌倉総合車両センター","g":"jp","from":"ground"},"geometry":{"type":"Point","coordinates":[139.51602,35.34242]}},{"type":"Feature","properties":{"n":"姫路貨物駅","g":"jp","from":"ground"},"geometry":{"type":"Point","coordinates":[134.7515,34.80638]}},{"type":"Feature","properties":{"n":"京都丹後鉄道福知山運転所","g":"jp","from":"ground"},"geometry":{"type":"Point","coordinates":[135.10571,35.31613]}},{"type":"Feature","properties":{"n":"赤田保線機械基地","g":"jp","from":"ground"},"geometry":{"type":"Point","coordinates":[139.55287,35.56218]}},{"type":"Feature","properties":{"n":"京成電鉄 宗吾車両基地","g":"jp","from":"ground"},"geometry":{"type":"Point","coordinates":[140.2772,35.74804]}},{"type":"Feature","properties":{"n":"JR西日本後藤総合車両所","g":"jp","from":"ground"},"geometry":{"type":"Point","coordinates":[133.3329,35.43881]}},{"type":"Feature","properties":{"n":"JR四国 多度津工場","g":"jp","from":"ground"},"geometry":{"type":"Point","coordinates":[133.74986,34.27488]}},{"type":"Feature","properties":{"n":"網干総合車両所余部派出所","g":"jp","from":"ground"},"geometry":{"type":"Point","coordinates":[134.627,34.86428]}},{"type":"Feature","properties":{"n":"近畿日本鉄道 古市検車区","g":"jp","from":"ground","ne":"Furuichi"},"geometry":{"type":"Point","coordinates":[135.60585,34.54875]}},{"type":"Feature","properties":{"n":"新幹線鴨宮保守基地","g":"jp","from":"ground"},"geometry":{"type":"Point","coordinates":[139.17399,35.2745]}},{"type":"Feature","properties":{"n":"名古屋貨物ターミナル駅","g":"jp","from":"ground"},"geometry":{"type":"Point","coordinates":[136.86216,35.13155]}},{"type":"Feature","properties":{"n":"名古屋鉄道 犬山検査場新川検車支区","g":"jp","from":"ground"},"geometry":{"type":"Point","coordinates":[136.84892,35.19692]}},{"type":"Feature","properties":{"n":"JR四国 高知運転所","g":"jp","from":"ground"},"geometry":{"type":"Point","coordinates":[133.58603,33.57637]}},{"type":"Feature","properties":{"n":"苗穂運転所","g":"jp","from":"ground"},"geometry":{"type":"Point","coordinates":[141.37942,43.07092]}},{"type":"Feature","properties":{"n":"福井新幹線保線区越前保守基地","g":"jp","from":"ground"},"geometry":{"type":"Point","coordinates":[136.19537,35.88405]}},{"type":"Feature","properties":{"n":"敦賀車両基地","g":"jp","from":"ground"},"geometry":{"type":"Point","coordinates":[136.0761,35.63037]}},{"type":"Feature","properties":{"n":"大阪市高速電気軌道 中百舌鳥検車場","g":"jp","from":"object"},"geometry":{"type":"Point","coordinates":[135.50606,34.56032]}},{"type":"Feature","properties":{"n":"入生田検車区","g":"jp","from":"ground"},"geometry":{"type":"Point","coordinates":[139.1229,35.24191]}},{"type":"Feature","properties":{"n":"大阪市高速電気軌道 鶴見緑地北車庫","g":"jp","from":"ground"},"geometry":{"type":"Point","coordinates":[135.56757,34.71625]}},{"type":"Feature","properties":{"n":"広島電鉄 千田車庫","g":"jp","from":"ground"},"geometry":{"type":"Point","coordinates":[132.45905,34.37789]}},{"type":"Feature","properties":{"n":"東海道新幹線 保線基地","g":"jp","from":"ground"},"geometry":{"type":"Point","coordinates":[138.05479,34.77163]}},{"type":"Feature","properties":{"n":"東海道新幹線 保線基地","g":"jp","from":"ground"},"geometry":{"type":"Point","coordinates":[138.06145,34.77118]}},{"type":"Feature","properties":{"n":"東海道新幹線 保線基地","g":"jp","from":"object"},"geometry":{"type":"Point","coordinates":[137.99907,34.76625]}},{"type":"Feature","properties":{"n":"武州原谷","g":"jp","from":"object","ne":"Bushu-Haraya"},"geometry":{"type":"Point","coordinates":[139.09679,36.02709]}},{"type":"Feature","properties":{"n":"長安寺","g":"jp","from":"object","ne":"Chōanji"},"geometry":{"type":"Point","coordinates":[141.68726,39.10691]}},{"type":"Feature","properties":{"n":"岩手石橋","g":"jp","from":"object","ne":"Iwate-Ishibashi"},"geometry":{"type":"Point","coordinates":[141.65681,39.14687]}},{"type":"Feature","properties":{"n":"日頃市","g":"jp","from":"object","ne":"Hikoroichi"},"geometry":{"type":"Point","coordinates":[141.66911,39.12701]}},{"type":"Feature","properties":{"n":"岡山貨物ターミナル","g":"jp","from":"object"},"geometry":{"type":"Point","coordinates":[133.89844,34.65693]}},{"type":"Feature","properties":{"n":"厚木操車場","g":"jp","from":"object","ne":"Atsugi Classification Yard"},"geometry":{"type":"Point","coordinates":[139.37911,35.4463]}},{"type":"Feature","properties":{"n":"金沢貨物ターミナル","g":"jp","from":"object"},"geometry":{"type":"Point","coordinates":[136.66553,36.5906]}},{"type":"Feature","properties":{"n":"日本製鉄専用鉄道 第二操車場","g":"jp","from":"object"},"geometry":{"type":"Point","coordinates":[130.80435,33.87317]}},{"type":"Feature","properties":{"n":"第一操車場","g":"jp","from":"object"},"geometry":{"type":"Point","coordinates":[130.84191,33.90279]}},{"type":"Feature","properties":{"n":"京葉市原","g":"jp","from":"object","ne":"Keiyō-Ichihara"},"geometry":{"type":"Point","coordinates":[140.10306,35.54396]}},{"type":"Feature","properties":{"n":"浜五井","g":"jp","from":"object","ne":"Hama-goi"},"geometry":{"type":"Point","coordinates":[140.08486,35.53247]}},{"type":"Feature","properties":{"n":"甲子","g":"jp","from":"object","ne":"Kinoene"},"geometry":{"type":"Point","coordinates":[140.05949,35.51798]}},{"type":"Feature","properties":{"n":"前川","g":"jp","from":"object","ne":"Maekawa"},"geometry":{"type":"Point","coordinates":[140.04658,35.49756]}},{"type":"Feature","properties":{"n":"椎津","g":"jp","from":"object","ne":"Shiizu"},"geometry":{"type":"Point","coordinates":[140.02853,35.47326]}},{"type":"Feature","properties":{"n":"京葉久保田","g":"jp","from":"object","ne":"Keiyō-Kubota"},"geometry":{"type":"Point","coordinates":[139.99558,35.46251]}},{"type":"Feature","properties":{"n":"千葉貨物","g":"jp","from":"object"},"geometry":{"type":"Point","coordinates":[140.12252,35.5575]}},{"type":"Feature","properties":{"n":"南福井","g":"jp","from":"object","ne":"Minami-Fukui"},"geometry":{"type":"Point","coordinates":[136.21742,36.04583]}},{"type":"Feature","properties":{"n":"名電築港","g":"jp","from":"object"},"geometry":{"type":"Point","coordinates":[136.90213,35.0912]}},{"type":"Feature","properties":{"n":"東港","g":"jp","from":"object"},"geometry":{"type":"Point","coordinates":[136.90352,35.07923]}},{"type":"Feature","properties":{"n":"東高島","g":"jp","from":"object","ne":"Higashi-Takashima"},"geometry":{"type":"Point","coordinates":[139.63635,35.47115]}},{"type":"Feature","properties":{"n":"横浜羽沢","g":"jp","from":"object","ne":"Yokohama Hazawa"},"geometry":{"type":"Point","coordinates":[139.58997,35.48322]}},{"type":"Feature","properties":{"n":"西浜駅","g":"jp","from":"object"},"geometry":{"type":"Point","coordinates":[134.3701,34.75297]}},{"type":"Feature","properties":{"n":"湖山オフレールステーション","g":"jp","from":"object"},"geometry":{"type":"Point","coordinates":[134.19173,35.51129]}},{"type":"Feature","properties":{"n":"博多総合車両所","g":"jp","from":"object"},"geometry":{"type":"Point","coordinates":[130.44036,33.50927]}},{"type":"Feature","properties":{"n":"名古屋市営地下鉄 徳重車庫","g":"jp","from":"object"},"geometry":{"type":"Point","coordinates":[136.99908,35.0941]}},{"type":"Feature","properties":{"n":"名古屋貨物ターミナル駅","g":"jp","from":"object"},"geometry":{"type":"Point","coordinates":[136.8619,35.12574]}},{"type":"Feature","properties":{"n":"帯広貨物駅","g":"jp","from":"object"},"geometry":{"type":"Point","coordinates":[143.146,42.92661]}},{"type":"Feature","properties":{"n":"北九州貨物ターミナル駅","g":"jp","from":"object"},"geometry":{"type":"Point","coordinates":[130.92612,33.8987]}},{"type":"Feature","properties":{"n":"西湘貨物駅","g":"jp","from":"object","ne":"Seishō Freight Terminal"},"geometry":{"type":"Point","coordinates":[139.19153,35.27777]}},{"type":"Feature","properties":{"n":"浜川崎","g":"jp","from":"object","ne":"Hama-Kawasaki"},"geometry":{"type":"Point","coordinates":[139.71823,35.51011]}},{"type":"Feature","properties":{"n":"田端信号場","g":"jp","from":"object","ne":"Tabata Signalling Station"},"geometry":{"type":"Point","coordinates":[139.76552,35.7351]}},{"type":"Feature","properties":{"n":"羽田新保守基地","g":"jp","from":"object"},"geometry":{"type":"Point","coordinates":[139.75941,35.6039]}},{"type":"Feature","properties":{"n":"高岡貨物","g":"jp","from":"object"},"geometry":{"type":"Point","coordinates":[137.05106,36.77766]}},{"type":"Feature","properties":{"n":"岐阜貨物ターミナル","g":"jp","from":"object"},"geometry":{"type":"Point","coordinates":[136.71755,35.40293]}},{"type":"Feature","properties":{"n":"京都貨物駅","g":"jp","from":"object","ne":"Kyoto Freight Station"},"geometry":{"type":"Point","coordinates":[135.73885,34.98417]}},{"type":"Feature","properties":{"n":"東福山貨物駅","g":"jp","from":"object"},"geometry":{"type":"Point","coordinates":[133.40831,34.49481]}},{"type":"Feature","properties":{"n":"古川保守基地","g":"jp","from":"object"},"geometry":{"type":"Point","coordinates":[140.96159,38.5475]}},{"type":"Feature","properties":{"n":"塩尻機関区","g":"jp","from":"object"},"geometry":{"type":"Point","coordinates":[137.94732,36.11198]}},{"type":"Feature","properties":{"n":"秋田貨物駅","g":"jp","from":"object","ne":"Akita Freight Terminal"},"geometry":{"type":"Point","coordinates":[140.10308,39.74216]}},{"type":"Feature","properties":{"n":"竹田車両基地","g":"jp","from":"table"},"geometry":{"type":"Point","coordinates":[135.75535,34.95905]}},{"type":"Feature","properties":{"n":"八千代緑が丘車両基地","g":"jp","from":"table"},"geometry":{"type":"Point","coordinates":[140.08245,35.73559]}},{"type":"Feature","properties":{"n":"深川検車区行徳分室","g":"jp","from":"table"},"geometry":{"type":"Point","coordinates":[139.93389,35.69078]}},{"type":"Feature","properties":{"n":"八尾車庫","g":"jp","from":"table"},"geometry":{"type":"Point","coordinates":[135.58298,34.5976]}},{"type":"Feature","properties":{"n":"東生駒車庫","g":"jp","from":"table"},"geometry":{"type":"Point","coordinates":[135.71141,34.69182]}},{"type":"Feature","properties":{"n":"昭和島車両基地","g":"jp","from":"table"},"geometry":{"type":"Point","coordinates":[139.75006,35.57242]}},{"type":"Feature","properties":{"n":"深川検車区行徳分室","g":"jp","from":"table"},"geometry":{"type":"Point","coordinates":[139.92708,35.69323]}},{"type":"Feature","properties":{"n":"萩台車両基地","g":"jp","from":"table"},"geometry":{"type":"Point","coordinates":[140.12532,35.63941]}},{"type":"Feature","properties":{"n":"有明車両基地","g":"jp","from":"table"},"geometry":{"type":"Point","coordinates":[139.79709,35.62709]}},{"type":"Feature","properties":{"n":"長楽寺車庫","g":"jp","from":"table"},"geometry":{"type":"Point","coordinates":[132.42744,34.47119]}},{"type":"Feature","properties":{"n":"小山新幹線車両センター","g":"jp","from":"table"},"geometry":{"type":"Point","coordinates":[139.81881,36.33542]}},{"type":"Feature","properties":{"n":"大宮総合車両センター東大宮センター","g":"jp","from":"table"},"geometry":{"type":"Point","coordinates":[139.63305,35.94444]}},{"type":"Feature","properties":{"n":"豊田車両センター","g":"jp","from":"table"},"geometry":{"type":"Point","coordinates":[139.37217,35.65294]}},{"type":"Feature","properties":{"n":"川越車両センター","g":"jp","from":"table"},"geometry":{"type":"Point","coordinates":[139.52985,35.90304]}},{"type":"Feature","properties":{"n":"網干総合車両所明石支所","g":"jp","from":"table"},"geometry":{"type":"Point","coordinates":[134.96519,34.66251]}},{"type":"Feature","properties":{"n":"小倉総合車両センター","g":"jp","from":"table"},"geometry":{"type":"Point","coordinates":[130.89826,33.88707]}},{"type":"Feature","properties":{"n":"西大寺検車区","g":"jp","from":"table"},"geometry":{"type":"Point","coordinates":[135.7853,34.6877]}},{"type":"Feature","properties":{"n":"後藤総合車両所出雲支所","g":"jp","from":"table"},"geometry":{"type":"Point","coordinates":[132.71102,35.32887]}},{"type":"Feature","properties":{"n":"高松運転所","g":"jp","from":"table"},"geometry":{"type":"Point","coordinates":[134.02422,34.34549]}},{"type":"Feature","properties":{"n":"筑紫車両基地","g":"jp","from":"table"},"geometry":{"type":"Point","coordinates":[130.55852,33.45865]}},{"type":"Feature","properties":{"n":"印旛車両基地","g":"jp","from":"table"},"geometry":{"type":"Point","coordinates":[140.18447,35.79438]}},{"type":"Feature","properties":{"n":"南栗橋車両管区七光台支所","g":"jp","from":"table"},"geometry":{"type":"Point","coordinates":[139.84828,35.97531]}},{"type":"Feature","properties":{"n":"広瀬川原車両基地","g":"jp","from":"table"},"geometry":{"type":"Point","coordinates":[139.3447,36.14586]}},{"type":"Feature","properties":{"n":"橋本車両基地","g":"jp","from":"table"},"geometry":{"type":"Point","coordinates":[130.32278,33.55072]}},{"type":"Feature","properties":{"n":"姪浜車両基地","g":"jp","from":"table"},"geometry":{"type":"Point","coordinates":[130.31068,33.58295]}},{"type":"Feature","properties":{"n":"多摩都市モノレール車両基地","g":"jp","from":"table"},"geometry":{"type":"Point","coordinates":[139.40917,35.71489]}},{"type":"Feature","properties":{"n":"盛岡車両センター","g":"jp","from":"table"},"geometry":{"type":"Point","coordinates":[141.13619,39.70109]}},{"type":"Feature","properties":{"n":"仙台車両センター","g":"jp","from":"table"},"geometry":{"type":"Point","coordinates":[140.903,38.2705]}},{"type":"Feature","properties":{"n":"小山車両センター","g":"jp","from":"table"},"geometry":{"type":"Point","coordinates":[139.84774,36.38295]}},{"type":"Feature","properties":{"n":"大分車両センター","g":"jp","from":"table"},"geometry":{"type":"Point","coordinates":[131.63396,33.2338]}},{"type":"Feature","properties":{"n":"さいたま車両センター","g":"jp","from":"table"},"geometry":{"type":"Point","coordinates":[139.67615,35.84144]}},{"type":"Feature","properties":{"n":"高崎車両センター籠原派出所","g":"jp","from":"table"},"geometry":{"type":"Point","coordinates":[139.32563,36.17629]}},{"type":"Feature","properties":{"n":"習志野運輸区","g":"jp","from":"table"},"geometry":{"type":"Point","coordinates":[140.01221,35.69395]}},{"type":"Feature","properties":{"n":"新津運輸区","g":"jp","from":"table"},"geometry":{"type":"Point","coordinates":[139.12061,37.80194]}},{"type":"Feature","properties":{"n":"高崎操車場","g":"jp","from":"table"},"geometry":{"type":"Point","coordinates":[139.03847,36.30435]}},{"type":"Feature","properties":{"n":"大野総合車両所","g":"jp","from":"table"},"geometry":{"type":"Point","coordinates":[139.43439,35.52765]}},{"type":"Feature","properties":{"n":"神戸貨物ターミナル","g":"jp","from":"table"},"geometry":{"type":"Point","coordinates":[135.13423,34.65149]}},{"type":"Feature","properties":{"n":"松戸車両センター","g":"jp","from":"table"},"geometry":{"type":"Point","coordinates":[139.90018,35.77085]}},{"type":"Feature","properties":{"n":"いわき運輸区","g":"jp","from":"table"},"geometry":{"type":"Point","coordinates":[140.89478,37.05837]}},{"type":"Feature","properties":{"n":"くぬぎ山車両基地","g":"jp","from":"table"},"geometry":{"type":"Point","coordinates":[139.98095,35.77749]}},{"type":"Feature","properties":{"n":"北見運転所","g":"jp","from":"table"},"geometry":{"type":"Point","coordinates":[143.89773,43.80488]}},{"type":"Feature","properties":{"n":"飾磨車両所","g":"jp","from":"table"},"geometry":{"type":"Point","coordinates":[134.67189,34.80147]}},{"type":"Feature","properties":{"n":"蘇我運輸区","g":"jp","from":"table"},"geometry":{"type":"Point","coordinates":[140.13097,35.58112]}},{"type":"Feature","properties":{"n":"宇和島運転区","g":"jp","from":"table"},"geometry":{"type":"Point","coordinates":[132.57079,33.22876]}},{"type":"Feature","properties":{"n":"下今市機関区","g":"jp","from":"table"},"geometry":{"type":"Point","coordinates":[139.69296,36.72562]}},{"type":"Feature","properties":{"n":"古町車庫","g":"jp","from":"table"},"geometry":{"type":"Point","coordinates":[132.75502,33.84773]}}]}