{"type":"FeatureCollection","features":[{"type":"Feature","properties":{"c":"build","n":"9호선","g":"kr","nz":"首尔地铁9号线","ne":"Line 9"},"geometry":{"type":"LineString","coordinates":[[127.1693,37.56234],[127.16099,37.56294],[127.16046,37.56299],[127.16003,37.56305],[127.15964,37.56308],[127.15924,37.56307],[127.1588,37.56301],[127.15835,37.5629],[127.15794,37.56277],[127.15758,37.56261],[127.15725,37.5624],[127.15698,37.56215],[127.15678,37.5619],[127.15662,37.56134],[127.15658,37.56076],[127.15649,37.55842],[127.15633,37.5545],[127.15608,37.55],[127.15567,37.54589],[127.15442,37.54255],[127.15301,37.53924],[127.15154,37.53595],[127.1501,37.53265]]}},{"type":"Feature","properties":{"c":"build","n":"경강선","g":"kr","nz":"京江线","ne":"Gyeonggang Line"},"geometry":{"type":"MultiLineString","coordinates":[[[126.8072,37.37773],[126.80691,37.37824],[126.80662,37.37875],[126.80635,37.37933],[126.80604,37.38039],[126.80577,37.38162],[126.80544,37.38282],[126.80508,37.38369],[126.80465,37.38456],[126.80425,37.3854],[126.804,37.38614],[126.80392,37.38657],[126.80389,37.38696],[126.8039,37.38733],[126.80394,37.38768],[126.80402,37.38805],[126.80415,37.38839],[126.80431,37.38875],[126.8047,37.38949],[126.80522,37.39034],[126.8058,37.39108],[126.8065,37.39189],[126.80719,37.39276],[126.80772,37.39367],[126.80802,37.3947],[126.80818,37.39582],[126.80826,37.39691],[126.80836,37.39785],[126.80842,37.39839],[126.80846,37.39886],[126.80852,37.39931],[126.80865,37.39975],[126.80884,37.4002],[126.80909,37.40063],[126.80938,37.40106],[126.80969,37.40147],[126.81022,37.40207],[126.81081,37.40266],[126.81134,37.40318],[126.81176,37.40363],[126.81216,37.40403],[126.81264,37.40443],[126.81318,37.40481],[126.81356,37.40506],[126.81397,37.40531],[126.8144,37.40555],[126.81485,37.40574],[126.81528,37.40586],[126.81571,37.40592],[126.81621,37.40598],[126.81684,37.40607],[126.82067,37.40677],[126.82597,37.40771],[126.83128,37.40846],[126.83629,37.40865],[126.84132,37.40866],[126.8458,37.40866],[126.85306,37.40875],[126.86155,37.40927],[126.87629,37.41061],[126.87689,37.41065],[126.87732,37.41067],[126.87773,37.41074],[126.87816,37.41089],[126.87856,37.41109],[126.87895,37.41136],[126.87933,37.4117],[126.8797,37.41212],[126.88006,37.41257],[126.88038,37.41303],[126.88074,37.41362],[126.88106,37.41423],[126.8814,37.41487],[126.88284,37.4175],[126.88382,37.41927],[126.88427,37.42014],[126.88468,37.42108],[126.88488,37.42173],[126.88504,37.42246],[126.88521,37.42316],[126.88543,37.42378],[126.88561,37.42415],[126.8858,37.42449],[126.88602,37.4248],[126.88628,37.42508],[126.8866,37.42533],[126.88696,37.42555],[126.88734,37.42576],[126.88772,37.42594],[126.88816,37.42613],[126.8886,37.42629],[126.88911,37.42644],[126.88983,37.42661],[126.89067,37.42676],[126.89154,37.42689],[126.89234,37.42695],[126.89291,37.42697],[126.89346,37.42696],[126.89399,37.42691],[126.89453,37.42682],[126.89512,37.42666],[126.8957,37.42644],[126.89628,37.42617],[126.89687,37.42588],[126.89778,37.42537],[126.8987,37.42478],[126.89953,37.42419],[126.90013,37.42369],[126.90066,37.42319],[126.9012,37.42265],[126.90218,37.4215],[126.90323,37.42026],[126.90464,37.41889],[126.90608,37.41749],[126.90721,37.41615],[126.90854,37.41449],[126.92143,37.3988],[126.92182,37.3983],[126.92209,37.39794],[126.92239,37.39762],[126.9228,37.39728],[126.92326,37.39697],[126.92371,37.39668],[126.92411,37.39645],[126.92451,37.39623],[126.92491,37.39606],[126.92538,37.39591],[126.92584,37.39582],[126.92627,37.39582],[126.92675,37.39586],[126.92715,37.39585],[126.9276,37.39584],[126.92807,37.39585],[126.92857,37.39594],[126.9294,37.39628],[126.93033,37.39681],[126.93122,37.39738],[126.93196,37.39783],[126.93239,37.39808],[126.93274,37.39829],[126.93312,37.39848],[126.93353,37.39866],[126.93397,37.39882],[126.93441,37.39893],[126.93483,37.39897],[126.93526,37.39896],[126.93582,37.39895],[126.93745,37.39892],[126.93964,37.39888],[126.94192,37.39888],[126.94377,37.39902],[126.94469,37.39932],[126.94549,37.39972],[126.94619,37.40013],[126.94685,37.40049],[126.94764,37.40088],[126.94838,37.40122],[126.94898,37.40147],[126.9496,37.4017],[126.95024,37.4019],[126.95083,37.40202],[126.95144,37.40212],[126.95222,37.40224],[126.96328,37.40416],[126.96521,37.40453],[126.96689,37.40479],[126.96882,37.40492],[126.97059,37.40495],[126.97105,37.40495],[126.97145,37.40495],[126.97184,37.40492],[126.97226,37.40484],[126.97293,37.40459],[126.97363,37.40422],[126.97433,37.40379],[126.975,37.40337],[126.97618,37.40255],[126.97734,37.40163],[126.97882,37.40021],[126.98038,37.3987],[126.9823,37.3972],[126.98413,37.39584],[126.98512,37.39511],[126.986,37.39441],[126.98659,37.39383],[126.98715,37.39322],[126.98773,37.39267],[126.98823,37.39229],[126.98874,37.39196],[126.98935,37.39162],[126.99046,37.39105],[126.99177,37.39046],[126.99326,37.38992],[126.99572,37.3893],[126.99851,37.38876],[127.00108,37.38834],[127.0035,37.38803],[127.00577,37.38785],[127.00802,37.38771],[127.01027,37.38766],[127.01235,37.38773],[127.01476,37.38785],[127.02938,37.38846],[127.03589,37.38874],[127.03912,37.38874],[127.04241,37.38877],[127.04609,37.38901],[127.04997,37.3894],[127.06009,37.39081],[127.06383,37.39133],[127.0676,37.39162],[127.07146,37.39179],[127.07545,37.39184],[127.07816,37.39169],[127.08044,37.39151],[127.08114,37.39145],[127.08175,37.3914],[127.08235,37.39139],[127.08283,37.39141],[127.08332,37.39146],[127.0838,37.39154],[127.08424,37.39164],[127.0846,37.39177],[127.08494,37.39193],[127.08527,37.3921],[127.08561,37.39226],[127.08628,37.39249],[127.08705,37.39273],[127.09125,37.39411],[127.09206,37.3944],[127.09281,37.39466],[127.09357,37.39488],[127.09418,37.39501],[127.0948,37.39511],[127.09542,37.39518],[127.09604,37.39522],[127.09664,37.39521],[127.09722,37.39516],[127.09781,37.39509],[127.0984,37.39503],[127.10075,37.39485],[127.10192,37.39474],[127.1031,37.39466],[127.10428,37.3947],[127.10546,37.39477]],[[127.63495,37.28214],[127.64863,37.28016],[127.65685,37.27841],[127.6717,37.27608],[127.67722,37.27553],[127.67862,37.27538],[127.6799,37.27527],[127.68125,37.27527],[127.6826,37.27534],[127.68383,37.2755],[127.68525,37.27573],[127.6942,37.27702],[127.70456,37.27795],[127.71692,37.27907],[127.72121,37.27941],[127.72526,37.27983],[127.728,37.28023],[127.73071,37.28072],[127.73344,37.28135],[127.73631,37.28232],[127.73921,37.28345],[127.74222,37.28473],[127.7459,37.28661],[127.74976,37.28868],[127.75369,37.29096],[127.75802,37.29461],[127.76249,37.29857],[127.76642,37.30223],[127.76825,37.30479],[127.76965,37.30728],[127.77147,37.31001],[127.77865,37.31797],[127.78617,37.32588],[127.79029,37.32978],[127.7941,37.33303],[127.79737,37.33519],[127.80063,37.33724],[127.80422,37.33982],[127.80769,37.34259],[127.81105,37.34588],[127.81376,37.34875],[127.81455,37.34959],[127.81525,37.35026],[127.8161,37.35093],[127.81703,37.35156],[127.81784,37.35204],[127.81871,37.35252],[127.81957,37.35292],[127.82027,37.35319],[127.82096,37.35341],[127.82174,37.35362],[127.82302,37.35391],[127.82445,37.35419],[127.82577,37.35437],[127.82664,37.35443],[127.82745,37.35444],[127.82822,37.35443],[127.82868,37.35443],[127.82911,37.35442],[127.82954,37.3544],[127.82999,37.35433],[127.83053,37.3542],[127.83108,37.35402],[127.83164,37.35379],[127.83222,37.35351],[127.83306,37.35301],[127.83392,37.35239],[127.8348,37.35173],[127.83568,37.35108]],[[126.80787,37.39482],[126.80794,37.39447],[126.80803,37.39413],[126.80809,37.39378],[126.80807,37.3934],[126.80785,37.39281],[126.80748,37.39216],[126.80705,37.39153],[126.80667,37.39097],[126.80634,37.39054],[126.80601,37.39017],[126.80572,37.38976],[126.80542,37.38918],[126.80515,37.38855],[126.80496,37.38794],[126.80486,37.38747],[126.80481,37.38702],[126.8048,37.38656],[126.80483,37.38606],[126.80491,37.38556],[126.80502,37.38507],[126.80522,37.38439],[126.8055,37.38362],[126.80699,37.37908],[126.80715,37.37868],[126.80724,37.37835],[126.80725,37.37797],[126.80719,37.37759],[126.80708,37.37726],[126.8069,37.37694],[126.80661,37.37661],[126.80624,37.37633],[126.8058,37.37611],[126.80531,37.37594],[126.80494,37.37584],[126.80455,37.37575],[126.8041,37.37568],[126.80343,37.37561],[126.80266,37.37555],[126.80185,37.37552],[126.80108,37.37554],[126.80036,37.37561],[126.79964,37.37573],[126.79895,37.37588],[126.79833,37.37606],[126.79788,37.37626],[126.79747,37.37649],[126.79709,37.37672],[126.79668,37.37693],[126.79584,37.37726],[126.79489,37.3776],[126.79408,37.37794],[126.79318,37.37834],[126.7922,37.37871],[126.79116,37.379],[126.78982,37.37917],[126.78838,37.37922],[126.78681,37.37922],[126.78506,37.37926],[126.76996,37.3799],[126.76436,37.38014],[126.75877,37.38012],[126.75733,37.38004],[126.75597,37.37993],[126.75477,37.3799],[126.75407,37.37994],[126.75345,37.38002],[126.7528,37.38015],[126.75212,37.38032],[126.75138,37.38053],[126.75067,37.38077],[126.75006,37.38102],[126.74971,37.38121],[126.7494,37.3814],[126.74912,37.38161],[126.74884,37.38183],[126.74852,37.3821],[126.7482,37.38238],[126.74791,37.38269],[126.74765,37.383],[126.74743,37.38333],[126.74726,37.38367],[126.74709,37.38403],[126.74693,37.38442],[126.74651,37.38575],[126.74617,37.38702],[126.74607,37.38738],[126.74599,37.38769],[126.74588,37.38799],[126.74572,37.38829],[126.74553,37.38858],[126.74531,37.38888],[126.74487,37.38937],[126.74437,37.38988],[126.74408,37.39016],[126.74406,37.39018],[126.74404,37.3902],[126.74402,37.39022],[126.744,37.39023],[126.74399,37.39026],[126.744,37.39027],[126.74403,37.39029],[126.74406,37.3903],[126.74408,37.39031],[126.74411,37.39033],[126.74415,37.39035],[126.74417,37.39037],[126.74419,37.39038],[126.74422,37.3904],[126.74424,37.39042],[126.74426,37.39042],[126.74429,37.39041],[126.7443,37.3904],[126.74432,37.39037],[126.74433,37.39035],[126.74435,37.39033],[126.74534,37.38937],[126.74686,37.38779],[126.74845,37.38577],[126.74986,37.38386],[126.75026,37.38332],[126.75059,37.38285],[126.75097,37.38241],[126.75132,37.38209],[126.75169,37.38179],[126.75209,37.38151],[126.75252,37.38124],[126.753,37.38098],[126.75353,37.38073],[126.75407,37.38051],[126.75461,37.38034],[126.75509,37.38024],[126.75557,37.38018],[126.75605,37.38013],[126.75653,37.38008]]]}},{"type":"Feature","properties":{"c":"build","n":"경전본선","g":"kr","nz":"庆全本线","ne":"Gyeongjeon Line"},"geometry":{"type":"MultiLineString","coordinates":[[[128.81716,35.21307],[128.81446,35.21473],[128.81189,35.21623],[128.81077,35.2168],[128.80972,35.2173],[128.80863,35.21773],[128.80752,35.21807],[128.80639,35.21835],[128.80507,35.21868],[128.80075,35.21976],[128.79615,35.22107],[128.79273,35.22246],[128.78975,35.22381],[128.78811,35.22454],[128.78656,35.22518],[128.78475,35.22577],[128.78273,35.22627],[128.78052,35.22669],[128.77804,35.22704],[128.77557,35.22727],[128.77328,35.22727],[128.77099,35.22714],[128.76853,35.227],[128.75747,35.22659],[128.75632,35.22653],[128.75538,35.22648],[128.75445,35.22648],[128.75343,35.22655],[128.75243,35.22668],[128.75144,35.22682],[128.74879,35.22731],[128.7435,35.22829]],[[128.98842,35.16223],[128.98725,35.1621],[128.98608,35.16198],[128.98475,35.16194],[128.98221,35.16216],[128.97929,35.16259],[128.97646,35.16303],[128.96949,35.16419],[128.96692,35.16462],[128.9656,35.16478],[128.96431,35.16487],[128.96359,35.16488],[128.96289,35.16486],[128.96219,35.16481],[128.96151,35.16472],[128.96083,35.1646],[128.96013,35.16445],[128.95889,35.16411],[128.95764,35.16371],[128.95522,35.16283],[128.94498,35.15909],[128.94336,35.1585],[128.94281,35.15832],[128.94225,35.15815],[128.9417,35.15801],[128.9413,35.15793],[128.94092,35.15786],[128.94052,35.15781],[128.94009,35.15778],[128.93947,35.15779],[128.93879,35.15783],[128.9381,35.1579],[128.93742,35.15798],[128.93627,35.15816],[128.93479,35.15842],[128.91175,35.1623],[128.90986,35.16264],[128.90833,35.16287],[128.9066,35.16305],[128.90486,35.16316],[128.90137,35.16329],[128.88492,35.16392],[128.88174,35.16404],[128.88011,35.16417],[128.87857,35.16436],[128.87754,35.16455],[128.87651,35.16481],[128.87472,35.16538],[128.87283,35.16609],[128.87123,35.16683],[128.86938,35.16775],[128.85548,35.17439],[128.85464,35.17478],[128.854,35.1751],[128.8533,35.1755],[128.85262,35.17593],[128.85219,35.17624],[128.85178,35.17656],[128.85139,35.17692],[128.85098,35.17737],[128.8506,35.17786],[128.85024,35.17836],[128.84924,35.17988],[128.84347,35.18863]]]}},{"type":"Feature","properties":{"c":"build","n":"경전선","g":"kr","nz":"庆全线","ne":"Gyeongjeon Line"},"geometry":{"type":"MultiLineString","coordinates":[[[128.82557,35.20788],[128.81716,35.21307]],[[128.98845,35.16233],[128.98909,35.16243],[128.98973,35.16253],[128.99043,35.1626],[128.99146,35.16264],[128.99258,35.16263],[128.9937,35.16256],[128.99468,35.16242],[128.99566,35.16222],[128.99689,35.16197],[129.01152,35.15928],[129.0176,35.15816],[129.01972,35.15785],[129.02185,35.15758],[129.02376,35.15745],[129.0249,35.15747],[129.02593,35.15756],[129.02695,35.15769],[129.02836,35.15798],[129.03004,35.15837],[129.04343,35.16129]]]}},{"type":"Feature","properties":{"c":"build","n":"광주 도시철도 2호선","g":"kr","nz":"光州都市铁道2号线","ne":"Gwangju Metro Line 2"},"geometry":{"type":"LineString","coordinates":[[126.83376,35.17832],[126.84653,35.17536],[126.847,35.17527],[126.84732,35.17518],[126.84769,35.175],[126.84799,35.17478],[126.84818,35.17449],[126.84829,35.17418],[126.84831,35.17391],[126.84829,35.17354],[126.84834,35.16546],[126.84836,35.16464],[126.84838,35.16397],[126.84835,35.16331],[126.84825,35.16277],[126.8481,35.16222],[126.84796,35.16169],[126.8479,35.16119],[126.84794,35.16084],[126.84802,35.1605],[126.84812,35.16018],[126.84819,35.15985],[126.84823,35.15921],[126.84823,35.15841],[126.84814,35.14864],[126.84813,35.14817],[126.84826,35.14771],[126.84856,35.14751],[126.84897,35.14733],[126.84939,35.14726],[126.84975,35.14734],[126.85012,35.14751],[126.85051,35.14769],[126.85227,35.14837],[126.85275,35.14856],[126.85327,35.14861],[126.85378,35.1485],[126.85418,35.14842],[126.85469,35.14833],[126.8552,35.14822],[126.85564,35.14809],[126.85613,35.14788],[126.85649,35.14761],[126.85661,35.14725],[126.85667,35.14678],[126.85691,35.14548],[126.85727,35.14396],[126.85767,35.14295],[126.85815,35.14193],[126.85853,35.1409],[126.85874,35.13985],[126.85886,35.13878],[126.85895,35.13769],[126.85916,35.13403],[126.85916,35.13367],[126.85919,35.13339],[126.85934,35.13308],[126.85954,35.13282],[126.85993,35.13264],[126.86035,35.13262],[126.86083,35.13263],[126.86172,35.13264],[126.86299,35.13264],[126.86465,35.13265],[126.86625,35.13273],[126.86725,35.13284],[126.86826,35.13298],[126.86917,35.13316],[126.86991,35.13336],[126.87034,35.13355],[126.87068,35.13376],[126.87096,35.13394],[126.87134,35.13414],[126.87172,35.13423],[126.87178,35.13424],[126.87183,35.13426],[126.87189,35.13428],[126.87195,35.13429],[126.872,35.13429],[126.87204,35.13426],[126.87206,35.13422],[126.87208,35.13417],[126.8721,35.13412],[126.87213,35.13408],[126.87254,35.13343],[126.87313,35.13243],[126.87357,35.13159],[126.874,35.13068],[126.87435,35.12981],[126.87453,35.12913],[126.87466,35.12849],[126.87477,35.12794],[126.87482,35.12757],[126.87492,35.12727],[126.8752,35.12702],[126.87558,35.12685],[126.87605,35.12682],[126.8766,35.1269],[126.87709,35.12704],[126.87763,35.12726],[126.87823,35.12749],[126.87887,35.12768],[126.87983,35.12781],[126.8809,35.12787],[126.88201,35.12797],[126.88308,35.1282],[126.88431,35.12877],[126.88554,35.12954],[126.88672,35.13033],[126.88781,35.13092],[126.88844,35.13114],[126.88903,35.13128],[126.88961,35.13142],[126.89024,35.13161],[126.89211,35.13247],[126.89411,35.13337],[126.89628,35.13402],[126.89801,35.13447],[126.8985,35.13461],[126.89902,35.13461],[126.89942,35.13435],[126.89969,35.13417],[126.9,35.13395],[126.90034,35.13372],[126.90067,35.13355],[126.90103,35.1334],[126.90139,35.1333],[126.90176,35.13324],[126.9021,35.13324],[126.90245,35.13328],[126.90292,35.13334],[126.91259,35.13421],[126.91377,35.13429],[126.91475,35.1344],[126.91529,35.13448],[126.91583,35.13457],[126.91636,35.1347],[126.91684,35.13488],[126.91727,35.13511],[126.91764,35.13539],[126.91802,35.1357],[126.91847,35.13605],[126.91941,35.13669],[126.92053,35.13741],[126.92168,35.13822],[126.92272,35.13914],[126.92374,35.14048],[126.92469,35.14202],[126.92557,35.14356],[126.92637,35.14491],[126.92819,35.1478],[126.92892,35.14879],[126.92967,35.14979],[126.93035,35.15084],[126.9308,35.15175],[126.93123,35.15269],[126.9316,35.15365],[126.93185,35.15464],[126.93175,35.15587],[126.93147,35.15722],[126.93114,35.15847],[126.9309,35.15942],[126.93084,35.15978],[126.9308,35.16007],[126.93072,35.16034],[126.93058,35.16063],[126.93041,35.1609],[126.93019,35.16118],[126.92997,35.16142],[126.9297,35.16167],[126.92941,35.16191],[126.92909,35.16211],[126.92877,35.16225],[126.92843,35.16235],[126.92805,35.16244],[126.92761,35.16256],[126.92307,35.16395],[126.91136,35.16685],[126.91082,35.16698],[126.91042,35.16731],[126.91031,35.16787],[126.91052,35.1684],[126.91096,35.16939],[126.91162,35.17084],[126.91228,35.17247],[126.91273,35.174],[126.91272,35.17542],[126.91253,35.1769],[126.91229,35.17826],[126.91212,35.17932],[126.91209,35.17978],[126.91208,35.18015],[126.91199,35.1805],[126.91176,35.18086],[126.91145,35.1812],[126.91115,35.18147],[126.91061,35.1818],[126.90998,35.182],[126.90941,35.18215],[126.90867,35.18233],[126.90792,35.18256],[126.9073,35.18284],[126.90694,35.18316],[126.90667,35.18355],[126.9064,35.18393],[126.90606,35.18419],[126.90562,35.18432],[126.90513,35.18434],[126.90459,35.18433],[126.904,35.18435],[126.89907,35.18472],[126.89901,35.18472],[126.89894,35.18472],[126.89888,35.18472],[126.89882,35.18472],[126.89876,35.18474],[126.89873,35.18478],[126.89872,35.18483],[126.89872,35.18489],[126.89872,35.18494],[126.8987,35.18499],[126.89862,35.18524],[126.89847,35.18567],[126.89834,35.18617],[126.8983,35.18664],[126.89841,35.18707],[126.89861,35.1875],[126.89884,35.18794],[126.899,35.18841],[126.89912,35.189],[126.89919,35.18965],[126.89923,35.19028],[126.8992,35.19084],[126.89914,35.19121],[126.89904,35.19155],[126.89893,35.19186],[126.89884,35.19214],[126.89872,35.19248],[126.89865,35.19279],[126.89872,35.19311],[126.89888,35.19344],[126.89907,35.19367],[126.89933,35.1939],[126.89958,35.19417],[126.89978,35.19448],[126.89995,35.1951],[126.9,35.19584],[126.9,35.19663],[126.89999,35.19739],[126.89998,35.19827],[126.89993,35.19914],[126.89978,35.19999],[126.89944,35.20097],[126.89902,35.20193],[126.89877,35.20246],[126.89875,35.2025],[126.89874,35.20254],[126.89873,35.20257],[126.89872,35.20261],[126.89869,35.20264],[126.89865,35.20265],[126.89861,35.20265],[126.89856,35.20264],[126.89851,35.20264],[126.89847,35.20264],[126.89815,35.20265],[126.89781,35.20256],[126.89586,35.20207],[126.89311,35.2013],[126.88903,35.19979],[126.88547,35.19839],[126.88503,35.19821],[126.88467,35.19805],[126.88435,35.19792],[126.884,35.19783],[126.88361,35.19776],[126.8832,35.19773],[126.88279,35.19772],[126.88238,35.19771],[126.88161,35.19773],[126.88076,35.19777],[126.87705,35.1979],[126.87699,35.1979],[126.87693,35.1979],[126.87686,35.1979],[126.8768,35.1979],[126.87674,35.19791],[126.8767,35.19795],[126.87668,35.19799],[126.87666,35.19804],[126.87663,35.19809],[126.87661,35.19814],[126.8762,35.19871],[126.87543,35.19982],[126.87459,35.20115],[126.87399,35.20238],[126.87373,35.20339],[126.87356,35.20441],[126.87347,35.20542],[126.87344,35.20643],[126.8736,35.20784],[126.8739,35.20923],[126.87414,35.21025],[126.87424,35.21081],[126.87396,35.21134],[126.87332,35.21156],[126.86826,35.21334],[126.86512,35.21422],[126.862,35.21514],[126.85926,35.21622],[126.85711,35.21715],[126.85664,35.21735],[126.85625,35.2175],[126.85578,35.2176],[126.85531,35.21766],[126.8549,35.21768],[126.85434,35.21767],[126.84085,35.21774],[126.84002,35.21776],[126.83939,35.21778],[126.83877,35.21776],[126.83825,35.21772],[126.83772,35.21766],[126.83721,35.21757],[126.83672,35.21744],[126.83628,35.21726],[126.83588,35.21704],[126.83546,35.21678],[126.83498,35.2165],[126.83298,35.21545],[126.83086,35.21427],[126.82938,35.21327],[126.82795,35.21216],[126.82583,35.21029],[126.82378,35.20835],[126.82111,35.20564],[126.8208,35.20535],[126.82052,35.2051],[126.82028,35.20486],[126.82007,35.20459],[126.8199,35.20429],[126.81976,35.20397],[126.81966,35.20363],[126.81959,35.20331],[126.81955,35.20298],[126.81953,35.20265],[126.81956,35.20232],[126.81961,35.202],[126.8197,35.20171],[126.81983,35.20144],[126.81999,35.20114],[126.82017,35.20078],[126.82252,35.19567],[126.82293,35.1948],[126.82327,35.19404],[126.82346,35.19347],[126.82364,35.1929],[126.82376,35.19235],[126.82381,35.19194],[126.82383,35.19156],[126.82382,35.19117],[126.8238,35.19078],[126.82374,35.19038],[126.82365,35.18996],[126.82346,35.1894],[126.82322,35.18882],[126.82296,35.18829],[126.82275,35.18793],[126.82253,35.18761],[126.82229,35.18731],[126.82201,35.18701],[126.8217,35.18673],[126.82139,35.18645],[126.82047,35.18558],[126.82,35.18515],[126.81956,35.18471],[126.81929,35.18441],[126.81903,35.1841],[126.81879,35.18375],[126.81846,35.18312],[126.81815,35.1824],[126.81791,35.1817],[126.8178,35.18106],[126.81774,35.18044],[126.8177,35.18],[126.81768,35.1798],[126.81774,35.17963],[126.81775,35.1796],[126.81776,35.17958],[126.81776,35.17955],[126.81777,35.17952],[126.81778,35.1795],[126.81781,35.17949],[126.81784,35.17949],[126.81788,35.1795],[126.81791,35.1795],[126.81794,35.17949],[126.83019,35.17879],[126.83091,35.17876],[126.83146,35.17873],[126.832,35.17868],[126.83259,35.17858],[126.83318,35.17845],[126.83376,35.17832]]}},{"type":"Feature","properties":{"c":"build","n":"남부내륙선","g":"kr","nz":"南部内陆线","ne":"Nambunaeryuk Line"},"geometry":{"type":"MultiLineString","coordinates":[[[128.5579,34.90154],[128.5486,34.89727],[128.53913,34.89288],[128.53001,34.88872],[128.52179,34.88512],[128.51611,34.88407],[128.51093,34.88317],[128.50573,34.88233],[128.49996,34.88146],[128.4898,34.88235],[128.47807,34.8835],[128.46653,34.88459],[128.45696,34.88534],[128.45193,34.8829],[128.44697,34.88035],[128.44239,34.87792],[128.43849,34.87588],[128.4366,34.87487],[128.43496,34.87395],[128.43345,34.87316],[128.43192,34.87252],[128.4306,34.87214],[128.42928,34.87189],[128.42803,34.87169],[128.4269,34.87149],[128.42622,34.87134],[128.4256,34.87119],[128.42501,34.87106],[128.4244,34.87098],[128.42375,34.87095],[128.4231,34.87095],[128.42245,34.871],[128.42181,34.87109],[128.42124,34.87123],[128.4207,34.87141],[128.42012,34.87163],[128.41942,34.87188],[128.41043,34.87487],[128.40862,34.87544],[128.40705,34.87599],[128.4054,34.87668],[128.40385,34.87743],[128.40253,34.87818],[128.40131,34.87896],[128.4003,34.87964],[128.39938,34.88033],[128.39886,34.88079],[128.39838,34.88127],[128.39795,34.88177],[128.39764,34.88222],[128.39737,34.8827],[128.39696,34.88343],[128.37064,34.92775],[128.36566,34.93641],[128.36117,34.94368],[128.35647,34.9499],[128.35233,34.95503],[128.35085,34.95696],[128.34953,34.95862],[128.34792,34.96029],[128.34636,34.96199],[128.3452,34.96364],[128.34388,34.96573],[128.32983,34.98697],[128.3081,35.01421],[128.30713,35.01547],[128.30636,35.0164],[128.30568,35.01707],[128.30496,35.01772],[128.30419,35.01831],[128.30347,35.01878],[128.3027,35.0192],[128.30159,35.01982],[128.26322,35.04209],[128.26205,35.04272],[128.26116,35.04317],[128.26042,35.04358],[128.25974,35.04411],[128.25915,35.04477],[128.25865,35.04549],[128.25819,35.04628],[128.25769,35.04718],[128.25693,35.04894],[128.25617,35.05102],[128.25533,35.05319],[128.25433,35.05523],[128.25309,35.05683],[128.2518,35.05827],[128.25025,35.05992],[128.24825,35.06212],[128.18916,35.12911],[128.18768,35.13078],[128.18698,35.13163],[128.18633,35.13252],[128.18574,35.13354],[128.18524,35.13459],[128.18495,35.13529],[128.1847,35.136],[128.1845,35.13671],[128.18439,35.13737],[128.18433,35.13804],[128.18425,35.1389],[128.18286,35.15095],[128.18281,35.15149],[128.18279,35.15191],[128.18276,35.15227],[128.18266,35.15265],[128.1825,35.15305],[128.18229,35.15345],[128.18204,35.15383],[128.18175,35.15418],[128.18139,35.15454],[128.18097,35.15489],[128.18052,35.1552],[128.18006,35.1555],[128.17963,35.15576],[128.17918,35.156],[128.17872,35.15621],[128.17824,35.15638],[128.17771,35.15652],[128.17717,35.15661],[128.1766,35.15665],[128.17598,35.15664],[128.17501,35.15649],[128.17395,35.1562],[128.17284,35.15586],[128.17176,35.15554]],[[128.08146,35.14631],[128.08082,35.14648],[128.08018,35.14664],[128.07955,35.14682],[128.07894,35.14704],[128.07833,35.14733],[128.07774,35.14765],[128.07718,35.14801],[128.07666,35.1484],[128.07625,35.1488],[128.07591,35.14922],[128.07555,35.1497],[128.07507,35.1503],[128.06533,35.16191],[128.05709,35.17038],[128.05643,35.17104],[128.05593,35.17157],[128.05559,35.172],[128.05527,35.17244],[128.055,35.17289],[128.0548,35.1733],[128.05464,35.17373],[128.05452,35.17415],[128.05445,35.17452],[128.05441,35.1749],[128.05435,35.17547],[128.04974,35.21098],[128.04878,35.22557],[128.04773,35.24167],[128.04674,35.25803],[128.04595,35.27342],[128.04969,35.28655],[128.05364,35.29979],[128.05739,35.31214],[128.06053,35.32258],[128.06339,35.33176],[128.06566,35.33987],[128.06718,35.34867],[128.06865,35.35749],[128.07332,35.37486],[128.0837,35.41353],[128.08811,35.42901],[128.09258,35.44369],[128.0984,35.45589],[128.10493,35.46891],[128.12962,35.51936],[128.14249,35.54493],[128.14565,35.5512],[128.14738,35.55549],[128.14825,35.55764],[128.14868,35.55886],[128.14903,35.56011],[128.14924,35.56136],[128.14935,35.56268],[128.14937,35.56431],[128.14924,35.56603],[128.1489,35.56793],[128.14844,35.56987],[128.14741,35.57367],[128.14449,35.5845],[128.14421,35.58547],[128.14401,35.58625],[128.14385,35.58714],[128.14376,35.58803],[128.14374,35.58865],[128.14375,35.58928],[128.14381,35.5899],[128.14392,35.59041],[128.14408,35.59092],[128.14433,35.59171],[128.16101,35.65001],[128.16961,35.68006],[128.17269,35.6948],[128.17566,35.71057],[128.17619,35.73787],[128.17641,35.76383],[128.17572,35.78384],[128.17564,35.78546],[128.17561,35.78676],[128.17564,35.78772],[128.17571,35.78869],[128.17586,35.78967],[128.17617,35.79081],[128.17657,35.79196],[128.17704,35.7931],[128.17778,35.79457],[128.17877,35.79637],[128.18937,35.81645],[128.19091,35.81968],[128.19119,35.82022],[128.19144,35.82071],[128.19164,35.8212],[128.19177,35.8216],[128.19189,35.822],[128.19197,35.82241],[128.19201,35.8228],[128.19201,35.82316],[128.19197,35.82351],[128.1919,35.82385],[128.1918,35.82419],[128.19168,35.8245],[128.19154,35.82478],[128.19136,35.82509],[128.19115,35.82548],[128.18961,35.82839],[128.18783,35.83203],[128.18629,35.83604],[128.1849,35.84018],[128.18244,35.84843],[128.17874,35.86035],[128.17465,35.87457],[128.17254,35.89077],[128.17038,35.90978],[128.15881,36.00502],[128.15306,36.05239],[128.14528,36.09574],[128.14461,36.09949],[128.14432,36.10073],[128.144,36.10196],[128.14355,36.10319],[128.14289,36.10456],[128.14208,36.10592],[128.14122,36.10722],[128.14045,36.10829],[128.13963,36.1093],[128.13866,36.11031],[128.1371,36.11161],[128.13534,36.11291],[128.13389,36.11396],[128.13315,36.11455],[128.13249,36.11504],[128.1317,36.1155],[128.13088,36.1159],[128.13004,36.11622],[128.12911,36.11654],[128.12746,36.1171],[128.12553,36.11783],[128.12344,36.11872],[128.12111,36.1198],[128.11865,36.12112],[128.11604,36.12296],[128.11319,36.12509],[128.11025,36.12724],[128.10737,36.12913],[128.10442,36.13],[128.10146,36.13077],[128.09838,36.1315],[128.09505,36.13228],[128.0846,36.13395],[128.07335,36.13549]]]}},{"type":"Feature","properties":{"c":"build","n":"대구산업선","g":"kr","nz":"大邱产业线","ne":"Daegusaneop Line"},"geometry":{"type":"LineString","coordinates":[[128.54892,35.8809],[128.54552,35.88093],[128.54216,35.88103],[128.53874,35.88133],[128.53587,35.88164],[128.5354,35.88168],[128.53501,35.8817],[128.53466,35.88173],[128.5343,35.8818],[128.53393,35.88189],[128.53356,35.88201],[128.5332,35.88215],[128.53286,35.88231],[128.53256,35.88248],[128.53229,35.88265],[128.532,35.88286],[128.53162,35.88311],[128.53012,35.88414],[128.52808,35.88556],[128.52588,35.88702],[128.52389,35.88816],[128.52255,35.88866],[128.52119,35.88903],[128.51995,35.88931],[128.51894,35.88956],[128.51818,35.88978],[128.51752,35.88996],[128.51715,35.89003],[128.51678,35.8901],[128.51641,35.89015],[128.51604,35.89018],[128.51556,35.89018],[128.51509,35.89014],[128.51462,35.89008],[128.51419,35.88998],[128.51377,35.88986],[128.51326,35.88971],[128.5123,35.88948],[128.51111,35.88922],[128.50983,35.88889],[128.50858,35.88842],[128.50694,35.88747],[128.50518,35.88628],[128.5035,35.88507],[128.50206,35.88403],[128.50105,35.88331],[128.50019,35.88267],[128.49944,35.88204],[128.49895,35.88154],[128.49852,35.88104],[128.49805,35.88054],[128.49756,35.88009],[128.49704,35.87964],[128.49648,35.8792],[128.49589,35.87882],[128.49529,35.87852],[128.49466,35.87826],[128.49401,35.87803],[128.49337,35.87779],[128.49085,35.87675],[128.49019,35.87651],[128.48951,35.87627],[128.48887,35.87602],[128.48832,35.87572],[128.48794,35.87541],[128.48762,35.87506],[128.48734,35.87471],[128.48708,35.8744],[128.48674,35.87406],[128.48646,35.87374],[128.48629,35.87347],[128.48616,35.87319],[128.48607,35.87288],[128.48602,35.87257],[128.486,35.87224],[128.48602,35.8719],[128.48611,35.87159],[128.48626,35.87132],[128.48648,35.87109],[128.48674,35.87084],[128.48703,35.87053],[128.48783,35.86967],[128.48886,35.86859],[128.48988,35.86745],[128.49063,35.8664],[128.49096,35.86569],[128.49117,35.865],[128.49133,35.86434],[128.49148,35.86375],[128.49171,35.86307],[128.49191,35.86243],[128.49206,35.86167],[128.49215,35.86089],[128.49216,35.8602],[128.49212,35.85935],[128.49195,35.8502],[128.49207,35.83307],[128.49291,35.8031],[128.49293,35.80258],[128.49293,35.80221],[128.49291,35.80176],[128.49281,35.80133],[128.49262,35.80105],[128.49236,35.80079],[128.49207,35.80055],[128.4918,35.80035],[128.49151,35.80018],[128.49112,35.79994],[128.48843,35.79817],[128.48504,35.79609],[128.48189,35.7946],[128.47896,35.79333],[128.47739,35.79259],[128.47591,35.79195],[128.47429,35.79143],[128.47261,35.79091],[128.47143,35.79043],[128.47024,35.7899],[128.46889,35.78943],[128.46675,35.78895],[128.46434,35.78855],[128.46186,35.7882],[128.45347,35.78733],[128.44995,35.78696],[128.44646,35.78638],[128.44295,35.78595],[128.43757,35.78528],[128.43641,35.78517],[128.43526,35.78507],[128.43415,35.78494],[128.43313,35.78474],[128.43232,35.78447],[128.43156,35.78415],[128.43087,35.78382],[128.43024,35.78354],[128.42976,35.78335],[128.42934,35.78319],[128.42895,35.783],[128.42858,35.78275],[128.42824,35.78247],[128.42794,35.78214],[128.42769,35.78182],[128.42746,35.78146],[128.42727,35.78109],[128.42712,35.78072],[128.42704,35.78038],[128.42699,35.78004],[128.42698,35.7797],[128.42697,35.77936],[128.42697,35.77902],[128.42699,35.77867],[128.42703,35.77833],[128.4271,35.77798],[128.42722,35.7776],[128.42739,35.77721],[128.42758,35.77683],[128.42779,35.77645],[128.42807,35.77602],[128.42838,35.77561],[128.42881,35.77505],[128.43661,35.76433],[128.43801,35.76233],[128.43922,35.76036],[128.44103,35.75669],[128.44276,35.75249],[128.4444,35.74692],[128.44568,35.74157],[128.44619,35.73856],[128.44652,35.73606],[128.44669,35.73482],[128.44688,35.7337],[128.44708,35.73292],[128.44732,35.73215],[128.44763,35.7314],[128.44805,35.73072],[128.44854,35.73006],[128.44907,35.72933],[128.45163,35.72564],[128.45211,35.72491],[128.45254,35.72426],[128.45302,35.72363],[128.45359,35.72304],[128.4542,35.72247],[128.45487,35.72189],[128.45618,35.72084],[128.45746,35.71987],[128.45793,35.71952],[128.45835,35.7192],[128.45875,35.71886],[128.45915,35.71843],[128.45951,35.71797],[128.45986,35.7175],[128.46031,35.7168],[128.46071,35.71607],[128.46094,35.71556],[128.46114,35.71504],[128.46129,35.71452],[128.46136,35.71417],[128.4614,35.71382],[128.46141,35.71346],[128.46139,35.71307],[128.46129,35.71251],[128.46112,35.71191],[128.46093,35.7113],[128.46073,35.7107],[128.45989,35.70842],[128.45906,35.70615],[128.45861,35.70503],[128.45822,35.70388],[128.45797,35.7025],[128.45781,35.70109],[128.45767,35.69828],[128.45748,35.69419],[128.45745,35.69331],[128.4574,35.69253],[128.45735,35.69211],[128.4573,35.69169],[128.45722,35.69128],[128.4571,35.69089],[128.45695,35.69058],[128.45677,35.69029],[128.45655,35.69001],[128.45628,35.68973],[128.45584,35.68935],[128.45531,35.68898],[128.45474,35.68861],[128.45418,35.68826],[128.45319,35.6877],[128.45211,35.68711],[128.45088,35.68639],[128.44949,35.68559],[128.44796,35.68481],[128.44589,35.68399],[128.4436,35.68321],[128.44106,35.68235],[128.42775,35.67759],[128.42642,35.67715],[128.42526,35.67679],[128.4242,35.67642],[128.42317,35.67596],[128.42216,35.67535],[128.42116,35.67468],[128.42023,35.67398],[128.41942,35.67327],[128.41887,35.6726],[128.41842,35.6719],[128.41804,35.67118],[128.4177,35.67045],[128.41734,35.66949],[128.41707,35.6685],[128.41689,35.66735],[128.41679,35.66501],[128.41688,35.66227],[128.41697,35.65954]]}},{"type":"Feature","properties":{"c":"build","n":"대전 도시철도 2호선","g":"kr","nz":"大田都市铁道2号线"},"geometry":{"type":"LineString","coordinates":[[127.33276,36.3203],[127.33295,36.31958],[127.3332,36.31881],[127.33364,36.31791],[127.33419,36.31693],[127.33461,36.31604],[127.33477,36.31553],[127.33487,36.31506],[127.33494,36.31459],[127.33496,36.31415],[127.33494,36.3137],[127.33493,36.31311],[127.33483,36.30192],[127.33482,36.30154],[127.33515,36.30127],[127.33562,36.30128],[127.33598,36.30127],[127.33639,36.30127],[127.33681,36.3013],[127.33717,36.30137],[127.33753,36.30147],[127.33793,36.30159],[127.33839,36.30172],[127.3439,36.30317],[127.35035,36.30439],[127.35849,36.3064],[127.35985,36.30676],[127.36105,36.30703],[127.36191,36.30714],[127.36277,36.30722],[127.3637,36.30737],[127.36513,36.30781],[127.36666,36.30837],[127.36799,36.30887],[127.36864,36.30911],[127.36921,36.30932],[127.36979,36.3095],[127.37041,36.30961],[127.37104,36.30969],[127.37171,36.3098],[127.37308,36.31015],[127.37449,36.31059],[127.37571,36.31111],[127.37707,36.31175],[127.37915,36.31275],[127.38168,36.31395],[127.38468,36.31515],[127.3913,36.31696],[127.39908,36.31885],[127.40556,36.32044],[127.41211,36.32231],[127.41217,36.32233],[127.41223,36.32235],[127.41228,36.32237],[127.41234,36.32239],[127.4124,36.32239],[127.41246,36.32237],[127.4125,36.32234],[127.41254,36.32229],[127.41258,36.32225],[127.41263,36.32222],[127.41628,36.31937],[127.41668,36.31902],[127.41701,36.3187],[127.41735,36.31843],[127.41773,36.31824],[127.41821,36.31817],[127.41873,36.31821],[127.41926,36.31827],[127.41975,36.31826],[127.42016,36.31817],[127.42053,36.31804],[127.42091,36.3179],[127.42132,36.31782],[127.42187,36.31782],[127.42248,36.31789],[127.42307,36.31796],[127.42359,36.31794],[127.42408,36.31777],[127.42452,36.31753],[127.42487,36.31733],[127.42529,36.31714],[127.42577,36.31712],[127.4262,36.31728],[127.43741,36.32157],[127.43766,36.32167],[127.43777,36.32187],[127.43767,36.32207],[127.43743,36.32259],[127.43704,36.3233],[127.43291,36.33091],[127.43288,36.33096],[127.43285,36.33101],[127.43281,36.33105],[127.43278,36.3311],[127.43278,36.33114],[127.43282,36.33118],[127.43288,36.3312],[127.43294,36.33121],[127.43301,36.33123],[127.43307,36.33125],[127.43732,36.33288],[127.43738,36.33291],[127.43744,36.33294],[127.4375,36.33297],[127.43755,36.33299],[127.43761,36.33299],[127.43765,36.33296],[127.43767,36.33291],[127.43768,36.33286],[127.4377,36.33281],[127.43772,36.33276],[127.43972,36.32863],[127.43974,36.32858],[127.43976,36.32853],[127.43977,36.32847],[127.43979,36.32842],[127.43983,36.32839],[127.43989,36.32839],[127.43995,36.32841],[127.44001,36.32844],[127.44006,36.32847],[127.44012,36.32849],[127.44055,36.3286],[127.44132,36.3288],[127.44215,36.32907],[127.44281,36.32938],[127.44315,36.32966],[127.44341,36.32999],[127.44363,36.33033],[127.44385,36.33068],[127.44425,36.33131],[127.44468,36.33207],[127.44802,36.33769],[127.44824,36.33805],[127.44842,36.33833],[127.44857,36.33862],[127.44871,36.33893],[127.44882,36.33926],[127.44889,36.33961],[127.44894,36.33998],[127.44896,36.34038],[127.44894,36.34079],[127.44885,36.34118],[127.44868,36.34152],[127.44845,36.34183],[127.44817,36.34216],[127.44787,36.34253],[127.44547,36.34587],[127.44476,36.34704],[127.44406,36.3483],[127.44327,36.34959],[127.44227,36.3509],[127.44025,36.35277],[127.43776,36.35485],[127.43543,36.35672],[127.43387,36.35798],[127.43344,36.35835],[127.4331,36.35862],[127.43266,36.35891],[127.43218,36.35911],[127.4317,36.35913],[127.43107,36.35908],[127.42188,36.35885],[127.41673,36.35872],[127.41472,36.35862],[127.41264,36.35849],[127.41062,36.35825],[127.4092,36.35792],[127.4078,36.35748],[127.40643,36.35709],[127.4051,36.35689],[127.40394,36.35697],[127.40282,36.3572],[127.40171,36.35747],[127.40059,36.35765],[127.39914,36.35771],[127.39769,36.35769],[127.39598,36.35767],[127.38375,36.35773],[127.38321,36.35773],[127.38275,36.35751],[127.38221,36.35752],[127.3799,36.35756],[127.37985,36.35757],[127.3798,36.35756],[127.37975,36.35756],[127.37971,36.35756],[127.37966,36.35757],[127.37963,36.3576],[127.37962,36.35763],[127.37961,36.35767],[127.3796,36.35771],[127.37958,36.35775],[127.37946,36.35799],[127.37946,36.3583],[127.37961,36.37452],[127.37961,36.37455],[127.37962,36.37458],[127.37962,36.37461],[127.37963,36.37464],[127.37962,36.37466],[127.37959,36.37468],[127.37956,36.3747],[127.37953,36.37471],[127.3795,36.37472],[127.37947,36.37474],[127.37941,36.37477],[127.37938,36.37478],[127.37935,36.3748],[127.37933,36.37482],[127.3793,36.37483],[127.37927,36.37484],[127.37923,36.37484],[127.3792,36.37482],[127.37918,36.3748],[127.37915,36.37479],[127.37912,36.37477],[127.37881,36.37464],[127.37831,36.37442],[127.37787,36.37419],[127.37756,36.37389],[127.37728,36.3736],[127.37693,36.37339],[127.3765,36.37317],[127.37533,36.37257],[127.37379,36.37171],[127.36989,36.36907],[127.36581,36.36638],[127.36384,36.36545],[127.36205,36.36464],[127.36041,36.36364],[127.35883,36.36265],[127.35789,36.36215],[127.35696,36.36168],[127.356,36.36127],[127.35525,36.36099],[127.35447,36.36073],[127.35371,36.36052],[127.35303,36.36037],[127.35253,36.36031],[127.35207,36.36029],[127.35157,36.36032],[127.35098,36.3604],[127.35032,36.36053],[127.34964,36.36069],[127.34895,36.36088],[127.34705,36.36151],[127.34552,36.36208],[127.34507,36.36224],[127.34464,36.36206],[127.3445,36.36169],[127.34374,36.35985],[127.34245,36.35672],[127.34113,36.35332],[127.34027,36.35065],[127.34015,36.34965],[127.34016,36.34877],[127.34022,36.34798],[127.34025,36.34725],[127.34027,36.34665],[127.34028,36.34611],[127.34025,36.34555],[127.34018,36.34508],[127.34009,36.34459],[127.33997,36.3441],[127.3398,36.34363],[127.33958,36.34319],[127.33932,36.34277],[127.33903,36.34235],[127.33873,36.34194],[127.33811,36.34117],[127.33742,36.34037],[127.33529,36.3378],[127.33481,36.33725],[127.33436,36.33674],[127.33396,36.33621],[127.33369,36.33578],[127.33345,36.33533],[127.33324,36.33488],[127.33307,36.33443],[127.33297,36.33404],[127.3329,36.33366],[127.33287,36.33328],[127.33284,36.3329],[127.33282,36.33222],[127.33283,36.33135],[127.33276,36.3203]]}},{"type":"Feature","properties":{"c":"build","n":"대전 도시철도 2호선 연축지선","g":"kr"},"geometry":{"type":"LineString","coordinates":[[127.43308,36.3586],[127.43276,36.35888],[127.43245,36.35916],[127.4322,36.35943],[127.43197,36.35999],[127.4318,36.36056],[127.42854,36.37217],[127.42683,36.37826],[127.42563,36.38376],[127.42555,36.38416],[127.4255,36.38447],[127.4254,36.38477],[127.42525,36.38509],[127.42506,36.3854],[127.42484,36.3857],[127.42459,36.38596],[127.42432,36.38621],[127.42402,36.38648],[127.42261,36.38784],[127.4223,36.38812],[127.42202,36.38837],[127.42177,36.38864],[127.42155,36.38894],[127.42136,36.38925],[127.4212,36.38959],[127.42104,36.39],[127.42092,36.39044],[127.42079,36.39089]]}},{"type":"Feature","properties":{"c":"build","n":"도봉산옥정선","g":"kr","nz":"道峰山玉井线","ne":"Dobongsan-Okjeong Line"},"geometry":{"type":"LineString","coordinates":[[127.05532,37.70285],[127.05693,37.70547],[127.05846,37.7078],[127.05936,37.70886],[127.06021,37.70985],[127.06123,37.71134],[127.06209,37.7127],[127.06229,37.71303],[127.06245,37.7133],[127.06265,37.71356],[127.06288,37.71382],[127.06314,37.71406],[127.06342,37.7143],[127.0637,37.71449],[127.064,37.71468],[127.06436,37.7149],[127.06598,37.716],[127.06814,37.71733],[127.07233,37.71933],[127.07663,37.72114],[127.08079,37.72268],[127.08569,37.72483],[127.08701,37.72539],[127.08813,37.7259],[127.08894,37.72637],[127.08963,37.72681],[127.09003,37.72703],[127.09037,37.72726],[127.0907,37.7276],[127.09094,37.728],[127.09101,37.72832],[127.09101,37.72868],[127.09099,37.72904],[127.09094,37.72934],[127.09085,37.72965],[127.09073,37.72992],[127.09058,37.73018],[127.0904,37.73047],[127.08988,37.73128],[127.0893,37.73226],[127.08883,37.7333],[127.08835,37.73447],[127.08738,37.73663],[127.08644,37.7389],[127.08596,37.74057],[127.08552,37.74216],[127.08511,37.74313],[127.08467,37.74407],[127.08432,37.745],[127.08412,37.7458],[127.084,37.74659],[127.08391,37.74742],[127.08384,37.74916],[127.08376,37.75078],[127.08362,37.7515],[127.08344,37.75215],[127.08298,37.75349],[127.08131,37.75815],[127.07944,37.76381],[127.0785,37.76768],[127.0778,37.77104],[127.0774,37.77269],[127.07708,37.7742],[127.0769,37.77567],[127.07677,37.77739],[127.07617,37.78912],[127.0761,37.79018],[127.07608,37.79104],[127.07614,37.79206],[127.07628,37.79296],[127.07637,37.79335],[127.07652,37.79371],[127.07668,37.79399],[127.07688,37.79428],[127.07711,37.79457],[127.07734,37.79484],[127.07766,37.79515],[127.078,37.79544],[127.07838,37.79576],[127.08046,37.7976],[127.08088,37.79798],[127.08129,37.79834],[127.08165,37.79873],[127.08195,37.79917],[127.08219,37.79986],[127.08232,37.80066],[127.0824,37.80147],[127.08246,37.80218],[127.08253,37.80295],[127.08254,37.80374],[127.08236,37.80525],[127.0821,37.8069]]}},{"type":"Feature","properties":{"c":"build","n":"동북선","g":"kr","nz":"东北线","ne":"Dongbuk Line"},"geometry":{"type":"LineString","coordinates":[[127.03555,37.56068],[127.03609,37.56286],[127.03629,37.5643],[127.03652,37.5659],[127.0372,37.56828],[127.03789,37.57094],[127.03823,37.57481],[127.03839,37.57855],[127.03865,37.58235],[127.03869,37.58337],[127.03873,37.58441],[127.0387,37.58544],[127.03852,37.58639],[127.03812,37.58717],[127.03756,37.58788],[127.03699,37.58858],[127.03658,37.58935],[127.0364,37.59027],[127.03638,37.59125],[127.03639,37.59225],[127.03632,37.59324],[127.03589,37.59523],[127.0353,37.59716],[127.03466,37.59886],[127.03395,37.60041],[127.03331,37.60144],[127.03271,37.60239],[127.03231,37.60326],[127.03198,37.60412],[127.03149,37.60566],[127.03054,37.6087],[127.03052,37.60875],[127.0305,37.6088],[127.03047,37.60885],[127.03046,37.6089],[127.03046,37.60894],[127.03049,37.60898],[127.03054,37.60901],[127.0306,37.60904],[127.03066,37.60907],[127.03071,37.6091],[127.0313,37.6095],[127.03216,37.61005],[127.03293,37.61046],[127.03379,37.61091],[127.03461,37.6113],[127.03555,37.61175],[127.03651,37.61224],[127.03739,37.6128],[127.03816,37.61351],[127.03886,37.61431],[127.03954,37.61514],[127.04029,37.61591],[127.0412,37.61662],[127.0422,37.61729],[127.04316,37.61795],[127.04397,37.61863],[127.04449,37.61925],[127.04493,37.6199],[127.0453,37.62052],[127.04563,37.62103],[127.04592,37.62148],[127.0462,37.62186],[127.04643,37.62212],[127.04667,37.62237],[127.04694,37.6226],[127.04719,37.62278],[127.04746,37.62294],[127.04787,37.62318],[127.06661,37.63488],[127.06797,37.63574],[127.06906,37.63641],[127.06971,37.63678],[127.07038,37.63716],[127.07104,37.63749],[127.0717,37.63774],[127.07224,37.63785],[127.07279,37.63791],[127.07331,37.63795],[127.07375,37.63801],[127.07415,37.63812],[127.07452,37.63828],[127.07487,37.63848],[127.07525,37.63873],[127.07561,37.63902],[127.07588,37.63931],[127.07609,37.63966],[127.07621,37.64004],[127.07628,37.64042],[127.07632,37.64076],[127.07632,37.64111],[127.07633,37.64157],[127.0766,37.64936],[127.07661,37.64974],[127.07661,37.65003],[127.07663,37.65031],[127.07668,37.65062],[127.07676,37.65092],[127.07689,37.65124],[127.07716,37.65161],[127.07753,37.65199],[127.0779,37.6524],[127.07817,37.65286],[127.0783,37.65355],[127.0783,37.65435],[127.07825,37.65511],[127.07822,37.65567],[127.07823,37.65617],[127.07803,37.65665],[127.07762,37.65696],[127.07711,37.65715],[127.07667,37.65728],[127.07612,37.65744],[127.07551,37.65765],[127.0749,37.65794],[127.07399,37.65857],[127.07304,37.65939],[127.07207,37.66029],[127.07111,37.66116]]}},{"type":"Feature","properties":{"c":"build","n":"동탄인덕원선","g":"kr","nz":"东滩仁德院线","ne":"Dongtan-Indeogwon Line"},"geometry":{"type":"LineString","coordinates":[[127.09861,37.20138],[127.09506,37.20135],[127.09152,37.20133],[127.08837,37.20145],[127.08657,37.20168],[127.08498,37.20198],[127.08322,37.20235],[127.07405,37.2045],[127.07097,37.20532],[127.06791,37.20619],[127.06499,37.20718],[127.06229,37.20841],[127.05973,37.20975],[127.05754,37.21085],[127.0547,37.21202],[127.05421,37.2122],[127.05379,37.21236],[127.05339,37.21256],[127.05302,37.2128],[127.05268,37.21306],[127.05234,37.21339],[127.05197,37.21379],[127.05159,37.21426],[127.05126,37.21476],[127.05102,37.21523],[127.05091,37.2156],[127.05086,37.21597],[127.05086,37.21632],[127.0509,37.21663],[127.05105,37.21701],[127.05123,37.21732],[127.05139,37.21766],[127.05171,37.21794],[127.05214,37.21811],[127.05264,37.21829],[127.05328,37.21852],[127.05389,37.21879],[127.05439,37.21906],[127.05487,37.21936],[127.05534,37.21971],[127.05579,37.22006],[127.05625,37.22043],[127.0567,37.22086],[127.05714,37.22136],[127.05779,37.22239],[127.05846,37.22368],[127.05903,37.22488],[127.05941,37.22568],[127.0596,37.22604],[127.05993,37.22634],[127.06039,37.22649],[127.06071,37.22661],[127.06108,37.22675],[127.06155,37.22688],[127.0625,37.22698],[127.06372,37.22702],[127.06493,37.22708],[127.0659,37.22725],[127.06633,37.22742],[127.06667,37.22762],[127.06698,37.22786],[127.0673,37.22816],[127.06782,37.2288],[127.06833,37.2296],[127.0688,37.23045],[127.06921,37.23123],[127.0697,37.23226],[127.07009,37.23327],[127.07025,37.23382],[127.07038,37.23439],[127.07053,37.23494],[127.07075,37.23547],[127.07104,37.2359],[127.07138,37.2363],[127.07176,37.2367],[127.07217,37.23715],[127.07286,37.23789],[127.07366,37.23871],[127.07443,37.23959],[127.07503,37.24051],[127.07532,37.2416],[127.07546,37.24279],[127.07552,37.24394],[127.0756,37.24491],[127.07569,37.2455],[127.07577,37.246],[127.07581,37.2465],[127.07581,37.24691],[127.07579,37.24732],[127.07574,37.24772],[127.07562,37.2481],[127.07545,37.24843],[127.07523,37.24874],[127.07497,37.24903],[127.07468,37.24929],[127.07438,37.24953],[127.07404,37.24973],[127.07368,37.24993],[127.07328,37.25016],[127.07023,37.25206],[127.06973,37.25237],[127.06949,37.25284],[127.06941,37.25326],[127.06941,37.2537],[127.06948,37.25407],[127.06962,37.25455],[127.07244,37.26595],[127.07259,37.26665],[127.0727,37.26717],[127.07287,37.26768],[127.07303,37.2681],[127.07322,37.26851],[127.07345,37.26892],[127.07376,37.2693],[127.07431,37.26973],[127.07502,37.27013],[127.07572,37.27051],[127.07628,37.27088],[127.07662,37.27118],[127.07688,37.27147],[127.07709,37.27174],[127.07727,37.27203],[127.0774,37.27233],[127.07749,37.27267],[127.07754,37.27305],[127.07756,37.2734],[127.07755,37.27375],[127.07748,37.27408],[127.07735,37.27442],[127.07713,37.27476],[127.07692,37.27499],[127.07666,37.27524],[127.07637,37.27547],[127.07608,37.27566],[127.07572,37.27584],[127.07535,37.27597],[127.07497,37.27607],[127.0746,37.2761],[127.07422,37.27609],[127.07376,37.27608],[127.06983,37.27611],[127.06937,37.27612],[127.06899,37.27613],[127.06862,37.27612],[127.06821,37.27609],[127.0678,37.27603],[127.06743,37.27595],[127.067,37.27579],[127.06662,37.27557],[127.0663,37.27528],[127.06603,37.27495],[127.06584,37.27462],[127.06566,37.27423],[127.06483,37.27259],[127.06469,37.27227],[127.06457,37.27196],[127.06443,37.27167],[127.06423,37.27141],[127.06394,37.27114],[127.06359,37.2709],[127.06322,37.27069],[127.06283,37.27051],[127.06246,37.27038],[127.06207,37.27027],[127.06168,37.2702],[127.06128,37.27018],[127.06085,37.27023],[127.06042,37.27034],[127.05999,37.27048],[127.05957,37.27062],[127.05878,37.2709],[127.05794,37.27123],[127.05487,37.27236],[127.05419,37.27262],[127.05356,37.27287],[127.05292,37.27308],[127.05224,37.27322],[127.05155,37.27333],[127.05081,37.27341],[127.05011,37.27345],[127.04936,37.27345],[127.0486,37.27347],[127.04788,37.27354],[127.04724,37.27369],[127.04664,37.27388],[127.04603,37.2741],[127.04538,37.27432],[127.0419,37.27541],[127.0411,37.27564],[127.04039,37.27588],[127.04002,37.27602],[127.03965,37.27618],[127.0393,37.27635],[127.039,37.27654],[127.03869,37.27684],[127.03844,37.27717],[127.03824,37.2775],[127.0381,37.27779],[127.038,37.27809],[127.03788,37.27843],[127.03765,37.27899],[127.03739,37.27963],[127.03718,37.28028],[127.03711,37.28091],[127.0371,37.28155],[127.03702,37.28218],[127.03689,37.28268],[127.03673,37.28317],[127.03653,37.28366],[127.03628,37.28413],[127.03596,37.28462],[127.03558,37.2851],[127.03517,37.28557],[127.03476,37.28603],[127.03392,37.28686],[127.03295,37.28776],[127.03202,37.28871],[127.03096,37.28982],[127.02983,37.29092],[127.02872,37.29184],[127.02782,37.29241],[127.0269,37.29289],[127.02602,37.29331],[127.02526,37.29368],[127.02487,37.2939],[127.02453,37.29411],[127.02421,37.29429],[127.02385,37.29442],[127.02347,37.29452],[127.02308,37.29457],[127.02266,37.29459],[127.02218,37.29461],[127.02129,37.29457],[127.02025,37.29446],[127.0192,37.29437],[127.01831,37.29437],[127.01782,37.29443],[127.01737,37.29452],[127.01697,37.29465],[127.0166,37.29482],[127.01629,37.29503],[127.01603,37.29529],[127.01576,37.29558],[127.01544,37.29591],[127.01191,37.29925],[127.01117,37.29996],[127.0105,37.30058],[127.0097,37.30117],[127.00886,37.30173],[127.00712,37.30279],[127.00474,37.3043],[127.00177,37.30604],[126.99672,37.30832],[126.9925,37.31007],[126.99196,37.31029],[126.99156,37.31048],[126.99113,37.31071],[126.99071,37.311],[126.99033,37.3113],[126.98993,37.31167],[126.98954,37.31207],[126.98921,37.31249],[126.98894,37.31291],[126.98871,37.31336],[126.98853,37.31382],[126.98839,37.31428],[126.9883,37.31473],[126.98827,37.31518],[126.98825,37.31565],[126.98822,37.31618],[126.98809,37.31817],[126.98784,37.32038],[126.98726,37.32279],[126.98651,37.32501],[126.98596,37.32622],[126.98536,37.32732],[126.98405,37.32957],[126.98263,37.33187],[126.98119,37.33449],[126.98049,37.33645],[126.9799,37.33848],[126.97912,37.34042],[126.97804,37.34206],[126.97679,37.34362],[126.97561,37.34521],[126.97404,37.34789],[126.97276,37.35022],[126.97233,37.351],[126.97194,37.35166],[126.97147,37.35236],[126.97096,37.35303],[126.97045,37.3536],[126.96988,37.35421],[126.96887,37.35533],[126.9677,37.35656],[126.96625,37.35789],[126.96461,37.35934],[126.95919,37.36422],[126.95887,37.36449],[126.95862,37.36469],[126.95842,37.36491],[126.95825,37.36517],[126.95813,37.36546],[126.95804,37.36578],[126.95799,37.36615],[126.95797,37.36655],[126.95798,37.36697],[126.95802,37.36738],[126.95808,37.36776],[126.95816,37.36813],[126.95828,37.3685],[126.95842,37.36884],[126.95858,37.36915],[126.95877,37.36945],[126.95899,37.36974],[126.95925,37.37002],[126.95963,37.37034],[126.96006,37.37065],[126.96054,37.37095],[126.96107,37.37124],[126.96208,37.37169],[126.96319,37.3721],[126.96414,37.37244],[126.96454,37.37259],[126.96488,37.37272],[126.9652,37.37286],[126.96553,37.37302],[126.96585,37.3732],[126.96616,37.37342],[126.96643,37.37367],[126.9667,37.37395],[126.96695,37.37425],[126.9672,37.37454],[126.96763,37.37511],[126.96809,37.37575],[126.97025,37.37869],[126.97073,37.37935],[126.97119,37.37997],[126.97162,37.38065],[126.97199,37.38143],[126.97231,37.38288],[126.97244,37.38456],[126.97258,37.38638],[126.97291,37.38822],[126.97381,37.39062],[126.97503,37.39323],[126.97618,37.39571],[126.97686,37.39772],[126.97693,37.39852],[126.97689,37.39922],[126.97679,37.39984],[126.97673,37.40042],[126.97672,37.4009],[126.97671,37.40133],[126.97667,37.40176],[126.97653,37.40224],[126.97634,37.40272],[126.9762,37.40317],[126.97614,37.40349],[126.9761,37.4038],[126.9761,37.40411],[126.97611,37.40445],[126.97615,37.40479],[126.97622,37.40513],[126.97632,37.40543],[126.97645,37.40574],[126.9766,37.4061],[126.97792,37.40946]]}},{"type":"Feature","properties":{"c":"build","n":"동해선","g":"kr","nz":"东海线","ne":"Donghae Line"},"geometry":{"type":"LineString","coordinates":[[128.91451,37.74546],[128.91361,37.74995],[128.91352,37.75056],[128.91345,37.75113],[128.91335,37.75166],[128.91316,37.75219],[128.91282,37.75277],[128.91238,37.75333],[128.91188,37.75389],[128.91137,37.75443],[128.91066,37.75518],[128.9099,37.7559],[128.90907,37.7566],[128.90803,37.75731],[128.9069,37.75798],[128.90581,37.75869],[128.90445,37.7598],[128.90295,37.76111],[128.8947,37.76805],[128.8923,37.77007],[128.89119,37.77111],[128.89012,37.77224],[128.88897,37.77388],[128.88786,37.77549],[128.88699,37.77644],[128.88611,37.77729],[128.88523,37.77803],[128.88426,37.77882],[128.88251,37.7802],[128.88056,37.78187],[128.8779,37.78463],[128.87517,37.78752],[128.87042,37.7919],[128.86065,37.79948],[128.85263,37.80641],[128.84241,37.81524],[128.83937,37.81782],[128.8366,37.82027],[128.83526,37.82156],[128.83393,37.82283],[128.83263,37.82418],[128.83136,37.82568],[128.83034,37.82836],[128.82936,37.83141],[128.82841,37.83461],[128.82748,37.83771],[128.82647,37.84174],[128.82552,37.84576],[128.82443,37.8493],[128.82343,37.85128],[128.82233,37.85301],[128.82122,37.85504],[128.81874,37.86154],[128.81616,37.86861],[128.81106,37.8799],[128.8079,37.88727],[128.8075,37.88844],[128.80719,37.88948],[128.80679,37.89047],[128.80626,37.89136],[128.80565,37.89221],[128.80497,37.89317],[128.80133,37.89857],[128.79657,37.90436],[128.79536,37.90587],[128.79419,37.90725],[128.79268,37.90874],[128.79108,37.91028],[128.78728,37.91445],[128.7803,37.92273],[128.77911,37.92437],[128.77809,37.92588],[128.77695,37.92732],[128.77561,37.92869],[128.77415,37.93],[128.77249,37.9313],[128.76991,37.93292],[128.76702,37.93451],[128.76448,37.93589],[128.76259,37.93695],[128.76092,37.93793],[128.76006,37.93848],[128.75922,37.93903],[128.75841,37.93962],[128.75766,37.94026],[128.75692,37.94106],[128.75624,37.94193],[128.75561,37.94282],[128.755,37.94369],[128.75299,37.94671],[128.74897,37.95274],[128.74769,37.95446],[128.74638,37.95622],[128.74497,37.95799],[128.74341,37.95973],[128.74116,37.96143],[128.73871,37.96308],[128.73609,37.96479],[128.73333,37.96664],[128.71713,37.97837],[128.70758,37.98597],[128.69753,37.99364],[128.6857,38.00092],[128.67499,38.00758],[128.67039,38.01139],[128.66635,38.01507],[128.66411,38.01731],[128.66183,38.0196],[128.65959,38.02195],[128.65748,38.02434],[128.65593,38.02726],[128.65447,38.0304],[128.65315,38.03338],[128.65203,38.03587],[128.65101,38.03793],[128.6502,38.03975],[128.64954,38.04166],[128.64903,38.04379],[128.64868,38.04795],[128.64835,38.05247],[128.64788,38.05522],[128.64733,38.05792],[128.64665,38.06041],[128.64586,38.0621],[128.64497,38.06364],[128.64387,38.06537],[128.6402,38.07054],[128.63623,38.07573],[128.63171,38.08119],[128.62709,38.08784],[128.62104,38.09548],[128.61883,38.09811],[128.61639,38.10075],[128.61156,38.10523],[128.60616,38.1099],[128.60106,38.11395],[128.59599,38.1182],[128.59025,38.12447],[128.58497,38.13043],[128.58337,38.13189],[128.58185,38.13315],[128.58046,38.13435],[128.57929,38.1356],[128.57864,38.13682],[128.5781,38.13804],[128.57763,38.13927],[128.5772,38.14052],[128.5769,38.14227],[128.57678,38.14408],[128.57656,38.14609],[128.57416,38.15724],[128.57318,38.16108],[128.57216,38.16491],[128.571,38.16847],[128.56956,38.1711],[128.56793,38.17353],[128.56645,38.17588],[128.56534,38.17792],[128.56433,38.17991],[128.56348,38.18198],[128.56292,38.18445],[128.56258,38.18703],[128.56214,38.18951],[128.56163,38.19154],[128.56104,38.1935],[128.56022,38.19562],[128.55889,38.19809],[128.55735,38.20083],[128.55572,38.20359],[128.55411,38.20611],[128.55236,38.2078],[128.55061,38.20938],[128.5488,38.21092],[128.54687,38.21249],[128.54394,38.21406],[128.54073,38.21565],[128.53756,38.21727],[128.53473,38.21891],[128.53324,38.22128],[128.53182,38.22387],[128.53053,38.22635],[128.52943,38.22841],[128.52844,38.23014],[128.52761,38.23167],[128.52721,38.23248],[128.52683,38.23327],[128.52649,38.23411],[128.52621,38.23506],[128.526,38.2366],[128.52596,38.23832],[128.52592,38.24022],[128.52571,38.2423],[128.52371,38.2502],[128.52145,38.25857],[128.52083,38.2625],[128.52034,38.26623],[128.51954,38.27011],[128.51734,38.2753],[128.51478,38.28075],[128.51256,38.28545],[128.51181,38.28723],[128.51117,38.28881],[128.51053,38.29027],[128.50973,38.29167],[128.50835,38.29282],[128.50677,38.29388],[128.50512,38.29494],[128.50352,38.29612],[128.50124,38.29839],[128.49898,38.30086],[128.49699,38.3032],[128.49601,38.30445],[128.49512,38.30564],[128.49432,38.30681],[128.49363,38.30803],[128.49316,38.30928],[128.49285,38.31054],[128.49259,38.31189],[128.49225,38.31342],[128.49047,38.31976],[128.48886,38.32671],[128.48844,38.33214],[128.48832,38.33779],[128.48847,38.34689],[128.48892,38.35576],[128.48959,38.36062],[128.49023,38.36468],[128.49042,38.3662],[128.49057,38.36755],[128.49059,38.36889],[128.49049,38.36993],[128.49034,38.37097],[128.49011,38.372],[128.4898,38.373],[128.48934,38.37392],[128.48877,38.37479],[128.48813,38.3757],[128.48743,38.37673],[128.48197,38.38534],[128.47669,38.39268],[128.47459,38.39586],[128.4725,38.39889],[128.47108,38.4007],[128.46961,38.40245],[128.46802,38.40408],[128.46638,38.4054],[128.46464,38.40661],[128.46271,38.40802],[128.45199,38.41707],[128.44824,38.42035],[128.44448,38.42369],[128.44109,38.42694],[128.43882,38.42984],[128.43684,38.43271],[128.43508,38.43525],[128.43213,38.43933],[128.43092,38.44135],[128.42956,38.44356],[128.42748,38.4463],[128.42503,38.44938],[128.42288,38.45243],[128.42151,38.45505],[128.42039,38.45765],[128.41926,38.46012],[128.41814,38.46209],[128.41702,38.46396],[128.416,38.46608],[128.41495,38.46956],[128.41407,38.47348],[128.41303,38.47746],[128.41055,38.48397],[128.40812,38.49029],[128.40728,38.49337],[128.40661,38.49628],[128.40562,38.49936],[128.40336,38.50385],[128.40063,38.50861],[128.39851,38.51299],[128.39779,38.51573],[128.39732,38.51826],[128.39692,38.52073],[128.39651,38.52409],[128.3963,38.52766],[128.39634,38.53405],[128.39665,38.5404],[128.39707,38.54382],[128.39743,38.54694],[128.39741,38.55008],[128.39734,38.55307],[128.39764,38.55734],[128.39768,38.55777],[128.39773,38.55813],[128.39776,38.55847],[128.39774,38.55882],[128.39767,38.55919],[128.39755,38.55955],[128.39739,38.5599],[128.39719,38.56024],[128.39695,38.56053],[128.39666,38.5608],[128.39634,38.56107],[128.39599,38.56138],[128.39328,38.56394]]}},{"type":"Feature","properties":{"c":"build","n":"부산 도시철도 5호선","g":"kr","nz":"釜山都市铁道5号线","ne":"Busan Metro Line 5"},"geometry":{"type":"LineString","coordinates":[[128.98449,35.16232],[128.9837,35.15754],[128.98248,35.15283],[128.98017,35.14388],[128.98002,35.14315],[128.97992,35.14254],[128.97979,35.14198],[128.97955,35.14145],[128.97916,35.14094],[128.97867,35.14047],[128.97814,35.14001],[128.97763,35.13952],[128.97657,35.13823],[128.97551,35.13697],[128.97504,35.13653],[128.97457,35.13613],[128.97411,35.13573],[128.97368,35.13528],[128.97321,35.13467],[128.97275,35.13398],[128.97237,35.13329],[128.97211,35.13267],[128.97205,35.13229],[128.97207,35.13192],[128.9721,35.13158],[128.97204,35.13125],[128.97188,35.13094],[128.97166,35.13065],[128.9714,35.13036],[128.97113,35.13003],[128.96942,35.12774],[128.96899,35.12713],[128.96858,35.12655],[128.96811,35.12599],[128.96753,35.12548],[128.96689,35.125],[128.96624,35.12446],[128.96561,35.12386],[128.96494,35.12319],[128.96432,35.12252],[128.96385,35.12191],[128.96363,35.12154],[128.96347,35.1212],[128.96335,35.12087],[128.96326,35.12051],[128.96324,35.12011],[128.96328,35.11969],[128.96333,35.11925],[128.96331,35.1188],[128.96315,35.11819],[128.9629,35.11755],[128.96265,35.11691],[128.96246,35.11634],[128.96236,35.11598],[128.96227,35.11566],[128.96223,35.11534],[128.96228,35.11502],[128.96253,35.11462],[128.96293,35.11422],[128.96338,35.11381],[128.96377,35.11341],[128.96429,35.1127],[128.96484,35.11187],[128.9681,35.10685],[128.96833,35.10649],[128.96818,35.10611]]}},{"type":"Feature","properties":{"c":"build","n":"서울 지하철 7호선","g":"kr","nz":"首尔地铁7号线","ne":"Seoul Subway Line 7"},"geometry":{"type":"LineString","coordinates":[[126.66912,37.50646],[126.66866,37.50648],[126.66824,37.50653],[126.6677,37.50678],[126.6674,37.507],[126.66713,37.50727],[126.66691,37.50762],[126.66678,37.508],[126.66678,37.5084],[126.66689,37.50878],[126.66709,37.50907],[126.66734,37.50934],[126.66788,37.51002],[126.66824,37.51047],[126.66843,37.51097],[126.66846,37.5115],[126.66916,37.52255],[126.66932,37.52998],[126.66934,37.53047],[126.66934,37.53084],[126.66928,37.53127],[126.66912,37.53169],[126.66887,37.53201],[126.66854,37.53232],[126.66815,37.53259],[126.66779,37.53276],[126.66737,37.5329],[126.66696,37.533],[126.66659,37.53308],[126.66626,37.53311],[126.66583,37.5331],[126.63866,37.53295],[126.63789,37.53293],[126.63732,37.5329],[126.63683,37.5329],[126.63631,37.53294],[126.63575,37.53308],[126.6352,37.53329],[126.63466,37.53348],[126.63411,37.53357],[126.63355,37.53349],[126.633,37.53331],[126.63244,37.53311],[126.63187,37.53298],[126.63132,37.53294],[126.63078,37.53294],[126.63019,37.53297],[126.62952,37.53298],[126.62297,37.53299],[126.62243,37.53297],[126.62201,37.53296],[126.62159,37.53299],[126.62116,37.53309],[126.62074,37.53324],[126.62034,37.53344],[126.62,37.53367],[126.61967,37.53394],[126.61937,37.53423],[126.61913,37.53451],[126.61887,37.53492],[126.61871,37.53533],[126.61863,37.53567],[126.61861,37.536],[126.61865,37.53658],[126.61867,37.53692],[126.61868,37.53731],[126.61874,37.53772],[126.61887,37.53822],[126.61905,37.53875],[126.61927,37.53939],[126.62009,37.54179],[126.62099,37.54477],[126.62205,37.55001],[126.6228,37.55424],[126.62285,37.55466],[126.62293,37.55496],[126.6232,37.55526],[126.62354,37.5555],[126.62407,37.55568],[126.62462,37.55584],[126.63059,37.55749]]}},{"type":"Feature","properties":{"c":"build","n":"서해선","g":"kr","nz":"西海线","ne":"Seohae Line"},"geometry":{"type":"LineString","coordinates":[[126.78549,37.29927],[126.78428,37.29667],[126.7841,37.29631],[126.78394,37.296],[126.78379,37.29569],[126.78368,37.29536],[126.78359,37.295],[126.78354,37.29462],[126.78352,37.29424],[126.78354,37.29384],[126.7836,37.29336],[126.7837,37.29287],[126.78385,37.29237],[126.78405,37.29187],[126.78435,37.29131],[126.78473,37.29073],[126.78512,37.29018],[126.78545,37.28969],[126.78583,37.28912],[126.78615,37.2886],[126.78646,37.28798],[126.7867,37.28735],[126.78685,37.28675],[126.78694,37.28614],[126.78696,37.28561],[126.78694,37.28491],[126.78691,37.26864]]}},{"type":"Feature","properties":{"c":"build","n":"수도권 전철 1호선 동탄 연장","g":"kr","ne":"Seoul Metropolitan Metro Line 1 Dongtan"},"geometry":{"type":"LineString","coordinates":[[127.0566,37.19329],[127.05807,37.19247],[127.05959,37.19166],[127.06045,37.19124],[127.06135,37.19081],[127.06225,37.19044],[127.06309,37.19019],[127.0637,37.19009],[127.06428,37.19005],[127.06485,37.19006],[127.06541,37.19011],[127.06594,37.19023],[127.06645,37.1904],[127.06697,37.19061],[127.06755,37.19083],[127.06855,37.19111],[127.06967,37.19141],[127.07081,37.19178],[127.07189,37.19227],[127.07303,37.19308],[127.07411,37.19408],[127.07517,37.19512],[127.07623,37.19606],[127.07827,37.19756],[127.08007,37.19881],[127.08081,37.19935],[127.08148,37.19982],[127.08185,37.20005],[127.08223,37.20027],[127.08263,37.20047],[127.08307,37.20065],[127.08367,37.20085],[127.08434,37.20101],[127.08501,37.20115],[127.08562,37.20125],[127.08616,37.2013],[127.08665,37.20131],[127.08715,37.20132],[127.08869,37.20132],[127.09986,37.20129]]}},{"type":"Feature","properties":{"c":"build","n":"수도권광역급행철도비선","g":"kr","ne":"Great Train eXpress Line B"},"geometry":{"type":"MultiLineString","coordinates":[[[127.10337,37.6108],[127.10362,37.60818],[127.10363,37.60741],[127.10359,37.60671],[127.10355,37.60639],[127.1035,37.60607],[127.10342,37.60576],[127.10331,37.60545],[127.10314,37.60515],[127.10295,37.60485],[127.10271,37.60456],[127.10242,37.60426],[127.10196,37.60383],[127.1014,37.60338],[127.10078,37.60295],[127.10012,37.60256],[127.09934,37.60221],[127.09849,37.60189],[127.0976,37.60161],[127.0967,37.60133],[127.09475,37.60082],[127.09278,37.60029],[127.09141,37.59985],[127.09006,37.59937],[127.0889,37.59888],[127.08829,37.59853],[127.08778,37.59818],[127.08718,37.59783],[127.08595,37.59729],[127.0845,37.59673],[127.08304,37.59621],[127.08107,37.59561],[127.07871,37.59493],[127.06049,37.58954],[127.0593,37.58921],[127.05832,37.58896],[127.05744,37.5887],[127.05656,37.58838],[127.05565,37.58796],[127.05476,37.5875],[127.05392,37.58699],[127.05316,37.58643],[127.05251,37.58582],[127.05195,37.58516],[127.05143,37.58446],[127.05092,37.58375],[127.04996,37.58215],[127.04902,37.58056],[127.04807,37.57922],[127.04706,37.57801],[127.0464,37.57738],[127.04572,37.5768],[127.04509,37.57619],[127.04458,37.5755],[127.04412,37.57478],[127.04354,37.57397],[127.04129,37.5715],[127.03911,37.56915],[127.03848,37.56832],[127.03801,37.56766],[127.03776,37.56725],[127.03746,37.56692],[127.03715,37.56672],[127.03678,37.56657],[127.03633,37.56645],[127.03577,37.56634],[127.03512,37.56628],[127.0344,37.56625],[127.03364,37.56626],[127.032,37.56639],[127.03016,37.56665],[127.02826,37.56694],[127.02135,37.5681],[127.01746,37.56868],[127.0132,37.56928],[127.00923,37.56967],[127.00642,37.56971],[127.00378,37.56963],[127.00136,37.56945],[126.99962,37.5692],[126.99801,37.56887],[126.99644,37.5686],[126.9943,37.56836],[126.99212,37.56819],[126.99072,37.56815],[126.98924,37.56815],[126.98777,37.56812],[126.98638,37.568],[126.98523,37.56778],[126.9841,37.56748],[126.98306,37.56717],[126.98216,37.56692],[126.98169,37.5668],[126.98127,37.56671],[126.98089,37.56661],[126.98051,37.56649],[126.98013,37.56632],[126.97976,37.56614],[126.9794,37.56593],[126.97907,37.56571],[126.97863,37.56538],[126.97822,37.56503],[126.97785,37.56465],[126.97755,37.56429],[126.97728,37.5639],[126.97694,37.56341],[126.97601,37.56222],[126.97477,37.56066],[126.97349,37.55894],[126.97241,37.55724],[126.97195,37.5554],[126.97159,37.5535],[126.97131,37.55153],[126.97104,37.5495],[126.97089,37.54405],[126.97094,37.53953],[126.97094,37.53869],[126.97093,37.53802],[126.9709,37.53764],[126.97088,37.53727],[126.97083,37.5369],[126.97073,37.53651],[126.97055,37.53604],[126.9703,37.53554],[126.97002,37.53506],[126.96974,37.53464],[126.96944,37.53428],[126.96914,37.53397],[126.9688,37.53368],[126.96845,37.53342],[126.96807,37.53319],[126.96763,37.53291],[126.96645,37.53217],[126.96497,37.53116],[126.96097,37.52796],[126.95648,37.52421],[126.94918,37.51791],[126.94834,37.51716],[126.9476,37.51655],[126.94716,37.51623],[126.9467,37.51593],[126.94623,37.51565],[126.94577,37.51541],[126.94537,37.51524],[126.94497,37.5151],[126.94457,37.51499],[126.94417,37.51489],[126.94364,37.5148],[126.9431,37.51474],[126.94246,37.51467],[126.93766,37.51404],[126.93692,37.51394],[126.93629,37.51386],[126.93584,37.51382],[126.93539,37.5138],[126.9349,37.5138],[126.93434,37.51383],[126.93374,37.51389],[126.93312,37.51398],[126.93252,37.51412],[126.9319,37.51437],[126.93128,37.51468],[126.93068,37.51503],[126.93014,37.51539],[126.92955,37.51585],[126.92903,37.51633],[126.92852,37.51683],[126.92705,37.51837],[126.92251,37.52313],[126.92224,37.52344],[126.922,37.52366],[126.92169,37.52387],[126.92132,37.52403],[126.92087,37.52416],[126.92032,37.52421],[126.91974,37.5242],[126.91904,37.52414],[126.91835,37.52404],[126.91778,37.52392],[126.91741,37.52379],[126.9171,37.52365],[126.91679,37.52345],[126.91641,37.52318],[126.91601,37.52284],[126.91564,37.52247],[126.91532,37.52208],[126.91509,37.52165],[126.91493,37.52118],[126.91479,37.52071],[126.9146,37.52029],[126.91442,37.51999],[126.91424,37.51973],[126.91403,37.51947],[126.91375,37.51921],[126.91321,37.51879],[126.91254,37.51836],[126.91179,37.51793],[126.91099,37.51751],[126.90953,37.51687],[126.9079,37.51625],[126.90624,37.51556],[126.90353,37.51417],[126.90051,37.51259],[126.89493,37.51015],[126.8894,37.50759],[126.88638,37.50578],[126.88384,37.50397],[126.88286,37.50313],[126.88196,37.50225],[126.88112,37.50142],[126.88029,37.50075],[126.87974,37.5004],[126.8792,37.50013],[126.87866,37.49989],[126.87814,37.49965],[126.87622,37.49885],[126.87239,37.49725],[126.86713,37.49476],[126.86661,37.49451],[126.86619,37.49429],[126.86575,37.49411],[126.86537,37.49398],[126.86498,37.49386],[126.86459,37.49376],[126.86423,37.49369],[126.86376,37.49363],[126.86331,37.49363],[126.86292,37.49369],[126.86241,37.49379],[126.85917,37.4943],[126.85453,37.49517],[126.84485,37.49773],[126.83473,37.50055],[126.82312,37.50342],[126.81732,37.50486],[126.81385,37.50558],[126.81049,37.50617],[126.80893,37.50638],[126.80747,37.50654],[126.8061,37.50661],[126.80503,37.50659],[126.80403,37.5065],[126.80303,37.50638],[126.80168,37.50616],[126.80001,37.50584],[126.79637,37.50515],[126.79143,37.50419],[126.78598,37.5032],[126.78081,37.5024],[126.77543,37.50296],[126.76969,37.50369],[126.76432,37.50444],[126.76005,37.50502],[126.75716,37.50542],[126.75478,37.50568],[126.75249,37.50575],[126.75058,37.50574],[126.74997,37.50577],[126.74945,37.50576],[126.7489,37.50569],[126.74837,37.50551],[126.74801,37.50529],[126.74766,37.50499],[126.74731,37.50464],[126.74695,37.50425],[126.74627,37.50329],[126.74559,37.50215],[126.74485,37.50104],[126.74364,37.49961],[126.74224,37.49808],[126.73678,37.49191],[126.7363,37.49136],[126.73591,37.49093],[126.73551,37.49054],[126.7352,37.49029],[126.7349,37.49005],[126.73458,37.48984],[126.73424,37.48966],[126.7338,37.48949],[126.73334,37.48937],[126.73287,37.48928],[126.73236,37.48922],[126.73184,37.48918],[126.73132,37.48917],[126.73063,37.48919],[126.72977,37.48924],[126.7214,37.48961],[126.72067,37.48966],[126.72009,37.48969],[126.71952,37.4897],[126.71904,37.48968],[126.71855,37.48964],[126.71808,37.48958],[126.71765,37.4895],[126.71723,37.48938],[126.71685,37.48923],[126.71648,37.48905],[126.71617,37.48887],[126.71587,37.48867],[126.71548,37.48841],[126.70898,37.48424],[126.7074,37.4831],[126.70609,37.48206],[126.70557,37.48162],[126.70509,37.48119],[126.70466,37.48078],[126.70431,37.48038],[126.70405,37.48002],[126.70386,37.47967],[126.70372,37.47932],[126.70365,37.47898],[126.70364,37.47863],[126.70362,37.47825],[126.70342,37.47612],[126.70323,37.47023],[126.70263,37.46467],[126.70234,37.45799],[126.70148,37.45193],[126.7002,37.44301],[126.69975,37.43982],[126.69943,37.43821],[126.69906,37.43666],[126.69889,37.43604],[126.69872,37.43543],[126.69852,37.43487],[126.69829,37.43439],[126.69805,37.43404],[126.69778,37.43375],[126.69745,37.43348],[126.69704,37.43322],[126.69655,37.43297],[126.69603,37.43275],[126.69549,37.43258],[126.69497,37.43248],[126.69444,37.43244],[126.69387,37.43241],[126.69325,37.43237],[126.68854,37.43193],[126.68677,37.4318],[126.68506,37.43161],[126.68315,37.43126],[126.68124,37.43082],[126.67924,37.43025],[126.67741,37.42969],[126.67641,37.42941],[126.6755,37.42913],[126.67486,37.42891],[126.67424,37.42866],[126.67364,37.42839],[126.67313,37.42812],[126.67265,37.42781],[126.67215,37.42744],[126.67157,37.42693],[126.67095,37.42632],[126.67036,37.42567],[126.66987,37.42502],[126.66955,37.42444],[126.66932,37.42386],[126.66911,37.42325],[126.66885,37.42258],[126.6679,37.42018],[126.66683,37.41771],[126.66588,37.41605],[126.66488,37.4145],[126.66273,37.41139],[126.66079,37.40847],[126.6584,37.40489],[126.65559,37.40109],[126.65034,37.39592],[126.64432,37.39029],[126.63829,37.38466]],[[126.87229,37.49721],[126.87257,37.49746],[126.87285,37.49771],[126.87313,37.49795],[126.87344,37.49818],[126.87376,37.49836],[126.87409,37.49851],[126.87445,37.49866],[126.87484,37.49884],[126.87568,37.4992],[126.87663,37.49961],[126.87765,37.50016],[126.87951,37.50158],[126.88156,37.50335],[126.8835,37.50486],[126.88476,37.50558],[126.88595,37.50616],[126.8871,37.50676],[126.88818,37.50744],[126.88922,37.50815],[126.89026,37.50877],[126.89126,37.50922],[126.89227,37.50961],[126.89316,37.50995],[126.89355,37.51012],[126.8939,37.51028],[126.89424,37.51043],[126.89461,37.51054],[126.89502,37.51061],[126.89546,37.51065],[126.8959,37.51067],[126.89633,37.5107]]]}},{"type":"Feature","properties":{"c":"build","n":"수도권광역급행철도씨선","g":"kr","nz":"首都圈广域急行铁道C路线","ne":"Great Train eXpress Line C"},"geometry":{"type":"LineString","coordinates":[[127.04787,37.65282],[127.04579,37.65762],[127.04544,37.65839],[127.04516,37.65906],[127.04493,37.65981],[127.04476,37.66056],[127.04469,37.66125],[127.04465,37.66208],[127.04419,37.66803],[127.04407,37.66961],[127.04406,37.67041],[127.0441,37.6712],[127.04421,37.6719],[127.04437,37.67277],[127.04605,37.68259],[127.04618,37.6833],[127.04626,37.68386],[127.0463,37.6845],[127.04631,37.68514],[127.04627,37.68572],[127.04621,37.68642],[127.04575,37.69246],[127.04563,37.69366],[127.04552,37.69475],[127.0455,37.69584],[127.04562,37.69696],[127.04582,37.69808],[127.04603,37.6992]]}},{"type":"Feature","properties":{"c":"build","n":"수도권광역급행철도에이선","g":"kr","nz":"首都圈广域急行铁道A路线","ne":"Great Train eXpress Line A"},"geometry":{"type":"LineString","coordinates":[[126.97308,37.54897],[126.97337,37.54862],[126.97367,37.54828],[126.97399,37.54796],[126.9743,37.5477],[126.97464,37.54747],[126.97502,37.54723],[126.97549,37.54698],[126.97601,37.54673],[126.97657,37.54649],[126.97714,37.54629],[126.97769,37.54615],[126.97823,37.54605],[126.97882,37.54596],[126.9795,37.54585],[126.98613,37.54459],[126.99622,37.54224],[127.00296,37.54104],[127.00938,37.53959],[127.0158,37.53814],[127.019,37.53746],[127.02223,37.53669],[127.02571,37.53557],[127.02944,37.53435],[127.04073,37.53157],[127.04444,37.53049],[127.04742,37.52949],[127.04858,37.52898],[127.04949,37.52854],[127.05051,37.52806],[127.05085,37.5279],[127.05118,37.52774],[127.0515,37.52755],[127.05176,37.52735],[127.052,37.52712],[127.05228,37.52685],[127.05274,37.52647],[127.05327,37.52603],[127.05383,37.52555],[127.05433,37.52502],[127.0548,37.52435],[127.05521,37.52361],[127.05563,37.52281],[127.0561,37.52194],[127.05976,37.51558],[127.06373,37.50812],[127.06419,37.50722],[127.06456,37.50647],[127.065,37.50574],[127.06541,37.50517],[127.06586,37.5046],[127.06634,37.50406],[127.06682,37.5036],[127.06719,37.50331],[127.06756,37.50306],[127.06794,37.50284],[127.06835,37.50263],[127.06898,37.50237],[127.06965,37.50214],[127.07033,37.50193],[127.07129,37.50171],[127.07243,37.50148],[127.07965,37.4999],[127.08664,37.49794],[127.08741,37.49774],[127.08805,37.49758],[127.08866,37.49738],[127.08927,37.49711],[127.08986,37.4968],[127.09045,37.49644],[127.09164,37.49561],[127.09283,37.49468],[127.09385,37.49377],[127.09497,37.49274],[127.10026,37.48795]]}},{"type":"Feature","properties":{"c":"build","n":"신분당선","g":"kr","nz":"新盆唐线","ne":"Shinbundang Line"},"geometry":{"type":"LineString","coordinates":[[126.9533,37.27408],[126.95682,37.27527],[126.96039,37.27656],[126.96306,37.27779],[126.9658,37.27915],[126.96897,37.28045],[126.9748,37.28204],[126.98146,37.28355],[126.98743,37.28507],[126.99229,37.28684],[126.99713,37.28871],[127.01613,37.29497],[127.01658,37.29513],[127.01688,37.29524],[127.01718,37.29532],[127.01756,37.29539],[127.01794,37.29543],[127.01831,37.29545],[127.01882,37.2954],[127.01936,37.29532],[127.02038,37.29522],[127.02146,37.29507],[127.02212,37.29494],[127.02277,37.29479],[127.02336,37.29461],[127.02382,37.29443],[127.02424,37.29425],[127.02465,37.29404],[127.02521,37.29373],[127.02583,37.29336],[127.02654,37.29298],[127.02738,37.29255],[127.02827,37.29204],[127.02917,37.29143],[127.03062,37.29017],[127.03222,37.28857],[127.03365,37.28705],[127.03462,37.28603],[127.03489,37.28574],[127.03513,37.28554],[127.03549,37.28538],[127.03587,37.2853],[127.03655,37.28538],[127.03697,37.28541],[127.03744,37.28545],[127.03789,37.28553],[127.03833,37.28569],[127.03876,37.2859],[127.03916,37.28614],[127.03951,37.28637],[127.03983,37.28664],[127.04022,37.28696],[127.04414,37.29001],[127.04445,37.29028],[127.0447,37.29051],[127.04495,37.29071],[127.04523,37.29086],[127.04558,37.29096],[127.04597,37.29101],[127.04637,37.29103],[127.04674,37.29104],[127.04714,37.29102],[127.04752,37.29098],[127.04789,37.29092],[127.04828,37.29084],[127.04866,37.29074],[127.04899,37.2906],[127.04926,37.29038],[127.04949,37.29013]]}},{"type":"Feature","properties":{"c":"build","n":"신안산선","g":"kr","nz":"新安山线","ne":"Sinansan Line"},"geometry":{"type":"MultiLineString","coordinates":[[[126.82709,37.29335],[126.82681,37.29453],[126.82648,37.29567],[126.82618,37.29631],[126.82584,37.29692],[126.82558,37.29751],[126.82546,37.29788],[126.82537,37.29823],[126.82532,37.29858],[126.82531,37.29892],[126.82534,37.29924],[126.8254,37.29955],[126.8255,37.29985],[126.82564,37.30016],[126.82584,37.30051],[126.8261,37.30086],[126.82638,37.3012],[126.82667,37.30154],[126.82701,37.30189],[126.82739,37.30223],[126.82775,37.30258],[126.82807,37.30295],[126.82835,37.30336],[126.8286,37.30381],[126.82881,37.30425],[126.82899,37.30465],[126.82919,37.30518],[126.82934,37.3057],[126.82951,37.30647],[126.82964,37.30728],[126.82971,37.30802],[126.82976,37.30887],[126.83016,37.31425],[126.83017,37.3146],[126.8302,37.31487],[126.83029,37.31516],[126.83043,37.31546],[126.83065,37.31578],[126.83094,37.31612],[126.83125,37.31639],[126.83163,37.31662],[126.83205,37.31676],[126.83245,37.31676],[126.83297,37.31672],[126.83988,37.31642],[126.84056,37.31638],[126.84111,37.31635],[126.84166,37.31635],[126.84211,37.31638],[126.84258,37.31642],[126.84302,37.3165],[126.84342,37.3166],[126.84381,37.31676],[126.84416,37.31695],[126.84446,37.31717],[126.84471,37.31745],[126.84492,37.31776],[126.84506,37.31809],[126.84513,37.3184],[126.84514,37.31872],[126.84515,37.31912],[126.84552,37.32322],[126.84561,37.32453],[126.84574,37.32578],[126.84585,37.32646],[126.84597,37.32715],[126.84615,37.32783],[126.84641,37.32846],[126.84676,37.32901],[126.84719,37.32951],[126.84768,37.33002],[126.84819,37.33059],[126.85175,37.33485],[126.85454,37.33787],[126.8551,37.33845],[126.85556,37.33898],[126.85586,37.33936],[126.85613,37.33975],[126.85639,37.34019],[126.85676,37.34098],[126.85712,37.34188],[126.85745,37.34278],[126.85828,37.3454],[126.85994,37.35062],[126.86089,37.35446],[126.86158,37.35845],[126.86168,37.36189],[126.8616,37.36542],[126.86164,37.37502],[126.8617,37.37734],[126.86166,37.37938],[126.86132,37.38134],[126.86096,37.38293],[126.86086,37.38335],[126.8608,37.38369],[126.86081,37.38407],[126.86087,37.38446],[126.861,37.38482],[126.86118,37.38518],[126.8614,37.38547],[126.86165,37.38578],[126.86209,37.38637],[126.86258,37.38698],[126.86308,37.38744],[126.86356,37.38789],[126.86393,37.38836],[126.86433,37.38892],[126.86656,37.39192],[126.86927,37.39608],[126.8775,37.40873],[126.87883,37.41078],[126.87958,37.41177],[126.8803,37.41277],[126.88087,37.41376],[126.88147,37.41488],[126.88431,37.42003],[126.88493,37.42133],[126.88552,37.42266],[126.88613,37.42393],[126.88682,37.42504],[126.88741,37.42577],[126.88804,37.4264],[126.8887,37.427],[126.88939,37.42761],[126.89098,37.42899],[126.89281,37.43035],[126.89572,37.43204],[126.89859,37.43362],[126.90145,37.43549],[126.90181,37.43571],[126.90209,37.43591],[126.90234,37.43617],[126.90255,37.43647],[126.90267,37.43679],[126.90276,37.43714],[126.90284,37.4375],[126.90291,37.43797],[126.90297,37.43855],[126.90363,37.44378],[126.90371,37.44442],[126.90378,37.44496],[126.9038,37.44542],[126.90377,37.44578],[126.90369,37.44611],[126.90359,37.44639],[126.90343,37.44678],[126.90238,37.44937],[126.90064,37.45365],[126.89874,37.45853],[126.89722,37.46287],[126.8974,37.46646],[126.89776,37.47016],[126.89815,37.47348],[126.89843,37.47593],[126.89862,37.47797],[126.89869,37.47849],[126.89876,37.47901],[126.89886,37.47952],[126.89901,37.47998],[126.89918,37.48032],[126.89938,37.48063],[126.8996,37.48092],[126.89983,37.48121],[126.9003,37.48176],[126.90085,37.48234],[126.90299,37.48468],[126.90809,37.4909],[126.90844,37.49131],[126.90869,37.49163],[126.90894,37.49203],[126.90912,37.49244],[126.90918,37.49288],[126.90915,37.49332],[126.90901,37.49372],[126.9088,37.49417],[126.9084,37.49522],[126.90785,37.4965],[126.90675,37.49846],[126.90534,37.50071],[126.90048,37.50788],[126.89997,37.50866],[126.89956,37.50929],[126.89913,37.50987],[126.8987,37.51032],[126.89827,37.51073],[126.89788,37.51109],[126.89758,37.51136],[126.89734,37.51162],[126.89717,37.51193],[126.89708,37.51227],[126.89706,37.51261],[126.89711,37.51297],[126.89726,37.51328],[126.89753,37.51349],[126.8979,37.51365],[126.89831,37.51378],[126.89868,37.51385],[126.89908,37.51388],[126.8995,37.51392],[126.89995,37.514],[126.9006,37.51422],[126.9013,37.51453],[126.90202,37.51486],[126.90274,37.51516],[126.90564,37.51615],[126.91128,37.51809],[126.91193,37.51833],[126.91247,37.51852],[126.91303,37.51869],[126.91361,37.51884],[126.91421,37.51895],[126.91488,37.51904],[126.9162,37.51913],[126.91768,37.51917],[126.91882,37.51919],[126.91924,37.5192],[126.91958,37.51922],[126.91994,37.51932],[126.92028,37.51945],[126.92056,37.5196],[126.9209,37.5198],[126.92614,37.52271]],[[126.87822,37.40985],[126.87805,37.40971],[126.8778,37.40972],[126.8729,37.40989]]]}},{"type":"Feature","properties":{"c":"build","n":"양산선","g":"kr","nz":"梁山线","ne":"Yangsan Line"},"geometry":{"type":"LineString","coordinates":[[129.04133,35.36202],[129.03807,35.35326],[129.03776,35.3524],[129.03749,35.3517],[129.03708,35.35096],[129.03666,35.35022],[129.03599,35.34868],[129.03368,35.34344],[129.03347,35.34303],[129.03335,35.34269],[129.03335,35.3423],[129.03344,35.3419],[129.0336,35.34157],[129.03383,35.34118],[129.03566,35.33776],[129.0359,35.33736],[129.03605,35.33703],[129.03606,35.33664],[129.03599,35.33624],[129.03587,35.33587],[129.03572,35.33548],[129.03533,35.3344],[129.0352,35.33409],[129.03507,35.33379],[129.035,35.33349],[129.03501,35.33315],[129.03508,35.33281],[129.03523,35.33252],[129.03553,35.33225],[129.03595,35.33203],[129.03638,35.33189],[129.03689,35.33179],[129.03744,35.33168],[129.03796,35.33155],[129.03857,35.33132],[129.03916,35.33106],[129.03982,35.33077],[129.04351,35.32923],[129.04424,35.32895],[129.04495,35.32869],[129.04563,35.32841],[129.04628,35.32807],[129.04692,35.32759],[129.0475,35.32702],[129.0481,35.32646],[129.04879,35.32596],[129.04971,35.32555],[129.05076,35.32522],[129.05181,35.32491],[129.05276,35.32458],[129.05368,35.3242],[129.05453,35.32381],[129.05533,35.32337],[129.05602,35.32289],[129.05667,35.32237],[129.05749,35.32171],[129.06218,35.31823],[129.06794,35.3137],[129.07543,35.30674],[129.08137,35.30094],[129.082,35.30037],[129.08246,35.29995],[129.08287,35.29951],[129.08324,35.29896],[129.08356,35.29838],[129.08391,35.29783],[129.08447,35.29718],[129.08511,35.2965],[129.08752,35.29383],[129.08802,35.29329],[129.0885,35.29277],[129.08902,35.29227],[129.08966,35.29176],[129.09095,35.291],[129.09255,35.29021],[129.09407,35.2895],[129.09511,35.28902],[129.09568,35.28873],[129.09615,35.28833],[129.09634,35.28797],[129.09642,35.28757],[129.09632,35.28723],[129.09612,35.28683],[129.09511,35.28431]]}},{"type":"Feature","properties":{"c":"build","n":"옥정포천선","g":"kr","ne":"Okjeong-Pocheon Line"},"geometry":{"type":"LineString","coordinates":[[127.0821,37.80691],[127.08228,37.81173],[127.08302,37.8178],[127.08306,37.81829],[127.08308,37.81871],[127.08313,37.81908],[127.08323,37.81947],[127.08339,37.81986],[127.08361,37.82024],[127.08387,37.82061],[127.08418,37.82096],[127.08462,37.82136],[127.08513,37.82175],[127.08567,37.82209],[127.08616,37.82233],[127.08668,37.82249],[127.08721,37.82255],[127.08767,37.82258],[127.08818,37.82258],[127.08892,37.82258],[127.1176,37.82255],[127.13672,37.82277],[127.13747,37.82277],[127.13806,37.82276],[127.13856,37.82276],[127.1391,37.8228],[127.13969,37.82289],[127.14027,37.82301],[127.14084,37.82316],[127.14139,37.82332],[127.14203,37.82355],[127.14265,37.82381],[127.14326,37.82407],[127.14512,37.82482],[127.1456,37.825],[127.14609,37.82516],[127.14656,37.82535],[127.14699,37.82558],[127.14737,37.82587],[127.14771,37.82621],[127.14804,37.82659],[127.14839,37.82699],[127.14907,37.82775],[127.14978,37.82859],[127.15042,37.82948],[127.15095,37.83047],[127.15141,37.83151],[127.15188,37.83254],[127.1535,37.83555],[127.15473,37.83798],[127.15619,37.84083],[127.15774,37.84339],[127.15905,37.84498],[127.16043,37.84638],[127.16177,37.84781],[127.16547,37.85243],[127.16921,37.85765],[127.17245,37.86259],[127.17601,37.86781],[127.1798,37.87245],[127.1831,37.87628],[127.18498,37.87853],[127.18704,37.88068],[127.18926,37.88273],[127.19458,37.88764],[127.19625,37.88915],[127.19778,37.89059],[127.19923,37.89215],[127.20061,37.89377],[127.20186,37.89546],[127.20318,37.89719],[127.20446,37.89844],[127.20587,37.89971],[127.20717,37.9011],[127.20839,37.90294],[127.20948,37.90494],[127.21056,37.90695]]}},{"type":"Feature","properties":{"c":"build","n":"장항선","g":"kr","nz":"长项线","ne":"Janghang Line"},"geometry":{"type":"MultiLineString","coordinates":[[[126.57776,36.42238],[126.58033,36.42715],[126.58249,36.43214],[126.58427,36.43772],[126.5849,36.44039],[126.58572,36.44527],[126.5858,36.44582],[126.58589,36.44627],[126.58603,36.44676],[126.58621,36.44725],[126.58643,36.44769],[126.5867,36.44818],[126.58711,36.44904],[126.58761,36.45007],[126.58822,36.45112],[126.58905,36.45225],[126.59002,36.45341],[126.59105,36.45463],[126.59514,36.45971],[126.59685,36.46189],[126.5986,36.464],[126.60057,36.46607],[126.60279,36.4682],[126.60996,36.47445],[126.61305,36.47714],[126.61596,36.47995],[126.61731,36.48135],[126.61852,36.48269],[126.61905,36.48335],[126.61952,36.48397],[126.61991,36.48459],[126.62018,36.48514],[126.62039,36.48568],[126.62057,36.48623],[126.62076,36.48703],[126.62093,36.48793],[126.62131,36.48996],[126.62181,36.49212],[126.62243,36.49369],[126.62303,36.49502],[126.62321,36.49543],[126.62337,36.49578],[126.6235,36.49614],[126.6236,36.49651],[126.62368,36.49688],[126.62371,36.49731],[126.62364,36.49786],[126.6235,36.49849],[126.62332,36.49915],[126.62316,36.49979]],[[126.62085,36.5053],[126.62068,36.50588],[126.62051,36.50645],[126.62039,36.50704],[126.62035,36.50766],[126.62036,36.50829],[126.62037,36.50885],[126.62036,36.50918],[126.62034,36.50947],[126.62036,36.50976],[126.62043,36.51007],[126.62053,36.51038],[126.62067,36.51068],[126.62095,36.51107],[126.62126,36.51144],[126.62186,36.51219],[126.62216,36.51257],[126.62245,36.51295],[126.62265,36.51325],[126.62283,36.51357],[126.62296,36.5139],[126.62302,36.51422],[126.62304,36.51455],[126.62306,36.51493],[126.62329,36.51732],[126.62342,36.51823],[126.62359,36.51916],[126.62381,36.52004],[126.62406,36.52078],[126.62435,36.52148],[126.6247,36.52216],[126.6251,36.52279],[126.62554,36.5234],[126.62606,36.52411],[126.62961,36.52923],[126.6335,36.53521],[126.64116,36.54598],[126.64425,36.54996],[126.64684,36.55295],[126.64886,36.55565],[126.65193,36.55976],[126.65244,36.56045],[126.6529,36.56105],[126.65346,36.56164],[126.65406,36.56223]],[[126.6671,36.57125],[126.67229,36.57494],[126.67356,36.57581],[126.67467,36.57664],[126.67574,36.57758],[126.67672,36.57859],[126.67761,36.5797],[126.67839,36.58085],[126.67896,36.5819],[126.67943,36.58299],[126.67985,36.58424],[126.68016,36.58552],[126.68028,36.58667],[126.68034,36.58791],[126.68071,36.59269]]]}},{"type":"Feature","properties":{"c":"build","n":"춘천속초선","g":"kr","nz":"春川束草线","ne":"Chuncheon-Sokcho Line"},"geometry":{"type":"LineString","coordinates":[[127.7205,37.89047],[127.72097,37.89097],[127.72145,37.89147],[127.7219,37.89198],[127.72229,37.89251],[127.7226,37.89307],[127.72283,37.89364],[127.72305,37.89423],[127.7233,37.89486],[127.72486,37.89849],[127.72548,37.9],[127.72614,37.90147],[127.72704,37.90301],[127.72797,37.90458],[127.72881,37.90618],[127.72964,37.90796],[127.73071,37.91106],[127.73197,37.91446],[127.73394,37.91809],[127.73609,37.92189],[127.73745,37.92495],[127.7388,37.92817],[127.74054,37.93161],[127.74501,37.93788],[127.75011,37.94463],[127.75276,37.94809],[127.75279,37.94813],[127.75283,37.94818],[127.75287,37.94822],[127.75291,37.94826],[127.75292,37.94831],[127.7529,37.94835],[127.75285,37.94839],[127.7528,37.94842],[127.75275,37.94846],[127.75271,37.9485],[127.75089,37.9502],[127.75084,37.95024],[127.7508,37.95028],[127.75075,37.95031],[127.7507,37.95035],[127.75068,37.9504],[127.75069,37.95044],[127.75072,37.95049],[127.75076,37.95053],[127.75079,37.95058],[127.75082,37.95062],[127.75556,37.95834],[127.75655,37.95969],[127.75754,37.96094],[127.75846,37.9622],[127.75927,37.96359],[127.75944,37.96587],[127.75931,37.96847],[127.7592,37.97114],[127.75938,37.97367],[127.76065,37.97591],[127.76206,37.9782],[127.76352,37.98044],[127.76497,37.98255],[127.7668,37.98407],[127.76876,37.98546],[127.77074,37.98681],[127.77262,37.98818],[127.77421,37.98952],[127.77577,37.99083],[127.77728,37.99217],[127.77872,37.99363],[127.77931,37.9964],[127.77971,37.99964],[127.7801,38.00297],[127.78067,38.00599],[127.78217,38.00817],[127.78377,38.01027],[127.78543,38.01233],[127.78709,38.01437],[127.791,38.0182],[127.79492,38.02168],[127.79777,38.0238],[127.80067,38.02599],[127.80367,38.02876],[127.80698,38.03192],[127.81047,38.03551],[127.81366,38.04059],[127.81724,38.04646],[127.82082,38.05224],[127.82402,38.05707],[127.82883,38.05842],[127.83396,38.05965],[127.83916,38.06088],[127.84416,38.0622],[127.84816,38.06523],[127.85219,38.06852],[127.85635,38.07197],[127.86075,38.0755],[127.87381,38.08384],[127.88671,38.09176],[127.89111,38.09384],[127.89526,38.09568],[127.89922,38.09747],[127.90303,38.09939],[127.90604,38.10213],[127.909,38.10502],[127.91192,38.10782],[127.91481,38.11032],[127.91884,38.11109],[127.92313,38.11174],[127.92769,38.1124],[127.93254,38.1132],[127.93968,38.11567],[127.94768,38.11862],[127.95557,38.12151],[127.96242,38.12381],[127.9665,38.12421],[127.97024,38.12449],[127.97379,38.12469],[127.97732,38.12487],[127.98169,38.12467],[127.98597,38.12426],[127.99017,38.12395],[128.00186,38.12382],[128.03274,38.1228],[128.06956,38.12185],[128.0839,38.12239],[128.09816,38.12293],[128.1114,38.12349],[128.12266,38.12408],[128.1283,38.12797],[128.13386,38.13202],[128.1391,38.13589],[128.14379,38.13926],[128.14706,38.14063],[128.15004,38.14168],[128.15309,38.14272],[128.15654,38.14408],[128.16507,38.14877],[128.17484,38.15442],[128.18444,38.15992],[128.19066,38.16331],[128.19669,38.1666],[128.20283,38.16989],[128.2094,38.17325],[128.2204,38.17533],[128.23268,38.1775],[128.24514,38.17965],[128.25669,38.18163],[128.27357,38.18355],[128.28986,38.18564],[128.30858,38.19007],[128.32598,38.19442],[128.3325,38.19594],[128.33832,38.19729],[128.34404,38.19881],[128.34964,38.20125],[128.35521,38.20382],[128.36054,38.2064],[128.3648,38.20922],[128.36876,38.21216],[128.37279,38.21475],[128.37566,38.21595],[128.37841,38.21708],[128.38128,38.21818],[128.38447,38.21931],[128.39127,38.21914],[128.39944,38.21878],[128.40806,38.21835],[128.4162,38.21794],[128.44292,38.21548],[128.44769,38.21498],[128.45188,38.21466],[128.45595,38.21468],[128.46089,38.21491],[128.48313,38.21633],[128.50751,38.21764],[128.51859,38.21753],[128.52775,38.21723],[128.53053,38.21721],[128.53307,38.21722],[128.53544,38.21719],[128.53774,38.21702],[128.5398,38.21608],[128.54189,38.215],[128.54398,38.21385],[128.54607,38.21267],[128.54806,38.21112],[128.55007,38.20949],[128.55207,38.20779],[128.55402,38.20601],[128.55561,38.20343],[128.55721,38.20061],[128.55871,38.19781],[128.56001,38.19532],[128.56109,38.19227],[128.56192,38.18942]]}},{"type":"Feature","properties":{"c":"build","n":"평택~오송 고속철도","g":"kr","h":1},"geometry":{"type":"MultiLineString","coordinates":[[[127.32422,36.62275],[127.32049,36.62632],[127.3041,36.64088],[127.2978,36.64634],[127.29618,36.64778],[127.29465,36.64907],[127.29298,36.65027],[127.29109,36.65151],[127.2838,36.65598],[127.27621,36.66011],[127.14559,36.73131],[127.13912,36.73501],[127.13563,36.73733],[127.13319,36.73907],[127.13065,36.74104],[127.12777,36.74355],[127.12499,36.74624],[127.12247,36.74897],[127.12021,36.75173],[127.11843,36.75427],[127.11692,36.75659],[127.11605,36.75784],[127.11528,36.75902],[127.1145,36.76045],[127.11374,36.76199],[127.11182,36.76626],[127.1102,36.77115],[127.10892,36.7761],[127.08496,36.86894],[127.07748,36.89862],[127.07568,36.9058],[127.07417,36.913],[127.07265,36.9276],[127.07132,36.94273],[127.06852,36.96178]],[[127.06997,36.9618],[127.07136,36.94583],[127.07142,36.94529],[127.07146,36.94492],[127.07147,36.94454],[127.07142,36.94411],[127.07133,36.94368],[127.07124,36.94326]]]}},{"type":"Feature","properties":{"c":"build","n":"평택고속연결선","g":"kr","nz":"平泽高速联络线","ne":"Pyeongtaek Highspeed Connecting Line"},"geometry":{"type":"LineString","coordinates":[[127.0525,37.05392],[127.05227,37.05251],[127.05212,37.0512],[127.05211,37.05065],[127.05213,37.05014],[127.05221,37.04964],[127.05236,37.04909],[127.05256,37.04854],[127.05281,37.04802],[127.053,37.04769],[127.05321,37.04738],[127.05346,37.04706],[127.05378,37.04673],[127.05441,37.04618],[127.0552,37.0456],[127.05608,37.04499],[127.05703,37.04434],[127.06343,37.04032],[127.06412,37.0399],[127.06469,37.03956],[127.06522,37.03918],[127.06576,37.03874],[127.06627,37.03826],[127.0667,37.03779],[127.06698,37.0374],[127.06721,37.037],[127.06742,37.03659],[127.06763,37.03609],[127.06782,37.03557],[127.06797,37.03503],[127.06804,37.03456],[127.06808,37.03408],[127.06814,37.03342],[127.06959,37.02015]]}},{"type":"Feature","properties":{"c":"build","n":"호남고속선","g":"kr","h":1,"nz":"湖南高速线","ne":"Honam HSL"},"geometry":{"type":"LineString","coordinates":[[126.4422,34.82063],[126.44434,34.82066],[126.44629,34.82073],[126.44734,34.82086],[126.4483,34.82104],[126.44883,34.82115],[126.44937,34.82128],[126.4499,34.82144],[126.45044,34.82163],[126.45104,34.8219],[126.45165,34.82221],[126.45225,34.82257],[126.45285,34.82295],[126.45356,34.82344],[126.45428,34.82398],[126.45497,34.82455],[126.45558,34.82512],[126.45604,34.82563],[126.45645,34.82615],[126.45681,34.82669],[126.45711,34.82727],[126.45737,34.828],[126.45754,34.82879],[126.45767,34.8296],[126.45778,34.83038],[126.45789,34.83127],[126.45796,34.83214],[126.45795,34.83295],[126.45791,34.83339],[126.45785,34.83379],[126.45774,34.83419],[126.45757,34.83463],[126.4572,34.83531],[126.45671,34.83604],[126.45614,34.8368],[126.45552,34.83755],[126.45443,34.8387],[126.45322,34.83985],[126.4521,34.84106],[126.45122,34.84228],[126.45043,34.84355],[126.44952,34.84502],[126.44301,34.85499],[126.43611,34.86471],[126.42321,34.88504],[126.41354,34.9025],[126.41065,34.90773],[126.40822,34.91311],[126.40642,34.91767],[126.40495,34.92231],[126.39894,34.94123],[126.39561,34.94946],[126.39395,34.95357],[126.39322,34.95569],[126.3926,34.9578],[126.39222,34.95959],[126.39188,34.96152],[126.39044,34.96896],[126.38949,34.97471],[126.38873,34.98105],[126.38853,34.98955],[126.38858,34.99685],[126.38854,35.00019],[126.38863,35.00184],[126.38886,35.00353],[126.3891,35.00458],[126.3894,35.00569],[126.38976,35.00676],[126.39016,35.00765],[126.39044,35.00812],[126.39075,35.00853],[126.39107,35.00889],[126.39141,35.00922],[126.39181,35.00958],[126.39224,35.00989],[126.39269,35.01017],[126.39315,35.01039],[126.39363,35.01059],[126.39421,35.01082],[126.39647,35.01174],[126.39911,35.01293],[126.40113,35.01415],[126.4032,35.01552],[126.40519,35.01666],[126.40662,35.01723],[126.408,35.01765],[126.40946,35.01807],[126.41502,35.01954],[126.41598,35.0198],[126.41683,35.02001],[126.41775,35.0202],[126.41868,35.02034],[126.41957,35.02042],[126.42056,35.02048],[126.42264,35.02066],[126.42487,35.0208],[126.42605,35.02079],[126.42718,35.02074],[126.42827,35.02063],[126.42918,35.02048],[126.43006,35.02028],[126.431,35.02004],[126.4353,35.01883],[126.43603,35.01862],[126.43667,35.01843],[126.43732,35.01827],[126.43801,35.01815],[126.43871,35.01806],[126.43942,35.018],[126.44041,35.01796],[126.44154,35.01794],[126.44729,35.01779],[126.45515,35.01803],[126.46932,35.01845],[126.47577,35.01864],[126.48222,35.01858],[126.48476,35.01866],[126.48744,35.01884],[126.49245,35.01937],[126.49786,35.02019],[126.5029,35.02133],[126.50791,35.02271],[126.51318,35.02447],[126.51834,35.02617],[126.52266,35.02729],[126.52672,35.02817],[126.52975,35.02874],[126.5328,35.02919],[126.5372,35.02963],[126.54154,35.02993],[126.54434,35.03003],[126.54698,35.03004],[126.54942,35.02993],[126.55241,35.02975],[126.58251,35.02813],[126.59028,35.02788],[126.59396,35.02763],[126.59736,35.02728],[126.59957,35.02689],[126.60156,35.02642],[126.60321,35.02593],[126.60496,35.02536],[126.61177,35.02323]]}},{"type":"Feature","properties":{"c":"build","n":"화성고속연결선","g":"kr","nz":"华城高速联络线","ne":"Hwaseong Highspeed Connecting Line"},"geometry":{"type":"LineString","coordinates":[[126.90432,37.25183],[126.90704,37.25085],[126.9098,37.24983],[126.91249,37.24889],[126.915,37.24816],[126.91692,37.24791],[126.91882,37.24785],[126.92056,37.24781],[126.92204,37.24766],[126.92281,37.24748],[126.92349,37.24729],[126.92409,37.24706],[126.92464,37.24676],[126.92514,37.24639],[126.92558,37.24596],[126.92597,37.24551],[126.92635,37.24507],[126.92676,37.2446],[126.92713,37.24414],[126.92745,37.24366],[126.92769,37.24322],[126.92789,37.24277],[126.92808,37.24226],[126.92843,37.24088],[126.92881,37.23945],[126.92934,37.23829],[126.92972,37.23757],[126.92973,37.23755],[126.92974,37.23753],[126.92975,37.23751],[126.92976,37.23749],[126.92976,37.23748],[126.92975,37.23746],[126.92972,37.23746],[126.9297,37.23745],[126.92967,37.23745],[126.92965,37.23744],[126.92961,37.23743],[126.92958,37.23742],[126.92956,37.23741],[126.92954,37.2374],[126.92952,37.23739],[126.9295,37.23739],[126.92948,37.2374],[126.92947,37.23742],[126.92946,37.23744],[126.92945,37.23745],[126.92943,37.23747],[126.9285,37.23871],[126.92667,37.24107],[126.92491,37.2431],[126.92399,37.24396],[126.9231,37.24466],[126.92217,37.24528],[126.92131,37.24577],[126.92041,37.2462],[126.91942,37.2466],[126.91802,37.24703],[126.91647,37.24741],[126.91493,37.24779]]}}]}