{"type":"FeatureCollection","features":[{"type":"Feature","properties":{"n":"서울차량사업소","g":"kr","from":"ground","nz":"首尔车辆事业所","ne":"Seoul Depot"},"geometry":{"type":"Point","coordinates":[126.89877,37.57765]}},{"type":"Feature","properties":{"n":"대저차량기지","g":"kr","from":"ground","nz":"大渚车辆基地"},"geometry":{"type":"Point","coordinates":[128.95358,35.20627]}},{"type":"Feature","properties":{"n":"가야차량사업소","g":"kr","from":"ground","nz":"伽倻车辆事业所"},"geometry":{"type":"Point","coordinates":[129.03706,35.15929]}},{"type":"Feature","properties":{"n":"부산철도차량정비단","g":"kr","from":"ground","nz":"釜山铁道车辆整备团"},"geometry":{"type":"Point","coordinates":[129.05325,35.15039]}},{"type":"Feature","properties":{"n":"호포차량사업소","g":"kr","from":"ground","nz":"湖浦车辆事业所"},"geometry":{"type":"Point","coordinates":[129.01842,35.28673]}},{"type":"Feature","properties":{"n":"고속철도 광명기지","g":"kr","from":"ground","ne":"Gwangmyeong Deport"},"geometry":{"type":"Point","coordinates":[126.89705,37.43534]}},{"type":"Feature","properties":{"n":"대구도시철도공사 문양차량사업소","g":"kr","from":"ground"},"geometry":{"type":"Point","coordinates":[128.43529,35.86465]}},{"type":"Feature","properties":{"n":"귤현기지사업소","g":"kr","from":"ground","ne":"Gyulhyeon Depot"},"geometry":{"type":"Point","coordinates":[126.7428,37.56875]}},{"type":"Feature","properties":{"n":"용유차량사업소","g":"kr","from":"ground","nz":"龙游车辆事业所","ne":"Yongyu Train Depot"},"geometry":{"type":"Point","coordinates":[126.42938,37.42867]}},{"type":"Feature","properties":{"n":"김포차량사업소","g":"kr","from":"ground","nz":"金浦车辆事业所","ne":"Gimpo Depot"},"geometry":{"type":"Point","coordinates":[126.79202,37.57847]}},{"type":"Feature","properties":{"n":"축항조차장","g":"kr","from":"ground"},"geometry":{"type":"Point","coordinates":[126.61993,37.4704]}},{"type":"Feature","properties":{"n":"노포차량사업소","g":"kr","from":"ground","nz":"老圃车辆事业所","ne":"Nopo Car deport"},"geometry":{"type":"Point","coordinates":[129.09575,35.28248]}},{"type":"Feature","properties":{"n":"구로차량사업소","g":"kr","from":"ground","nz":"九老车辆事业所","ne":"Guro Depot"},"geometry":{"type":"Point","coordinates":[126.8786,37.49255]}},{"type":"Feature","properties":{"n":"안심기지사업소","g":"kr","from":"ground"},"geometry":{"type":"Point","coordinates":[128.7499,35.86923]}},{"type":"Feature","properties":{"n":"부산-김해 경전철 신명차량기지","g":"kr","from":"ground","ne":"Busan-Gimhae light rail Sinmyeong depot"},"geometry":{"type":"Point","coordinates":[128.86393,35.27469]}},{"type":"Feature","properties":{"n":"수도권철도차량정비단","g":"kr","from":"ground","nz":"首都圈铁道车辆整备团","ne":"Metropolitan Train Vehicle Maintenance Workshop"},"geometry":{"type":"Point","coordinates":[126.8322,37.61128]}},{"type":"Feature","properties":{"n":"신내차량사업소","g":"kr","from":"ground","nz":"新内车辆事业所","ne":"Sinnae Depot"},"geometry":{"type":"Point","coordinates":[127.10769,37.61172]}},{"type":"Feature","properties":{"n":"문산차량사업소","g":"kr","from":"ground","nz":"文山车辆事业所","ne":"Munsan Depot"},"geometry":{"type":"Point","coordinates":[126.78644,37.83708]}},{"type":"Feature","properties":{"n":"제천조차장","g":"kr","from":"ground","nz":"堤川操车场"},"geometry":{"type":"Point","coordinates":[128.17718,37.1276]}},{"type":"Feature","properties":{"n":"평내차량사업소","g":"kr","from":"ground","nz":"坪内车辆事业所","ne":"Pyeongnae Depot"},"geometry":{"type":"Point","coordinates":[127.21552,37.64886]}},{"type":"Feature","properties":{"n":"영동보수기지","g":"kr","from":"ground"},"geometry":{"type":"Point","coordinates":[127.72631,36.21533]}},{"type":"Feature","properties":{"n":"도봉차량사업소","g":"kr","from":"ground","nz":"道峰车辆事业所","ne":"Dobong Depot"},"geometry":{"type":"Point","coordinates":[127.05352,37.70281]}},{"type":"Feature","properties":{"n":"지축차량사업소","g":"kr","from":"ground","nz":"纸杻车辆事业所"},"geometry":{"type":"Point","coordinates":[126.906,37.65064]}},{"type":"Feature","properties":{"n":"병점차량사업소","g":"kr","from":"ground","nz":"饼店车辆事业所","ne":"Byeongjeom Train Depot"},"geometry":{"type":"Point","coordinates":[127.04961,37.19582]}},{"type":"Feature","properties":{"n":"칠곡차량사업소","g":"kr","from":"ground","nz":"漆谷车辆事业所"},"geometry":{"type":"Point","coordinates":[128.5609,35.96393]}},{"type":"Feature","properties":{"n":"판암차량사업소","g":"kr","from":"ground","nz":"板岩车辆事业所"},"geometry":{"type":"Point","coordinates":[127.47369,36.3256]}},{"type":"Feature","properties":{"n":"용인경전철차량사업소","g":"kr","from":"ground","ne":"Yongin LRT Depot"},"geometry":{"type":"Point","coordinates":[127.16241,37.24274]}},{"type":"Feature","properties":{"n":"호남철도차량정비단","g":"kr","from":"ground","nz":"湖南铁道车辆整备团"},"geometry":{"type":"Point","coordinates":[126.79314,35.17841]}},{"type":"Feature","properties":{"n":"광주도시철도공사 용산차량기지","g":"kr","from":"ground","ne":"Yongsan Train Depot"},"geometry":{"type":"Point","coordinates":[126.93506,35.10849]}},{"type":"Feature","properties":{"n":"옥동차량사업소","g":"kr","from":"ground","nz":"玉洞车辆事业所","ne":"Ok-dong Train Depot"},"geometry":{"type":"Point","coordinates":[126.76219,35.12194]}},{"type":"Feature","properties":{"n":"강릉차량사업소","g":"kr","from":"ground","nz":"江陵车辆事业所"},"geometry":{"type":"Point","coordinates":[128.9242,37.71078]}},{"type":"Feature","properties":{"n":"운연차량사업소","g":"kr","from":"ground","nz":"云宴车辆事业所","ne":"Unyeon Depot"},"geometry":{"type":"Point","coordinates":[126.75861,37.43532]}},{"type":"Feature","properties":{"n":"시흥철도차량정비단","g":"kr","from":"ground","nz":"始兴铁道车辆整备团","ne":"Siheung Train Vehicle Maintenance Workshop"},"geometry":{"type":"Point","coordinates":[126.74058,37.37408]}},{"type":"Feature","properties":{"n":"부발차량사업소","g":"kr","from":"ground","nz":"夫钵车辆事业所"},"geometry":{"type":"Point","coordinates":[127.51164,37.25321]}},{"type":"Feature","properties":{"n":"용문차량사업소","g":"kr","from":"ground","nz":"龙门车辆事业所","ne":"Yongmun Train Depot"},"geometry":{"type":"Point","coordinates":[127.61337,37.47526]}},{"type":"Feature","properties":{"n":"천왕차량사업소","g":"kr","from":"ground","nz":"天旺车辆事业所","ne":"Cheonwang Depot"},"geometry":{"type":"Point","coordinates":[126.84344,37.47569]}},{"type":"Feature","properties":{"n":"신정차량사업소","g":"kr","from":"ground","nz":"新亭车辆事业所","ne":"Sinjeong Depot"},"geometry":{"type":"Point","coordinates":[126.86635,37.51111]}},{"type":"Feature","properties":{"n":"김포한강차량기지","g":"kr","from":"ground","ne":"Gimpohangang Depot"},"geometry":{"type":"Point","coordinates":[126.61603,37.6396]}},{"type":"Feature","properties":{"n":"방화차량사업소","g":"kr","from":"ground","nz":"傍花车辆事业所","ne":"Banghwa Depot"},"geometry":{"type":"Point","coordinates":[126.80878,37.58828]}},{"type":"Feature","properties":{"n":"송산차량사업소","g":"kr","from":"ground","nz":"松山车辆事业所","ne":"Songsan Train Depot"},"geometry":{"type":"Point","coordinates":[127.09433,37.72971]}},{"type":"Feature","properties":{"n":"광교차량사업소","g":"kr","from":"ground","nz":"光教车辆事业所","ne":"Gwanggyo Depot"},"geometry":{"type":"Point","coordinates":[127.0401,37.30392]}},{"type":"Feature","properties":{"n":"외삼차량사업소","g":"kr","from":"ground","ne":"Oesam Subway Depot"},"geometry":{"type":"Point","coordinates":[127.30782,36.40393]}},{"type":"Feature","properties":{"n":"분당차량사업소","g":"kr","from":"ground","nz":"盆唐车辆事业所","ne":"Bundang Depot"},"geometry":{"type":"Point","coordinates":[127.10715,37.31679]}},{"type":"Feature","properties":{"n":"이문차량사업소","g":"kr","from":"ground","nz":"里门车辆事业所","ne":"Imun Train Depot"},"geometry":{"type":"Point","coordinates":[127.06856,37.60818]}},{"type":"Feature","properties":{"n":"대전조차장","g":"kr","from":"ground","nz":"大田操车场","ne":"Daejeon Marshalling Yard"},"geometry":{"type":"Point","coordinates":[127.42119,36.36748]}},{"type":"Feature","properties":{"n":"고모보수기지","g":"kr","from":"ground","nz":"顾母维修基地"},"geometry":{"type":"Point","coordinates":[128.69681,35.85422]}},{"type":"Feature","properties":{"n":"범물주박기지사업소","g":"kr","from":"ground"},"geometry":{"type":"Point","coordinates":[128.65163,35.82195]}},{"type":"Feature","properties":{"n":"진접차량사업소","g":"kr","from":"ground","nz":"榛接车辆事业所","ne":"Jinjeop Train Depot"},"geometry":{"type":"Point","coordinates":[127.2245,37.71741]}},{"type":"Feature","properties":{"n":"대전철도차량정비단","g":"kr","from":"ground","nz":"大田铁道车辆整备团"},"geometry":{"type":"Point","coordinates":[127.43154,36.42698]}},{"type":"Feature","properties":{"n":"송산차량사업소","g":"kr","from":"ground","ne":"Songsan Train Depot"},"geometry":{"type":"Point","coordinates":[126.78816,37.26344]}},{"type":"Feature","properties":{"n":"안평차량기지","g":"kr","from":"ground","nz":"安平车辆基地"},"geometry":{"type":"Point","coordinates":[129.17787,35.24233]}},{"type":"Feature","properties":{"n":"울산차량사업소","g":"kr","from":"ground","nz":"蔚山车辆事业所"},"geometry":{"type":"Point","coordinates":[129.29748,35.4738]}},{"type":"Feature","properties":{"n":"천안보수기지","g":"kr","from":"ground"},"geometry":{"type":"Point","coordinates":[127.09988,36.81202]}},{"type":"Feature","properties":{"n":"청량리차량사업소","g":"kr","from":"ground","nz":"清凉里车辆事业所"},"geometry":{"type":"Point","coordinates":[127.04969,37.57985]}},{"type":"Feature","properties":{"n":"오류주박기지","g":"kr","from":"ground"},"geometry":{"type":"Point","coordinates":[126.62184,37.59728]}},{"type":"Feature","properties":{"n":"천안기관차승무사업소","g":"kr","from":"ground"},"geometry":{"type":"Point","coordinates":[127.14594,36.81067]}},{"type":"Feature","properties":{"n":"운정차량사업소","g":"kr","from":"ground","nz":"云井车辆事业所","ne":"Unjeong Train Depot"},"geometry":{"type":"Point","coordinates":[126.70868,37.74164]}},{"type":"Feature","properties":{"n":"수색차량사업소","g":"kr","from":"ground","nz":"水色车辆事业所","ne":"Susaek Depot"},"geometry":{"type":"Point","coordinates":[126.88866,37.5843]}},{"type":"Feature","properties":{"n":"광주차량사업소","g":"kr","from":"ground","nz":"光州车辆事业所"},"geometry":{"type":"Point","coordinates":[126.90877,35.16651]}},{"type":"Feature","properties":{"n":"목포차량사업소","g":"kr","from":"ground","nz":"木浦车辆事业所","ne":"Mokpo Depot"},"geometry":{"type":"Point","coordinates":[126.38959,34.79525]}},{"type":"Feature","properties":{"n":"대전차량분소","g":"kr","from":"object"},"geometry":{"type":"Point","coordinates":[127.43181,36.3357]}},{"type":"Feature","properties":{"n":"제천철도차량정비단 동력차정비센터","g":"kr","from":"ground"},"geometry":{"type":"Point","coordinates":[128.20118,37.1289]}},{"type":"Feature","properties":{"n":"부곡차량사업소","g":"kr","from":"ground","ne":"Bugok Depot"},"geometry":{"type":"Point","coordinates":[126.94733,37.31811]}},{"type":"Feature","properties":{"n":"고속철도 약목보수기지","g":"kr","from":"ground"},"geometry":{"type":"Point","coordinates":[128.35763,36.04415]}},{"type":"Feature","properties":{"n":"인천차량분소","g":"kr","from":"ground","ne":"Incheon Depot Branch"},"geometry":{"type":"Point","coordinates":[126.61769,37.48014]}},{"type":"Feature","properties":{"n":"안산차량분소","g":"kr","from":"ground","ne":"Ansan Branch Depot"},"geometry":{"type":"Point","coordinates":[126.78755,37.3274]}},{"type":"Feature","properties":{"n":"익산차량사업소","g":"kr","from":"ground","nz":"益山车辆事业所"},"geometry":{"type":"Point","coordinates":[126.94571,35.94293]}},{"type":"Feature","properties":{"n":"보라매차량사업소","g":"kr","from":"ground","nz":"波拉美车辆事业所","ne":"Boramae Car Depot"},"geometry":{"type":"Point","coordinates":[126.9217,37.4912]}},{"type":"Feature","properties":{"n":"신평차량사업소","g":"kr","from":"ground","nz":"新平车辆事业所"},"geometry":{"type":"Point","coordinates":[128.96108,35.09389]}},{"type":"Feature","properties":{"n":"용유기지","g":"kr","from":"ground","nz":"龙游基地","ne":"Yongyu Depot"},"geometry":{"type":"Point","coordinates":[126.42668,37.42944]}},{"type":"Feature","properties":{"n":"괴동","g":"kr","from":"object","nz":"槐东","ne":"Goedong"},"geometry":{"type":"Point","coordinates":[129.37507,35.99656]}},{"type":"Feature","properties":{"n":"동산","g":"kr","from":"object","nz":"东山","ne":"Dongsan"},"geometry":{"type":"Point","coordinates":[127.08837,35.87539]}},{"type":"Feature","properties":{"n":"삼곡","g":"kr","from":"object","nz":"三谷","ne":"Samgok"},"geometry":{"type":"Point","coordinates":[128.275,37.07503]}},{"type":"Feature","properties":{"n":"신창원","g":"kr","from":"object","nz":"新昌原","ne":"Sinchangwon"},"geometry":{"type":"Point","coordinates":[128.64001,35.23346]}},{"type":"Feature","properties":{"n":"흑석리","g":"kr","from":"object","nz":"黑石里","ne":"Heukseongni"},"geometry":{"type":"Point","coordinates":[127.33909,36.25571]}},{"type":"Feature","properties":{"n":"부산진","g":"kr","from":"object","nz":"釜山镇","ne":"Busanjin"},"geometry":{"type":"Point","coordinates":[129.04908,35.12525]}},{"type":"Feature","properties":{"n":"삼화","g":"kr","from":"object","nz":"三和","ne":"Samhwa"},"geometry":{"type":"Point","coordinates":[129.06304,37.48596]}},{"type":"Feature","properties":{"n":"온산","g":"kr","from":"object","nz":"温山","ne":"Onsan"},"geometry":{"type":"Point","coordinates":[129.35073,35.42596]}},{"type":"Feature","properties":{"n":"적량","g":"kr","from":"object","nz":"积良","ne":"Jeongnyang"},"geometry":{"type":"Point","coordinates":[127.71058,34.85591]}},{"type":"Feature","properties":{"n":"고명","g":"kr","from":"object","nz":"高明","ne":"Gomyeong"},"geometry":{"type":"Point","coordinates":[128.243,37.11226]}},{"type":"Feature","properties":{"n":"장성화물","g":"kr","from":"object","nz":"长城货运站","ne":"Jangseonghwamul"},"geometry":{"type":"Point","coordinates":[126.75605,35.31683]}},{"type":"Feature","properties":{"n":"부산신항","g":"kr","from":"object","nz":"釜山新港","ne":"Busansinhang"},"geometry":{"type":"Point","coordinates":[128.846,35.11402]}},{"type":"Feature","properties":{"n":"도담","g":"kr","from":"object","nz":"嶋潭"},"geometry":{"type":"Point","coordinates":[128.32639,37.02448]}},{"type":"Feature","properties":{"n":"매포","g":"kr","from":"object","nz":"梅浦","ne":"Maepo"},"geometry":{"type":"Point","coordinates":[127.39113,36.49869]}},{"type":"Feature","properties":{"n":"용암","g":"kr","from":"object","nz":"龙岩","ne":"yongam"},"geometry":{"type":"Point","coordinates":[129.32115,35.47608]}},{"type":"Feature","properties":{"n":"오봉","g":"kr","from":"object","nz":"五峰"},"geometry":{"type":"Point","coordinates":[126.96174,37.33632]}},{"type":"Feature","properties":{"n":"노령","g":"kr","from":"object","nz":"芦岭","ne":"Noryeong"},"geometry":{"type":"Point","coordinates":[126.8006,35.49001]}},{"type":"Feature","properties":{"n":"군산항","g":"kr","from":"object","nz":"群山港","ne":"Gunsan Port"},"geometry":{"type":"Point","coordinates":[126.55976,35.97195]}},{"type":"Feature","properties":{"n":"양산화물","g":"kr","from":"object","nz":"梁山货运站","ne":"YangsanHwamul"},"geometry":{"type":"Point","coordinates":[129.01137,35.30134]}},{"type":"Feature","properties":{"n":"부강화물","g":"kr","from":"object","nz":"芙江货运站","ne":"Bugang Freight Station"},"geometry":{"type":"Point","coordinates":[127.3492,36.54525]}},{"type":"Feature","properties":{"n":"울산신항","g":"kr","from":"object","nz":"蔚山新港","ne":"Ulsansinhang"},"geometry":{"type":"Point","coordinates":[129.3725,35.46655]}},{"type":"Feature","properties":{"n":"대불","g":"kr","from":"object","nz":"大佛","ne":"Daebul"},"geometry":{"type":"Point","coordinates":[126.41883,34.7737]}},{"type":"Feature","properties":{"n":"황등","g":"kr","from":"object","nz":"黄登","ne":"Hwangdeung"},"geometry":{"type":"Point","coordinates":[126.94277,35.99977]}},{"type":"Feature","properties":{"n":"신동화물","g":"kr","from":"object","nz":"新洞货运站","ne":"Sindong Hwamul"},"geometry":{"type":"Point","coordinates":[128.45173,35.95993]}},{"type":"Feature","properties":{"n":"신광양항","g":"kr","from":"object","nz":"新光阳港","ne":"Singwangyanghang"},"geometry":{"type":"Point","coordinates":[127.64747,34.89757]}},{"type":"Feature","properties":{"n":"태금","g":"kr","from":"object","nz":"太金","ne":"Taegeum"},"geometry":{"type":"Point","coordinates":[127.7156,34.93042]}},{"type":"Feature","properties":{"n":"수서차량사업소","g":"kr","from":"object","nz":"水西车辆事业所","ne":"Suseo Train Depot"},"geometry":{"type":"Point","coordinates":[127.11026,37.48119]}},{"type":"Feature","properties":{"n":"관촌","g":"kr","from":"object","nz":"馆村","ne":"Gwanchon"},"geometry":{"type":"Point","coordinates":[127.2764,35.66277]}},{"type":"Feature","properties":{"n":"위례차량사업소","g":"kr","from":"object"},"geometry":{"type":"Point","coordinates":[127.15384,37.49173]}},{"type":"Feature","properties":{"n":"고덕차량사업소","g":"kr","from":"object","nz":"高德车辆事业所","ne":"Godeok Train Depot"},"geometry":{"type":"Point","coordinates":[127.16629,37.56859]}},{"type":"Feature","properties":{"n":"모란차량사업소","g":"kr","from":"object","nz":"牡丹车辆事业所","ne":"Moran Train Depot"},"geometry":{"type":"Point","coordinates":[127.12105,37.41921]}},{"type":"Feature","properties":{"n":"군자기지","g":"kr","from":"object","nz":"君子基地","ne":"Gunja Depot"},"geometry":{"type":"Point","coordinates":[127.05341,37.55791]}},{"type":"Feature","properties":{"n":"성북차량분소","g":"kr","from":"object","ne":"Seongbuk Branch Depot"},"geometry":{"type":"Point","coordinates":[127.06272,37.62316]}},{"type":"Feature","properties":{"n":"우이차량사업소","g":"kr","from":"object","nz":"牛耳车辆事业所","ne":"Ui Depot"},"geometry":{"type":"Point","coordinates":[127.01094,37.66525]}},{"type":"Feature","properties":{"n":"월배차량기지","g":"kr","from":"table"},"geometry":{"type":"Point","coordinates":[128.51136,35.81477]}},{"type":"Feature","properties":{"n":"포항차량사업소","g":"kr","from":"table"},"geometry":{"type":"Point","coordinates":[129.34186,36.06984]}}]}