{"type":"FeatureCollection","features":[{"type":"Feature","properties":{"c":"hsr250","n":"武西高速线","on":"武孝城际线","r":"hsr350","d":250.0,"dn":"武西高速铁路黄走段","de":"黄家湖线路所~走马岭线路所","ref":"https://www.china-emu.cn/RailRoads/Line/?LineName=武西高速铁路（及联络线）","db":"infrastructure"},"geometry":{"type":"MultiLineString","coordinates":[[[114.249156,30.622308],[114.250118,30.622602],[114.25108,30.622896],[114.252154,30.623157],[114.253862,30.623387],[114.255768,30.623558],[114.257721,30.623833],[114.260069,30.624406],[114.262475,30.62511],[114.264464,30.625698],[114.264974,30.625829],[114.265421,30.625933],[114.265828,30.626031],[114.266216,30.626143],[114.266606,30.62629],[114.267004,30.626472],[114.267396,30.626674],[114.267773,30.626898],[114.268125,30.627142],[114.268442,30.627408],[114.268723,30.627698],[114.268979,30.628016],[114.269206,30.628351],[114.269403,30.628692],[114.269565,30.629031],[114.269672,30.629332],[114.269739,30.629628],[114.269786,30.629931],[114.26983,30.630252],[114.269892,30.630602],[114.270062,30.631324],[114.270265,30.632138],[114.270445,30.63297],[114.270546,30.633745],[114.270554,30.634356],[114.270515,30.634954],[114.270442,30.63551],[114.27035,30.635992],[114.270254,30.636334],[114.270141,30.636629],[114.270012,30.636918],[114.269812,30.637312],[114.269543,30.637801],[114.266176,30.64414],[114.265762,30.64489],[114.265414,30.645516],[114.265106,30.646155],[114.264835,30.64686],[114.264604,30.647578],[114.264402,30.648286],[114.264173,30.649253],[114.263972,30.650212],[114.263535,30.652173],[114.263334,30.653123],[114.263113,30.654064],[114.262952,30.654666],[114.262772,30.655265],[114.26253,30.655923],[114.262023,30.657034],[114.261389,30.658266],[114.260728,30.659487],[114.258689,30.662955],[114.255726,30.667993],[114.254103,30.670754],[114.253226,30.672103],[114.252279,30.673421],[114.251239,30.674697],[114.250064,30.675977],[114.248373,30.677611],[114.246513,30.679239],[114.244699,30.680654],[114.242621,30.6822],[114.232753,30.689706],[114.230245,30.691562],[114.228016,30.69331],[114.225802,30.695307],[114.223789,30.697355],[114.222289,30.699102],[114.220935,30.700939],[114.219457,30.703344],[114.218076,30.705888],[114.215608,30.71099],[114.199015,30.745295],[114.198352,30.746626],[114.197887,30.747626],[114.197404,30.748847],[114.197015,30.750037],[114.19686,30.750641],[114.196744,30.751218],[114.196661,30.75183],[114.196609,30.752418],[114.19658,30.753036],[114.196583,30.753673],[114.196629,30.754315],[114.196732,30.755025],[114.196883,30.75575],[114.197079,30.75648],[114.197318,30.757203],[114.197609,30.757949],[114.197945,30.75869],[114.198333,30.75943],[114.198782,30.76017],[114.199379,30.761011],[114.200061,30.761857],[114.200793,30.762694],[114.201536,30.76351],[114.202937,30.76492],[114.20468,30.766585],[114.219829,30.7814],[114.23218,30.793193],[114.233809,30.794749],[114.23457,30.795541],[114.235309,30.796398],[114.235896,30.797174],[114.236476,30.798013],[114.236993,30.798855],[114.237404,30.799633],[114.23776,30.800414],[114.238066,30.801181],[114.238297,30.801843],[114.238486,30.802494],[114.238645,30.803186],[114.238803,30.804091],[114.23892,30.805052],[114.238978,30.806006],[114.238972,30.806905],[114.238911,30.807796],[114.238796,30.808683],[114.238625,30.809579],[114.2384,30.81047],[114.23813,30.811332],[114.237838,30.812106],[114.237505,30.812854],[114.237127,30.813594],[114.236687,30.81436],[114.236198,30.815117],[114.235652,30.815861],[114.235006,30.816639],[114.234296,30.817403],[114.23353,30.818139],[114.232641,30.818892],[114.231692,30.819615],[114.230792,30.82024],[114.230192,30.820617],[114.229621,30.820937],[114.228998,30.821251],[114.228147,30.821645],[114.227223,30.822031],[114.226256,30.82238],[114.22517,30.822711],[114.224035,30.823],[114.222887,30.823227],[114.221853,30.823355],[114.220804,30.823421],[114.219393,30.823517],[114.207779,30.824603],[114.192844,30.825724],[114.178938,30.825872],[114.162661,30.825785],[114.066759,30.82598],[114.063759,30.825965],[114.061568,30.825991],[114.058956,30.826132],[114.056393,30.826344],[114.054164,30.826566],[114.051891,30.826873],[114.048773,30.82744],[114.04569,30.828124],[114.043493,30.828723],[114.041412,30.829375],[114.037172,30.830883],[114.031997,30.833049],[114.027007,30.835515],[114.012783,30.842543],[114.010347,30.843747],[114.009144,30.844395],[114.00799,30.845062],[114.007067,30.845659],[114.006097,30.846314],[114.004283,30.847479],[114.002311,30.848817],[114.000189,30.850479],[113.998248,30.852122],[113.997169,30.853083],[113.996135,30.854083],[113.994383,30.855911],[113.992579,30.857942],[113.991188,30.859691],[113.989404,30.862039],[113.950357,30.912415],[113.949067,30.914029],[113.948171,30.915235],[113.947544,30.916217],[113.946968,30.917224],[113.94644,30.918279],[113.94592,30.919493],[113.945455,30.920762],[113.945053,30.922044],[113.944647,30.923777],[113.944226,30.925929],[113.939398,30.948614],[113.938566,30.952522],[113.938096,30.954462],[113.937554,30.956399],[113.936896,30.958366],[113.936099,30.960386],[113.934935,30.962922],[113.933576,30.965493],[113.932054,30.967958],[113.930395,30.97033],[113.928702,30.972491],[113.926903,30.974545],[113.925047,30.976447],[113.923062,30.978277],[113.920738,30.980215],[113.91834,30.982024],[113.916255,30.983419],[113.914205,30.984659],[113.912426,30.985653],[113.910644,30.986557],[113.909046,30.987274],[113.906906,30.988184],[113.886213,30.997328],[113.860719,31.008292],[113.845931,31.013671],[113.83467,31.017539],[113.832149,31.018455],[113.83008,31.019168],[113.827748,31.019862],[113.82536,31.020495],[113.82006,31.021694],[113.815368,31.022479],[113.809197,31.023512],[113.80752,31.023773],[113.805984,31.02405],[113.804358,31.024446],[113.80286,31.024891],[113.802246,31.025104],[113.801694,31.025323],[113.801088,31.0256],[113.799987,31.02616],[113.79877,31.026845],[113.797623,31.027577],[113.796654,31.028299],[113.795749,31.029063],[113.794897,31.029867],[113.794151,31.030673],[113.793457,31.031518],[113.79264,31.032507],[113.786521,31.039666]]]}},{"type":"Feature","properties":{"c":"hsr350","n":"龙龙高速线","on":"赣瑞龙线","r":"hsr350","e":1},"geometry":{"type":"MultiLineString","coordinates":[[[117.000562,25.100028],[116.997367,25.100216],[116.994173,25.100404],[116.991036,25.100742],[116.988056,25.101334],[116.985131,25.102068],[116.982279,25.10273],[116.974826,25.103986],[116.95992,25.106499],[116.957119,25.106979],[116.954604,25.107428],[116.952427,25.107943],[116.95116,25.108361],[116.950059,25.108812],[116.948986,25.109311],[116.947939,25.109858],[116.946919,25.110453],[116.945794,25.111107],[116.939984,25.114377],[116.939165,25.114849],[116.938459,25.115235],[116.937702,25.1156],[116.936854,25.115963],[116.935223,25.116585],[116.933406,25.117195],[116.932245,25.11754],[116.931068,25.11785],[116.9298,25.11812],[116.928044,25.118394],[116.926154,25.118609],[116.924318,25.118763],[116.922117,25.118858],[116.91976,25.118865],[116.910316,25.118571],[116.905463,25.118687],[116.900668,25.119055],[116.897747,25.119346],[116.894512,25.119712],[116.891618,25.120153],[116.889974,25.120508],[116.888511,25.120902],[116.886957,25.121372],[116.883345,25.122616],[116.880056,25.12382],[116.878886,25.124247],[116.877861,25.124598],[116.876737,25.124921],[116.875598,25.125196],[116.874519,25.125392],[116.873281,25.125588],[116.866475,25.126741],[116.850214,25.129959],[116.829234,25.134653],[116.818079,25.137223],[116.807878,25.139769],[116.802071,25.141537],[116.797495,25.143035],[116.795785,25.143551],[116.794321,25.144034],[116.79279,25.14466],[116.791292,25.145352],[116.789911,25.146063],[116.788389,25.146884],[116.784974,25.148625],[116.78136,25.150594],[116.778706,25.15237],[116.776411,25.154014],[116.775135,25.154877],[116.773988,25.155689],[116.773402,25.156131],[116.772822,25.15658],[116.772262,25.157049],[116.771735,25.157548],[116.771239,25.158096],[116.770775,25.158676],[116.770335,25.159273],[116.76991,25.159873],[116.769127,25.16104],[116.768399,25.162275],[116.767601,25.163922],[116.766894,25.165499],[116.766495,25.166334],[116.766142,25.167111],[116.765904,25.167666],[116.76568,25.168233],[116.765485,25.168869],[116.765283,25.169902],[116.765137,25.171064],[116.765027,25.172253],[116.764948,25.17321],[116.764885,25.174192],[116.764862,25.175176],[116.764905,25.17614],[116.765027,25.177015],[116.765212,25.177855],[116.765432,25.178728],[116.765658,25.1797],[116.767164,25.186819]]]}}]}