{"type":"FeatureCollection","features":[{"type":"Feature","properties":{"c":"build","n":"High Speed 2","g":"uk","h":1,"nz":"2号高速铁路"},"geometry":{"type":"MultiLineString","coordinates":[[[-1.71961,52.5241],[-1.71995,52.52329],[-1.72025,52.5224],[-1.72051,52.52057],[-1.7207,52.51855]],[[-1.72776,52.50472],[-1.72662,52.50386],[-1.72548,52.50295],[-1.72417,52.5017],[-1.72293,52.5003],[-1.7217,52.49852],[-1.72073,52.49684],[-1.72035,52.49606],[-1.72006,52.49528],[-1.71967,52.4939],[-1.71933,52.49228],[-1.71858,52.487],[-1.71858,52.48698],[-1.71857,52.48696],[-1.71856,52.48694],[-1.71856,52.48692],[-1.71857,52.4869],[-1.71859,52.48689],[-1.71863,52.48688],[-1.71866,52.48688],[-1.7187,52.48688],[-1.71873,52.48688],[-1.7188,52.48687],[-1.71883,52.48686],[-1.71887,52.48686],[-1.7189,52.48685],[-1.71894,52.48684],[-1.71897,52.48684],[-1.71899,52.48686],[-1.71899,52.48688],[-1.71899,52.4869],[-1.71899,52.48693],[-1.719,52.48695],[-1.72086,52.49344],[-1.72125,52.4949],[-1.72167,52.49622],[-1.72231,52.49758],[-1.72307,52.49891],[-1.72391,52.50014],[-1.7248,52.50127],[-1.72545,52.50202],[-1.72617,52.50274],[-1.72739,52.50373],[-1.72862,52.50465],[-1.72924,52.50516],[-1.72984,52.50561],[-1.73055,52.50606],[-1.73139,52.50652],[-1.73302,52.50737],[-1.73492,52.50825],[-1.73706,52.50911],[-1.73933,52.50989],[-1.74162,52.5105],[-1.7441,52.51109],[-1.75218,52.51312],[-1.75477,52.51381],[-1.75725,52.5144],[-1.75896,52.51474],[-1.7607,52.51504],[-1.76255,52.51526],[-1.76487,52.51542],[-1.76732,52.51549],[-1.76973,52.51546],[-1.77197,52.5153],[-1.77416,52.51505],[-1.77627,52.51474],[-1.77891,52.51423],[-1.7817,52.51361],[-1.79257,52.51133],[-1.82701,52.50488],[-1.84455,52.50219],[-1.84658,52.5019],[-1.84824,52.50162],[-1.85005,52.50124],[-1.85178,52.50079],[-1.85323,52.50033],[-1.85461,52.49981],[-1.85605,52.4992],[-1.85743,52.49853],[-1.85867,52.49783],[-1.85982,52.49708],[-1.86082,52.49634],[-1.86173,52.49557],[-1.86249,52.49482],[-1.86316,52.49407],[-1.86352,52.49361],[-1.86383,52.49316],[-1.86408,52.49271],[-1.86421,52.49231],[-1.86428,52.4919],[-1.86435,52.49148],[-1.86474,52.48971],[-1.86481,52.48934],[-1.8649,52.489],[-1.86502,52.48867],[-1.86523,52.48831],[-1.86558,52.48787],[-1.86603,52.48738],[-1.86651,52.48693],[-1.86682,52.48668],[-1.86712,52.48645],[-1.86746,52.48622],[-1.86786,52.486],[-1.86851,52.4857],[-1.86927,52.48541],[-1.87007,52.48513],[-1.87086,52.48488],[-1.87221,52.48452],[-1.87369,52.48417],[-1.87643,52.48351],[-1.87935,52.48276],[-1.88181,52.48197],[-1.88426,52.48119],[-1.887,52.48051],[-1.8898,52.47987]],[[-1.79877,52.7121],[-1.80019,52.71289],[-1.80156,52.71368],[-1.80305,52.71446],[-1.80481,52.71524],[-1.80809,52.71632],[-1.81191,52.71743],[-1.81601,52.71856],[-1.82014,52.71969],[-1.8395,52.72451],[-1.8414,52.72497],[-1.84293,52.72537],[-1.8446,52.72587],[-1.84622,52.72641],[-1.84773,52.727],[-1.84921,52.72762]],[[-1.7183,52.55002],[-1.71841,52.55286],[-1.71867,52.55528],[-1.71919,52.55819],[-1.72085,52.56447],[-1.72293,52.57079],[-1.72421,52.57379],[-1.72562,52.57648],[-1.72735,52.57927],[-1.72928,52.58197],[-1.73128,52.58442],[-1.7334,52.58673],[-1.7354,52.58871],[-1.73751,52.5906],[-1.73962,52.5923],[-1.74217,52.59425],[-1.75907,52.60744],[-1.7641,52.61138],[-1.76883,52.61544],[-1.77221,52.61889],[-1.77512,52.62241],[-1.77764,52.62607],[-1.77951,52.62939],[-1.78086,52.63234],[-1.7824,52.63683],[-1.78294,52.6391],[-1.78356,52.64361],[-1.78361,52.64836],[-1.78298,52.67155],[-1.78285,52.67612],[-1.78332,52.68069],[-1.78455,52.6863],[-1.78578,52.69002],[-1.78694,52.69279],[-1.78962,52.69797],[-1.7965,52.70899],[-1.80503,52.7207]],[[-1.71862,52.5438],[-1.71956,52.52943],[-1.71958,52.52487],[-1.71976,52.52205],[-1.71979,52.52132],[-1.71986,52.52065],[-1.71998,52.52014],[-1.72015,52.51963],[-1.72039,52.51908],[-1.72086,52.51827],[-1.72145,52.5174],[-1.72209,52.5166],[-1.72264,52.51602],[-1.72322,52.51549],[-1.72387,52.51498],[-1.72469,52.51443],[-1.72558,52.5139],[-1.72647,52.51337]],[[-1.24889,52.12924],[-1.25368,52.13252],[-1.25941,52.13592],[-1.2655,52.13908],[-1.27393,52.14346],[-1.28087,52.14707],[-1.2841,52.14884],[-1.28753,52.15087],[-1.29369,52.15497],[-1.30106,52.16009],[-1.33211,52.18184],[-1.33682,52.18533],[-1.34132,52.18911],[-1.34555,52.1932],[-1.34953,52.19768],[-1.36323,52.21468],[-1.36672,52.219],[-1.37063,52.22318],[-1.37484,52.22707],[-1.38127,52.23215],[-1.3883,52.2368],[-1.39389,52.23999],[-1.3989,52.2426],[-1.40894,52.24784],[-1.4194,52.25413],[-1.42463,52.25766],[-1.42877,52.26091],[-1.4327,52.2639],[-1.43706,52.2674],[-1.44203,52.27201],[-1.44799,52.2778],[-1.49011,52.31784],[-1.49504,52.32252],[-1.50034,52.32704],[-1.50643,52.33147],[-1.51283,52.33574],[-1.52694,52.34513],[-1.53507,52.35054],[-1.53941,52.35317],[-1.54375,52.35562],[-1.54728,52.35743],[-1.55081,52.35909],[-1.5584,52.36227],[-1.5652,52.3647],[-1.5784,52.36897],[-1.58499,52.3711],[-1.59167,52.37369],[-1.59778,52.37641],[-1.63073,52.39203],[-1.63897,52.3962],[-1.64552,52.39988],[-1.65466,52.40531],[-1.65923,52.40802],[-1.66373,52.41095],[-1.66782,52.41391],[-1.67165,52.41699],[-1.67528,52.42026],[-1.67838,52.42338],[-1.68133,52.42673],[-1.68392,52.43018],[-1.70529,52.45869],[-1.70964,52.46448],[-1.71321,52.47047],[-1.71483,52.47413],[-1.71713,52.48087],[-1.71845,52.48577],[-1.71859,52.48627],[-1.71869,52.48667],[-1.7187,52.48713],[-1.71869,52.48759]],[[-1.21311,52.09941],[-1.24411,52.1256]],[[-0.86649,51.82597],[-0.88184,51.8368],[-0.88584,51.83937],[-0.88962,51.84161],[-0.8937,51.84378],[-0.8978,51.84582],[-0.90499,51.84908],[-0.91217,51.85234],[-0.91579,51.85394],[-0.91936,51.8556],[-0.92285,51.85743],[-0.92622,51.85936],[-0.9325,51.86336],[-0.93737,51.86694],[-0.94968,51.87679],[-0.97909,51.89844],[-0.98535,51.90304],[-0.99103,51.90792],[-0.99912,51.91574],[-1.00317,51.91965],[-1.00791,51.92346],[-1.01121,51.92575],[-1.01286,51.9269],[-1.0138,51.92753],[-1.01481,51.92813],[-1.01576,51.92859],[-1.01704,51.92918],[-1.04522,51.9424],[-1.05072,51.94516],[-1.05917,51.95008],[-1.06259,51.95233],[-1.06814,51.95639],[-1.07239,51.96008],[-1.07651,51.96418],[-1.08003,51.96824],[-1.08323,51.97256],[-1.08604,51.97698],[-1.10471,52.00634],[-1.11434,52.026],[-1.11706,52.03083],[-1.11892,52.03363],[-1.12113,52.03658],[-1.1245,52.04046],[-1.12818,52.04427],[-1.13128,52.0471],[-1.13449,52.04973],[-1.13791,52.05229],[-1.14151,52.05476],[-1.14915,52.05944],[-1.188,52.08326]],[[-0.6922,51.70914],[-0.70143,51.71572],[-0.70801,51.72131],[-0.71099,51.72426],[-0.71373,51.72729],[-0.72153,51.73613],[-0.73039,51.74573],[-0.73445,51.74941],[-0.73789,51.75234],[-0.73972,51.75399],[-0.74145,51.75547],[-0.74336,51.75688],[-0.74554,51.75835],[-0.74938,51.76077],[-0.75371,51.76329],[-0.75825,51.76566],[-0.76299,51.7679],[-0.76759,51.76982],[-0.77295,51.77193],[-0.80297,51.78405],[-0.80909,51.78652],[-0.81502,51.78917],[-0.82111,51.79228],[-0.82303,51.79333],[-0.82477,51.79436],[-0.82632,51.79543],[-0.82805,51.79668],[-0.83279,51.79994],[-0.83823,51.80388],[-0.8441,51.80893],[-0.84979,51.81388],[-0.85808,51.82002]],[[-0.13517,51.52714],[-0.13622,51.52822],[-0.13727,51.5293],[-0.13843,51.53033],[-0.13982,51.53124],[-0.14132,51.5321],[-0.14261,51.53294],[-0.14332,51.53362],[-0.1439,51.5343],[-0.14457,51.535],[-0.14634,51.53647],[-0.14811,51.53785],[-0.14988,51.53928],[-0.15096,51.54007],[-0.15213,51.54082],[-0.153,51.54129],[-0.15391,51.54173],[-0.15485,51.54214],[-0.15579,51.54249],[-0.15675,51.5428],[-0.15774,51.54308],[-0.15879,51.54332],[-0.15986,51.54353],[-0.16093,51.5437],[-0.16193,51.54382],[-0.16293,51.54391],[-0.16398,51.54395],[-0.16526,51.54396],[-0.1666,51.54392],[-0.16792,51.54382],[-0.1692,51.54366],[-0.17047,51.54345],[-0.1717,51.54318],[-0.17277,51.54288],[-0.17382,51.54252],[-0.17517,51.54206],[-0.19442,51.53583],[-0.22147,51.52852],[-0.2253,51.52742],[-0.22862,51.52658],[-0.23219,51.52593],[-0.23619,51.52544],[-0.24407,51.52493],[-0.25207,51.52463],[-0.2605,51.52456],[-0.26223,51.52458],[-0.2638,51.52462],[-0.26541,51.52472],[-0.26727,51.52496],[-0.26917,51.52528],[-0.27105,51.52564],[-0.27657,51.52683],[-0.29174,51.53012],[-0.29862,51.53121],[-0.30535,51.53233],[-0.31131,51.53378],[-0.31835,51.53565],[-0.3755,51.5502],[-0.38146,51.55172],[-0.38731,51.55341],[-0.393,51.55529],[-0.43131,51.56789],[-0.43555,51.56932],[-0.4391,51.57045],[-0.44301,51.57153],[-0.44725,51.57255],[-0.45422,51.57389],[-0.46093,51.57511],[-0.46675,51.5764],[-0.47271,51.57799],[-0.47761,51.57962],[-0.48346,51.58194],[-0.48576,51.58299],[-0.48801,51.58411],[-0.49093,51.58572],[-0.49363,51.58732],[-0.49643,51.58919],[-0.50219,51.59374],[-0.50827,51.59937],[-0.51131,51.60218],[-0.51295,51.60361],[-0.51468,51.60501],[-0.51645,51.60627],[-0.51844,51.60763],[-0.52638,51.61315]]]}},{"type":"Feature","properties":{"c":"build","n":"Mid-Norfolk Railway","g":"uk"},"geometry":{"type":"LineString","coordinates":[[0.94761,52.76687],[0.95111,52.75597],[0.95155,52.75467],[0.95188,52.75357],[0.95212,52.75238],[0.95228,52.75114],[0.95237,52.74802]]}},{"type":"Feature","properties":{"c":"build","n":"Midland Metro","g":"uk","nz":"西米德兰地铁"},"geometry":{"type":"LineString","coordinates":[[-2.08158,52.50719],[-2.08127,52.50674],[-2.0815,52.50629],[-2.08161,52.50602],[-2.08173,52.50571],[-2.08194,52.5054],[-2.08226,52.50509],[-2.08268,52.50478],[-2.08315,52.50446],[-2.08365,52.50413],[-2.08521,52.50317],[-2.08688,52.50225],[-2.08749,52.50194],[-2.08808,52.50167],[-2.08869,52.50141],[-2.08939,52.50117],[-2.0905,52.50087],[-2.09176,52.5006],[-2.09303,52.50036],[-2.09414,52.50013],[-2.09538,52.49988],[-2.09651,52.49962],[-2.09735,52.4994],[-2.09818,52.49916],[-2.09895,52.49889],[-2.09956,52.49863],[-2.10012,52.49835],[-2.10065,52.49806],[-2.10135,52.4976],[-2.10208,52.49709],[-2.10296,52.49648],[-2.10394,52.49579],[-2.10495,52.49516],[-2.10593,52.49466],[-2.10693,52.49421],[-2.1078,52.49382],[-2.10842,52.49354],[-2.10895,52.49327],[-2.10948,52.49295],[-2.10988,52.49258],[-2.11,52.49216],[-2.11004,52.49169],[-2.11027,52.49041],[-2.11036,52.4899],[-2.10992,52.48946],[-2.1102,52.48908],[-2.11081,52.4889],[-2.11275,52.48834],[-2.11283,52.48832],[-2.11291,52.4883],[-2.113,52.48828],[-2.11307,52.48826],[-2.11313,52.48823],[-2.11314,52.48818],[-2.11311,52.48813],[-2.11308,52.48808],[-2.11305,52.48803],[-2.11303,52.48798],[-2.11287,52.48771],[-2.11261,52.48724],[-2.11238,52.48671],[-2.11234,52.48626],[-2.1125,52.48598],[-2.11279,52.48574],[-2.11312,52.48549],[-2.11341,52.48518],[-2.11374,52.48453],[-2.11402,52.48374],[-2.11435,52.48295],[-2.11482,52.48231],[-2.11534,52.48194],[-2.11592,52.48162],[-2.11654,52.48135],[-2.11718,52.48115],[-2.11787,52.48107],[-2.11861,52.48109],[-2.11938,52.48115],[-2.12013,52.48118]]}},{"type":"Feature","properties":{"c":"build","n":"Rother Valley Railway","g":"uk"},"geometry":{"type":"LineString","coordinates":[[0.47509,50.98928],[0.4758,50.9894],[0.4765,50.98954],[0.47721,50.98966],[0.47792,50.98974],[0.47859,50.98976],[0.47923,50.98974],[0.47994,50.9897],[0.48085,50.98967],[0.49796,50.98926],[0.4987,50.98925],[0.49923,50.98924],[0.49976,50.98921],[0.50035,50.98915],[0.50095,50.98907],[0.50151,50.98896],[0.50197,50.98885],[0.5024,50.98871],[0.50288,50.98857],[0.50351,50.98837],[0.50421,50.98815],[0.50494,50.98793],[0.50563,50.98778],[0.50617,50.9877],[0.5067,50.98766],[0.50722,50.98764],[0.50774,50.98764],[0.50841,50.98768],[0.50907,50.98775],[0.50985,50.98783],[0.51101,50.9879],[0.51236,50.98797],[0.51381,50.98809],[0.51525,50.98831],[0.517,50.98877],[0.51881,50.98939],[0.52063,50.99007],[0.52245,50.99072]]}}]}