{"type":"FeatureCollection","features":[{"type":"Feature","properties":{"n":"Eastleigh Train and Rolling Stock Maintenance Depot","g":"uk","from":"ground"},"geometry":{"type":"Point","coordinates":[-1.34827,50.96133]}},{"type":"Feature","properties":{"n":"Daventry International Rail Freight Terminal (DIRFT)","g":"uk","from":"ground"},"geometry":{"type":"Point","coordinates":[-1.17565,52.3581]}},{"type":"Feature","properties":{"n":"Doncaster Carr rail depot","g":"uk","from":"ground"},"geometry":{"type":"Point","coordinates":[-1.13441,53.50945]}},{"type":"Feature","properties":{"n":"Freightliner Leeds Terminal","g":"uk","from":"ground"},"geometry":{"type":"Point","coordinates":[-1.50878,53.76876]}},{"type":"Feature","properties":{"n":"Birmingham Intermodal Freight Terminal","g":"uk","from":"ground"},"geometry":{"type":"Point","coordinates":[-1.63215,52.59142]}},{"type":"Feature","properties":{"n":"Liverpool Terminal","g":"uk","from":"ground"},"geometry":{"type":"Point","coordinates":[-2.90186,53.35321]}},{"type":"Feature","properties":{"n":"Reading Train Care Depot","g":"uk","from":"ground"},"geometry":{"type":"Point","coordinates":[-0.99758,51.46234]}},{"type":"Feature","properties":{"n":"Ely Asphalt & Rail Depot","g":"uk","from":"ground"},"geometry":{"type":"Point","coordinates":[0.29486,52.40272]}},{"type":"Feature","properties":{"n":"Queens Road Metrolink Depot","g":"uk","from":"ground"},"geometry":{"type":"Point","coordinates":[-2.22711,53.49947]}},{"type":"Feature","properties":{"n":"Field Sidings","g":"uk","from":"ground"},"geometry":{"type":"Point","coordinates":[-0.08364,51.38891]}},{"type":"Feature","properties":{"n":"Tram Depot","g":"uk","from":"ground"},"geometry":{"type":"Point","coordinates":[-1.17725,52.97399]}},{"type":"Feature","properties":{"n":"North Pole Train Maintenance Centre","g":"uk","from":"ground"},"geometry":{"type":"Point","coordinates":[-0.24341,51.52388]}},{"type":"Feature","properties":{"n":"Stratford Market Depot","g":"uk","from":"ground"},"geometry":{"type":"Point","coordinates":[0.00124,51.53337]}},{"type":"Feature","properties":{"n":"Tunstead Works","g":"uk","from":"ground"},"geometry":{"type":"Point","coordinates":[-1.84855,53.26194]}},{"type":"Feature","properties":{"n":"Strawberry Hill Depot","g":"uk","from":"ground"},"geometry":{"type":"Point","coordinates":[-0.34049,51.43583]}},{"type":"Feature","properties":{"n":"Ashford Train Depot","g":"uk","from":"ground"},"geometry":{"type":"Point","coordinates":[0.88376,51.14088]}},{"type":"Feature","properties":{"n":"Ryde St John's Road Depot","g":"uk","from":"ground"},"geometry":{"type":"Point","coordinates":[-1.1571,50.72373]}},{"type":"Feature","properties":{"n":"Ruislip Depot","g":"uk","from":"ground"},"geometry":{"type":"Point","coordinates":[-0.42526,51.56472]}},{"type":"Feature","properties":{"n":"Cardiff Canton Traction Maintenance Depot","g":"uk","from":"ground"},"geometry":{"type":"Point","coordinates":[-3.19457,51.47477]}},{"type":"Feature","properties":{"n":"Millerhill Depot","g":"uk","from":"ground"},"geometry":{"type":"Point","coordinates":[-3.08046,55.92344]}},{"type":"Feature","properties":{"n":"Parry People Mover Depot","g":"uk","from":"object"},"geometry":{"type":"Point","coordinates":[-2.13432,52.44634]}},{"type":"Feature","properties":{"n":"Craigentinny Service Delivery Depot","g":"uk","from":"ground"},"geometry":{"type":"Point","coordinates":[-3.1279,55.95302]}},{"type":"Feature","properties":{"n":"Central Rivers Railway Depot","g":"uk","from":"ground"},"geometry":{"type":"Point","coordinates":[-1.70443,52.75439]}},{"type":"Feature","properties":{"n":"Reading Triangle Sidings","g":"uk","from":"ground"},"geometry":{"type":"Point","coordinates":[-0.98712,51.45836]}},{"type":"Feature","properties":{"n":"Exeter DMU Depot","g":"uk","from":"ground"},"geometry":{"type":"Point","coordinates":[-3.54453,50.72969]}},{"type":"Feature","properties":{"n":"Shapfell Lime works","g":"uk","from":"ground"},"geometry":{"type":"Point","coordinates":[-2.66342,54.51424]}},{"type":"Feature","properties":{"n":"Lover's Walk Depot","g":"uk","from":"ground"},"geometry":{"type":"Point","coordinates":[-0.14303,50.83204]}},{"type":"Feature","properties":{"n":"Lover's Walk Depot","g":"uk","from":"ground"},"geometry":{"type":"Point","coordinates":[-0.14539,50.83459]}},{"type":"Feature","properties":{"n":"Hither Green Traction Maintenance Depot","g":"uk","from":"ground"},"geometry":{"type":"Point","coordinates":[0.00347,51.44913]}},{"type":"Feature","properties":{"n":"Hammersmith Sidings","g":"uk","from":"ground"},"geometry":{"type":"Point","coordinates":[-0.22513,51.49581]}},{"type":"Feature","properties":{"n":"Shields Depot","g":"uk","from":"ground"},"geometry":{"type":"Point","coordinates":[-4.28728,55.84716]}},{"type":"Feature","properties":{"n":"Corkerhill Depot","g":"uk","from":"ground"},"geometry":{"type":"Point","coordinates":[-4.32316,55.83686]}},{"type":"Feature","properties":{"n":"Gemini Wolverton Works","g":"uk","from":"ground"},"geometry":{"type":"Point","coordinates":[-0.81725,52.06356]}},{"type":"Feature","properties":{"n":"Bescot Rail Depot","g":"uk","from":"ground"},"geometry":{"type":"Point","coordinates":[-1.98478,52.55929]}},{"type":"Feature","properties":{"n":"Coldhams Lane TMD","g":"uk","from":"ground"},"geometry":{"type":"Point","coordinates":[0.14637,52.20567]}},{"type":"Feature","properties":{"n":"Toton Sidings","g":"uk","from":"ground"},"geometry":{"type":"Point","coordinates":[-1.278,52.91363]}},{"type":"Feature","properties":{"n":"Golders Green Depot","g":"uk","from":"ground"},"geometry":{"type":"Point","coordinates":[-0.19218,51.57279]}},{"type":"Feature","properties":{"n":"Hams Hall Rail Freight Terminal","g":"uk","from":"ground"},"geometry":{"type":"Point","coordinates":[-1.70294,52.51722]}},{"type":"Feature","properties":{"n":"Temple Mills Depot","g":"uk","from":"ground"},"geometry":{"type":"Point","coordinates":[-0.02108,51.55944]}},{"type":"Feature","properties":{"n":"Poplar Depot Docklands Light Railway","g":"uk","from":"ground"},"geometry":{"type":"Point","coordinates":[-0.01414,51.50774]}},{"type":"Feature","properties":{"n":"Falkland Yard","g":"uk","from":"ground"},"geometry":{"type":"Point","coordinates":[-4.62663,55.47692]}},{"type":"Feature","properties":{"n":"Grosvenor Road Depot","g":"uk","from":"ground"},"geometry":{"type":"Point","coordinates":[-0.14712,51.48769]}},{"type":"Feature","properties":{"n":"Trostre Steelworks","g":"uk","from":"ground"},"geometry":{"type":"Point","coordinates":[-4.12451,51.67207]}},{"type":"Feature","properties":{"n":"Kingsbury Oil Terminal","g":"uk","from":"ground"},"geometry":{"type":"Point","coordinates":[-1.67384,52.57591]}},{"type":"Feature","properties":{"n":"Tees Marshalling Yard","g":"uk","from":"ground"},"geometry":{"type":"Point","coordinates":[-1.27578,54.56355]}},{"type":"Feature","properties":{"n":"Freightliner Birmingham","g":"uk","from":"ground"},"geometry":{"type":"Point","coordinates":[-1.86806,52.48441]}},{"type":"Feature","properties":{"n":"Nottingham Eastcroft Light Maintainance Depot (EMR)","g":"uk","from":"ground"},"geometry":{"type":"Point","coordinates":[-1.13597,52.94731]}},{"type":"Feature","properties":{"n":"Peak Rail","g":"uk","from":"ground"},"geometry":{"type":"Point","coordinates":[-1.60972,53.17322]}},{"type":"Feature","properties":{"n":"Rugby Intermodal Terminal","g":"uk","from":"ground"},"geometry":{"type":"Point","coordinates":[-1.26126,52.38093]}},{"type":"Feature","properties":{"n":"Inverness Depot","g":"uk","from":"ground"},"geometry":{"type":"Point","coordinates":[-4.21925,57.48206]}},{"type":"Feature","properties":{"n":"London Road Depot","g":"uk","from":"ground"},"geometry":{"type":"Point","coordinates":[-0.10581,51.49765]}},{"type":"Feature","properties":{"n":"Neilson's Sidings","g":"uk","from":"ground"},"geometry":{"type":"Point","coordinates":[-0.67649,52.31889]}},{"type":"Feature","properties":{"n":"Cheddleton MPD","g":"uk","from":"object"},"geometry":{"type":"Point","coordinates":[-2.02628,53.06447]}},{"type":"Feature","properties":{"n":"Taffs Well Depot","g":"uk","from":"ground"},"geometry":{"type":"Point","coordinates":[-3.26269,51.54142]}},{"type":"Feature","properties":{"n":"1861 Shed","g":"uk","from":"object"},"geometry":{"type":"Point","coordinates":[-1.55916,54.53937]}},{"type":"Feature","properties":{"n":"Axiom Rail","g":"uk","from":"ground"},"geometry":{"type":"Point","coordinates":[-2.17981,52.99189]}},{"type":"Feature","properties":{"n":"Sheffield Park Station and Loco Works","g":"uk","from":"ground"},"geometry":{"type":"Point","coordinates":[-0.00022,50.99405]}},{"type":"Feature","properties":{"n":"Knottingley TMD","g":"uk","from":"ground"},"geometry":{"type":"Point","coordinates":[-1.25281,53.70619]}},{"type":"Feature","properties":{"n":"Trafford Metrolink Depot","g":"uk","from":"ground"},"geometry":{"type":"Point","coordinates":[-2.28131,53.45761]}},{"type":"Feature","properties":{"n":"Farnham Traincare Depot","g":"uk","from":"ground"},"geometry":{"type":"Point","coordinates":[-0.81219,51.20438]}},{"type":"Feature","properties":{"n":"Yoker Signalling Yard","g":"uk","from":"ground"},"geometry":{"type":"Point","coordinates":[-4.37577,55.88978]}},{"type":"Feature","properties":{"n":"Polmadie Carriage Servicing & Maintenance Depot","g":"uk","from":"ground"},"geometry":{"type":"Point","coordinates":[-4.23605,55.83474]}},{"type":"Feature","properties":{"n":"Shoeburyness Carriage Sidings Depot","g":"uk","from":"ground"},"geometry":{"type":"Point","coordinates":[0.78901,51.53286]}},{"type":"Feature","properties":{"n":"West Carriage Shed","g":"uk","from":"object"},"geometry":{"type":"Point","coordinates":[-4.08227,52.58654]}},{"type":"Feature","properties":{"n":"Dollands Moor Freight Yard","g":"uk","from":"ground"},"geometry":{"type":"Point","coordinates":[1.09921,51.09164]}},{"type":"Feature","properties":{"n":"Minffordd yard (FR)","g":"uk","from":"ground"},"geometry":{"type":"Point","coordinates":[-4.08706,52.92657]}},{"type":"Feature","properties":{"n":"Bridgnorth Motive Power Depot","g":"uk","from":"object"},"geometry":{"type":"Point","coordinates":[-2.42151,52.53121]}},{"type":"Feature","properties":{"n":"Wentloog Freightliner Terminal","g":"uk","from":"ground"},"geometry":{"type":"Point","coordinates":[-3.09315,51.51358]}},{"type":"Feature","properties":{"n":"Eastfield Depot","g":"uk","from":"ground"},"geometry":{"type":"Point","coordinates":[-4.23984,55.89086]}},{"type":"Feature","properties":{"n":"Whitemoor Yard","g":"uk","from":"ground"},"geometry":{"type":"Point","coordinates":[0.08534,52.56902]}},{"type":"Feature","properties":{"n":"Stansted Airport Transit System Depot","g":"uk","from":"object"},"geometry":{"type":"Point","coordinates":[0.26314,51.89227]}},{"type":"Feature","properties":{"n":"Dingwall Maintenance Delivery Unit","g":"uk","from":"object"},"geometry":{"type":"Point","coordinates":[-4.42178,57.59421]}},{"type":"Feature","properties":{"n":"Neville Hill Train Depot","g":"uk","from":"ground"},"geometry":{"type":"Point","coordinates":[-1.50424,53.79205]}},{"type":"Feature","properties":{"n":"Morden Depot","g":"uk","from":"ground"},"geometry":{"type":"Point","coordinates":[-0.19753,51.3972]}},{"type":"Feature","properties":{"n":"Beckton Depot Docklands Light Railway","g":"uk","from":"ground"},"geometry":{"type":"Point","coordinates":[0.07605,51.51205]}},{"type":"Feature","properties":{"n":"Streatham Hill Depot","g":"uk","from":"ground"},"geometry":{"type":"Point","coordinates":[-0.13486,51.43968]}},{"type":"Feature","properties":{"n":"Cowlairs Maintenance Delivery Unit","g":"uk","from":"ground"},"geometry":{"type":"Point","coordinates":[-4.23935,55.88602]}},{"type":"Feature","properties":{"n":"Northumberland Park Depot","g":"uk","from":"ground"},"geometry":{"type":"Point","coordinates":[-0.0538,51.59886]}},{"type":"Feature","properties":{"n":"Alstom Traincare","g":"uk","from":"ground"},"geometry":{"type":"Point","coordinates":[-2.1377,52.60569]}},{"type":"Feature","properties":{"n":"Boston Lodge Works","g":"uk","from":"ground"},"geometry":{"type":"Point","coordinates":[-4.10693,52.91922]}},{"type":"Feature","properties":{"n":"Cadder Depot","g":"uk","from":"ground"},"geometry":{"type":"Point","coordinates":[-4.18341,55.91457]}},{"type":"Feature","properties":{"n":"Llanelli Depot","g":"uk","from":"ground"},"geometry":{"type":"Point","coordinates":[-4.15119,51.6726]}},{"type":"Feature","properties":{"n":"Gogar Tram Depot","g":"uk","from":"ground"},"geometry":{"type":"Point","coordinates":[-3.32601,55.94026]}},{"type":"Feature","properties":{"n":"Fairwater Freight Yard","g":"uk","from":"ground"},"geometry":{"type":"Point","coordinates":[-3.12348,51.02467]}},{"type":"Feature","properties":{"n":"Network Rail Bristol Parkway Depot","g":"uk","from":"object"},"geometry":{"type":"Point","coordinates":[-2.53653,51.51416]}},{"type":"Feature","properties":{"n":"Shettleston Rail Plant Depot","g":"uk","from":"object"},"geometry":{"type":"Point","coordinates":[-4.15709,55.85303]}},{"type":"Feature","properties":{"n":"Neville Hill Up Sidings","g":"uk","from":"ground"},"geometry":{"type":"Point","coordinates":[-1.50428,53.79132]}},{"type":"Feature","properties":{"n":"Engineers Sidings","g":"uk","from":"ground"},"geometry":{"type":"Point","coordinates":[-5.07053,57.58014]}},{"type":"Feature","properties":{"n":"Beeston Sidings","g":"uk","from":"ground"},"geometry":{"type":"Point","coordinates":[-1.19294,52.93007]}},{"type":"Feature","properties":{"n":"Theale Cement Depot","g":"uk","from":"ground"},"geometry":{"type":"Point","coordinates":[-1.08702,51.42993]}},{"type":"Feature","properties":{"n":"Selhurst Depot","g":"uk","from":"ground"},"geometry":{"type":"Point","coordinates":[-0.08289,51.39101]}},{"type":"Feature","properties":{"n":"White City Depot","g":"uk","from":"ground"},"geometry":{"type":"Point","coordinates":[-0.22351,51.50721]}},{"type":"Feature","properties":{"n":"Gillingham EMU Depot","g":"uk","from":"ground"},"geometry":{"type":"Point","coordinates":[0.56205,51.38583]}},{"type":"Feature","properties":{"n":"Woking Up Yard","g":"uk","from":"ground"},"geometry":{"type":"Point","coordinates":[-0.56721,51.31496]}},{"type":"Feature","properties":{"n":"March Down Yard","g":"uk","from":"ground"},"geometry":{"type":"Point","coordinates":[0.09817,52.55837]}},{"type":"Feature","properties":{"n":"March Up Yard","g":"uk","from":"ground"},"geometry":{"type":"Point","coordinates":[0.09666,52.5588]}},{"type":"Feature","properties":{"n":"Bletchley Train Maintenance Depot","g":"uk","from":"ground"},"geometry":{"type":"Point","coordinates":[-0.73764,52.00061]}},{"type":"Feature","properties":{"n":"York Leeman Road depot","g":"uk","from":"object"},"geometry":{"type":"Point","coordinates":[-1.09972,53.96202]}},{"type":"Feature","properties":{"n":"Wimbledon Traincare Depot","g":"uk","from":"ground"},"geometry":{"type":"Point","coordinates":[-0.19492,51.43384]}},{"type":"Feature","properties":{"n":"Network Rail Worcester Depot","g":"uk","from":"object"},"geometry":{"type":"Point","coordinates":[-2.20918,52.19648]}},{"type":"Feature","properties":{"n":"Bathgate Depot","g":"uk","from":"ground"},"geometry":{"type":"Point","coordinates":[-3.63479,55.89634]}},{"type":"Feature","properties":{"n":"Georgemas Junction Freight Terminal","g":"uk","from":"ground"},"geometry":{"type":"Point","coordinates":[-3.45292,58.51315]}},{"type":"Feature","properties":{"n":"Georgemas Junction Civil Engineer's Siding","g":"uk","from":"ground"},"geometry":{"type":"Point","coordinates":[-3.4483,58.51392]}},{"type":"Feature","properties":{"n":"Bow Goods Yard East","g":"uk","from":"object"},"geometry":{"type":"Point","coordinates":[-0.01747,51.53481]}},{"type":"Feature","properties":{"n":"Plumstead Train Maintenance Depot","g":"uk","from":"ground"},"geometry":{"type":"Point","coordinates":[0.09898,51.49197]}},{"type":"Feature","properties":{"n":"Penzance TMD","g":"uk","from":"ground"},"geometry":{"type":"Point","coordinates":[-5.5061,50.12819]}},{"type":"Feature","properties":{"n":"Swithland Sidings","g":"uk","from":"ground"},"geometry":{"type":"Point","coordinates":[-1.16585,52.71318]}},{"type":"Feature","properties":{"n":"New Cross Station Maintenance Yard","g":"uk","from":"object"},"geometry":{"type":"Point","coordinates":[-0.03258,51.47706]}},{"type":"Feature","properties":{"n":"Marshalling Yard","g":"uk","from":"object"},"geometry":{"type":"Point","coordinates":[-0.31802,51.06943]}},{"type":"Feature","properties":{"n":"Bulk Rail Terminal","g":"uk","from":"ground"},"geometry":{"type":"Point","coordinates":[-2.70175,51.51194]}},{"type":"Feature","properties":{"n":"York Road Engineering Depot","g":"uk","from":"ground"},"geometry":{"type":"Point","coordinates":[-5.92195,54.61359]}},{"type":"Feature","properties":{"n":"Fortwilliam Maintenance Depot","g":"uk","from":"ground"},"geometry":{"type":"Point","coordinates":[-5.92067,54.62376]}},{"type":"Feature","properties":{"n":"Adelaide Train Maintenance Depot","g":"uk","from":"ground"},"geometry":{"type":"Point","coordinates":[-5.95712,54.57641]}},{"type":"Feature","properties":{"n":"Portadown Yard","g":"uk","from":"ground"},"geometry":{"type":"Point","coordinates":[-6.43685,54.43046]}},{"type":"Feature","properties":{"n":"Portadown Sidings","g":"uk","from":"ground"},"geometry":{"type":"Point","coordinates":[-6.44839,54.42331]}},{"type":"Feature","properties":{"n":"Shrewsbury Traction Maintenance Depot","g":"uk","from":"ground"},"geometry":{"type":"Point","coordinates":[-2.74293,52.70348]}},{"type":"Feature","properties":{"n":"Shrewsbury Coleham Depot","g":"uk","from":"ground"},"geometry":{"type":"Point","coordinates":[-2.7434,52.70262]}},{"type":"Feature","properties":{"n":"Abbey Foregate Yard","g":"uk","from":"ground"},"geometry":{"type":"Point","coordinates":[-2.74524,52.70987]}},{"type":"Feature","properties":{"n":"Dalmeny Yard","g":"uk","from":"ground"},"geometry":{"type":"Point","coordinates":[-3.38052,55.9854]}},{"type":"Feature","properties":{"n":"Margam Depot","g":"uk","from":"ground"},"geometry":{"type":"Point","coordinates":[-3.74306,51.53912]}},{"type":"Feature","properties":{"n":"Margam Knuckle Yard","g":"uk","from":"ground"},"geometry":{"type":"Point","coordinates":[-3.74931,51.55189]}},{"type":"Feature","properties":{"n":"Network Rail Yard","g":"uk","from":"ground"},"geometry":{"type":"Point","coordinates":[0.47951,51.73967]}},{"type":"Feature","properties":{"n":"Asfordby Depot","g":"uk","from":"ground"},"geometry":{"type":"Point","coordinates":[-0.92637,52.77424]}},{"type":"Feature","properties":{"n":"Great Western Electrification Depot","g":"uk","from":"object"},"geometry":{"type":"Point","coordinates":[-1.21237,51.60162]}},{"type":"Feature","properties":{"n":"Locomotive shed","g":"uk","from":"object"},"geometry":{"type":"Point","coordinates":[-3.46891,51.20694]}},{"type":"Feature","properties":{"n":"WSRHT Carriage Works","g":"uk","from":"object"},"geometry":{"type":"Point","coordinates":[-3.36914,51.16164]}},{"type":"Feature","properties":{"n":"Hylton Street Yard","g":"uk","from":"ground"},"geometry":{"type":"Point","coordinates":[-1.45456,55.00462]}},{"type":"Feature","properties":{"n":"Kings Heath Depot","g":"uk","from":"ground"},"geometry":{"type":"Point","coordinates":[-0.90876,52.24783]}},{"type":"Feature","properties":{"n":"Hornsey Traincare Facility","g":"uk","from":"ground"},"geometry":{"type":"Point","coordinates":[-0.11454,51.59162]}},{"type":"Feature","properties":{"n":"Hampton & Kempton Waterworks Railway","g":"uk","from":"ground"},"geometry":{"type":"Point","coordinates":[-0.40766,51.42606]}},{"type":"Feature","properties":{"n":"Railway Sidings","g":"uk","from":"object"},"geometry":{"type":"Point","coordinates":[-2.59776,54.42754]}},{"type":"Feature","properties":{"n":"Purfleet Thames Terminal","g":"uk","from":"ground"},"geometry":{"type":"Point","coordinates":[0.25454,51.47401]}},{"type":"Feature","properties":{"n":"Tyne Yard","g":"uk","from":"ground"},"geometry":{"type":"Point","coordinates":[-1.60055,54.91339]}},{"type":"Feature","properties":{"n":"Light Maintenance Station","g":"uk","from":"ground"},"geometry":{"type":"Point","coordinates":[-1.3209,52.05601]}},{"type":"Feature","properties":{"n":"Stoke Gifford Depot","g":"uk","from":"ground"},"geometry":{"type":"Point","coordinates":[-2.55582,51.51709]}},{"type":"Feature","properties":{"n":"Willesden Traction Maintenance Depot","g":"uk","from":"ground"},"geometry":{"type":"Point","coordinates":[-0.2403,51.531]}},{"type":"Feature","properties":{"n":"Wembley Depot","g":"uk","from":"ground"},"geometry":{"type":"Point","coordinates":[-0.28309,51.54526]}},{"type":"Feature","properties":{"n":"Stonebridge Park Depot","g":"uk","from":"ground"},"geometry":{"type":"Point","coordinates":[-0.28543,51.54766]}},{"type":"Feature","properties":{"n":"Neasden Depot","g":"uk","from":"ground"},"geometry":{"type":"Point","coordinates":[-0.25868,51.5576]}},{"type":"Feature","properties":{"n":"Ferryhill Engine Shed","g":"uk","from":"object"},"geometry":{"type":"Point","coordinates":[-2.09856,57.13199]}},{"type":"Feature","properties":{"n":"Tain Civil Engineer's Sidings","g":"uk","from":"ground"},"geometry":{"type":"Point","coordinates":[-4.05414,57.81493]}},{"type":"Feature","properties":{"n":"Ardgay Civil Engineer's Sidings","g":"uk","from":"ground"},"geometry":{"type":"Point","coordinates":[-4.36071,57.87993]}},{"type":"Feature","properties":{"n":"Lairg Civil Engineer's Sidings","g":"uk","from":"ground"},"geometry":{"type":"Point","coordinates":[-4.39979,58.00138]}},{"type":"Feature","properties":{"n":"Carriage Display","g":"uk","from":"object"},"geometry":{"type":"Point","coordinates":[-1.24589,51.61555]}},{"type":"Feature","properties":{"n":"Old Oak Common Depot","g":"uk","from":"ground"},"geometry":{"type":"Point","coordinates":[-0.24566,51.52624]}},{"type":"Feature","properties":{"n":"Raiths Farm Freight Terminal","g":"uk","from":"ground"},"geometry":{"type":"Point","coordinates":[-2.20119,57.21574]}},{"type":"Feature","properties":{"n":"Kimberley Ballast Pit Sidings","g":"uk","from":"ground"},"geometry":{"type":"Point","coordinates":[1.04638,52.59352]}},{"type":"Feature","properties":{"n":"New Cross Gate Depot","g":"uk","from":"ground"},"geometry":{"type":"Point","coordinates":[-0.04317,51.48103]}},{"type":"Feature","properties":{"n":"Benny Halt Engine Shed","g":"uk","from":"object"},"geometry":{"type":"Point","coordinates":[-5.04119,50.37544]}},{"type":"Feature","properties":{"n":"Walton Old Junction Sidings","g":"uk","from":"ground"},"geometry":{"type":"Point","coordinates":[-2.60916,53.37108]}},{"type":"Feature","properties":{"n":"Carlisle Kingmoor TMD","g":"uk","from":"ground"},"geometry":{"type":"Point","coordinates":[-2.95971,54.90813]}},{"type":"Feature","properties":{"n":"Kingmoor Marshalling Yard","g":"uk","from":"ground"},"geometry":{"type":"Point","coordinates":[-2.97543,54.92696]}},{"type":"Feature","properties":{"n":"Silwood Triangle Sidings","g":"uk","from":"ground"},"geometry":{"type":"Point","coordinates":[-0.0454,51.48733]}},{"type":"Feature","properties":{"n":"Crofton Train Maintenance Depot","g":"uk","from":"ground"},"geometry":{"type":"Point","coordinates":[-1.44538,53.66671]}},{"type":"Feature","properties":{"n":"Skipton Broughton Carriage Sidings","g":"uk","from":"ground"},"geometry":{"type":"Point","coordinates":[-2.033,53.95778]}},{"type":"Feature","properties":{"n":"Network Rail Maintenance Site","g":"uk","from":"object"},"geometry":{"type":"Point","coordinates":[-0.10516,51.00662]}},{"type":"Feature","properties":{"n":"Wigan Springs Branch TMD","g":"uk","from":"ground"},"geometry":{"type":"Point","coordinates":[-2.61536,53.52854]}},{"type":"Feature","properties":{"n":"Howdon Satellite Depot","g":"uk","from":"ground"},"geometry":{"type":"Point","coordinates":[-1.48129,54.99801]}},{"type":"Feature","properties":{"n":"Ditton Reception Sidings","g":"uk","from":"ground"},"geometry":{"type":"Point","coordinates":[-2.77579,53.35593]}},{"type":"Feature","properties":{"n":"Fareham Stone Terminal","g":"uk","from":"ground"},"geometry":{"type":"Point","coordinates":[-1.19278,50.85504]}},{"type":"Feature","properties":{"n":"Polmadie Down Holding Sidings","g":"uk","from":"ground"},"geometry":{"type":"Point","coordinates":[-4.23747,55.83441]}},{"type":"Feature","properties":{"n":"Gloucester New Yard","g":"uk","from":"ground"},"geometry":{"type":"Point","coordinates":[-2.22354,51.85883]}},{"type":"Feature","properties":{"n":"Grove Park Up Sidings ('St Mildreds')","g":"uk","from":"ground"},"geometry":{"type":"Point","coordinates":[0.01054,51.43967]}},{"type":"Feature","properties":{"n":"Grove Park Down Sidings ('Bramdean')","g":"uk","from":"ground"},"geometry":{"type":"Point","coordinates":[0.00961,51.44202]}},{"type":"Feature","properties":{"n":"Bedford Carriage Sidings","g":"uk","from":"ground"},"geometry":{"type":"Point","coordinates":[-0.47648,52.13211]}},{"type":"Feature","properties":{"n":"Jowett Sidings","g":"uk","from":"ground"},"geometry":{"type":"Point","coordinates":[-0.47595,52.13335]}},{"type":"Feature","properties":{"n":"Hinksey Yard","g":"uk","from":"ground"},"geometry":{"type":"Point","coordinates":[-1.25785,51.73651]}},{"type":"Feature","properties":{"n":"Cocklebury Sidings","g":"uk","from":"ground"},"geometry":{"type":"Point","coordinates":[-1.77933,51.56792]}},{"type":"Feature","properties":{"n":"Up Sidings","g":"uk","from":"object"},"geometry":{"type":"Point","coordinates":[-1.44202,54.33499]}},{"type":"Feature","properties":{"n":"Holgate Reception Sidings","g":"uk","from":"ground"},"geometry":{"type":"Point","coordinates":[-1.10402,53.95076]}},{"type":"Feature","properties":{"n":"Kirkdale Depot","g":"uk","from":"ground"},"geometry":{"type":"Point","coordinates":[-2.98443,53.43809]}},{"type":"Feature","properties":{"n":"DB Cargo Knottingley Sidings","g":"uk","from":"ground"},"geometry":{"type":"Point","coordinates":[-1.25895,53.70619]}},{"type":"Feature","properties":{"n":"Seabrook Sidings","g":"uk","from":"ground"},"geometry":{"type":"Point","coordinates":[0.33541,51.47223]}},{"type":"Feature","properties":{"n":"Rotherham Freight Terminal","g":"uk","from":"ground"},"geometry":{"type":"Point","coordinates":[-1.36919,53.41758]}},{"type":"Feature","properties":{"n":"Whitehall Road Engineers Sidings","g":"uk","from":"ground"},"geometry":{"type":"Point","coordinates":[-1.55902,53.79133]}},{"type":"Feature","properties":{"n":"Hackney Yard","g":"uk","from":"ground"},"geometry":{"type":"Point","coordinates":[-3.59234,50.53708]}},{"type":"Feature","properties":{"n":"Bedlington Furnaceway Sidings","g":"uk","from":"ground"},"geometry":{"type":"Point","coordinates":[-1.5655,55.1372]}},{"type":"Feature","properties":{"n":"Gresty Bridge Depot","g":"uk","from":"ground"},"geometry":{"type":"Point","coordinates":[-2.4372,53.07963]}},{"type":"Feature","properties":{"n":"Cockfosters Depot","g":"uk","from":"ground"},"geometry":{"type":"Point","coordinates":[-0.13947,51.6492]}},{"type":"Feature","properties":{"n":"Salisbury East Carriage Sidings","g":"uk","from":"ground"},"geometry":{"type":"Point","coordinates":[-1.79954,51.07299]}},{"type":"Feature","properties":{"n":"Salisbury East Yard","g":"uk","from":"ground"},"geometry":{"type":"Point","coordinates":[-1.80124,51.07171]}},{"type":"Feature","properties":{"n":"Birkdale Sidings","g":"uk","from":"ground"},"geometry":{"type":"Point","coordinates":[-2.99955,53.64406]}},{"type":"Feature","properties":{"n":"Trostre Works Junction","g":"uk","from":"ground"},"geometry":{"type":"Point","coordinates":[-4.12,51.67014]}},{"type":"Feature","properties":{"n":"Feltham Signalling & Maintenance Depot","g":"uk","from":"object"},"geometry":{"type":"Point","coordinates":[-0.40685,51.44886]}},{"type":"Feature","properties":{"n":"Down Sidings","g":"uk","from":"object"},"geometry":{"type":"Point","coordinates":[-2.11093,50.69478]}},{"type":"Feature","properties":{"n":"Jersey Sidings","g":"uk","from":"ground"},"geometry":{"type":"Point","coordinates":[-2.46054,50.62348]}},{"type":"Feature","properties":{"n":"Westbury (Wilts) Down Sidings","g":"uk","from":"ground"},"geometry":{"type":"Point","coordinates":[-2.20194,51.26402]}},{"type":"Feature","properties":{"n":"New Ballast Stockpile and Sidings","g":"uk","from":"ground"},"geometry":{"type":"Point","coordinates":[-2.20777,51.26191]}},{"type":"Feature","properties":{"n":"Westbury Up Sidings","g":"uk","from":"ground"},"geometry":{"type":"Point","coordinates":[-2.20504,51.26259]}},{"type":"Feature","properties":{"n":"Southport Up Sidings","g":"uk","from":"ground"},"geometry":{"type":"Point","coordinates":[-2.63973,53.54595]}},{"type":"Feature","properties":{"n":"Worksop Down Yard","g":"uk","from":"ground"},"geometry":{"type":"Point","coordinates":[-1.13286,53.31405]}},{"type":"Feature","properties":{"n":"Worksop Up Yard","g":"uk","from":"ground"},"geometry":{"type":"Point","coordinates":[-1.14279,53.31773]}},{"type":"Feature","properties":{"n":"Huntly Goods Yard","g":"uk","from":"ground"},"geometry":{"type":"Point","coordinates":[-2.77739,57.44308]}},{"type":"Feature","properties":{"n":"Centre Sidings","g":"uk","from":"object"},"geometry":{"type":"Point","coordinates":[-0.80183,52.05841]}},{"type":"Feature","properties":{"n":"Wrenthorpe Sidings","g":"uk","from":"ground"},"geometry":{"type":"Point","coordinates":[-1.51307,53.69192]}},{"type":"Feature","properties":{"n":"Priory Shed","g":"uk","from":"object"},"geometry":{"type":"Point","coordinates":[-4.36608,50.64071]}},{"type":"Feature","properties":{"n":"Manchester International Depot","g":"uk","from":"ground"},"geometry":{"type":"Point","coordinates":[-2.2039,53.46366]}},{"type":"Feature","properties":{"n":"Longsight Electric TMD","g":"uk","from":"ground"},"geometry":{"type":"Point","coordinates":[-2.202,53.46407]}},{"type":"Feature","properties":{"n":"Impala Terminal","g":"uk","from":"ground"},"geometry":{"type":"Point","coordinates":[-5.0598,51.73444]}},{"type":"Feature","properties":{"n":"Rock Works","g":"uk","from":"ground"},"geometry":{"type":"Point","coordinates":[-4.7816,50.39626]}},{"type":"Feature","properties":{"n":"Aberdeen Craiginches Yard","g":"uk","from":"ground"},"geometry":{"type":"Point","coordinates":[-2.08428,57.12878]}},{"type":"Feature","properties":{"n":"Newton Heath TMD","g":"uk","from":"ground"},"geometry":{"type":"Point","coordinates":[-2.18817,53.50446]}},{"type":"Feature","properties":{"n":"Ropley Engine Shed","g":"uk","from":"object"},"geometry":{"type":"Point","coordinates":[-1.10164,51.08763]}},{"type":"Feature","properties":{"n":"Network Rail Dartford Maintenance Delivery Unit","g":"uk","from":"object"},"geometry":{"type":"Point","coordinates":[0.22333,51.44732]}},{"type":"Feature","properties":{"n":"Bow Goods Yard West","g":"uk","from":"object"},"geometry":{"type":"Point","coordinates":[-0.02015,51.53369]}},{"type":"Feature","properties":{"n":"Hainault Depot","g":"uk","from":"ground"},"geometry":{"type":"Point","coordinates":[0.09364,51.60747]}},{"type":"Feature","properties":{"n":"Loughton Sidings","g":"uk","from":"ground"},"geometry":{"type":"Point","coordinates":[0.05328,51.6373]}},{"type":"Feature","properties":{"n":"Upminster Depot","g":"uk","from":"ground"},"geometry":{"type":"Point","coordinates":[0.26326,51.56042]}},{"type":"Feature","properties":{"n":"Volker Rail Scunthorpe (Frodingham Depot)","g":"uk","from":"ground"},"geometry":{"type":"Point","coordinates":[-0.63239,53.5921]}},{"type":"Feature","properties":{"n":"Ilford EMU Depot","g":"uk","from":"ground"},"geometry":{"type":"Point","coordinates":[0.09125,51.56348]}},{"type":"Feature","properties":{"n":"Ilford Traction Maintenance Depot","g":"uk","from":"ground"},"geometry":{"type":"Point","coordinates":[0.08523,51.56279]}},{"type":"Feature","properties":{"n":"Stewarts Lane Depot","g":"uk","from":"ground"},"geometry":{"type":"Point","coordinates":[-0.14328,51.47248]}},{"type":"Feature","properties":{"n":"Clapham Traincare Depot","g":"uk","from":"ground"},"geometry":{"type":"Point","coordinates":[-0.17315,51.463]}},{"type":"Feature","properties":{"n":"Northam Carriage Servicing Depot","g":"uk","from":"ground"},"geometry":{"type":"Point","coordinates":[-1.39124,50.91118]}},{"type":"Feature","properties":{"n":"Motherwell TMD","g":"uk","from":"ground"},"geometry":{"type":"Point","coordinates":[-3.9968,55.7995]}},{"type":"Feature","properties":{"n":"Highgate Depot","g":"uk","from":"ground"},"geometry":{"type":"Point","coordinates":[-0.15486,51.58221]}},{"type":"Feature","properties":{"n":"Lillie Bridge Depot","g":"uk","from":"ground"},"geometry":{"type":"Point","coordinates":[-0.20122,51.49009]}},{"type":"Feature","properties":{"n":"Bournemouth Traction and Rolling Stock Maintenance Depot","g":"uk","from":"ground"},"geometry":{"type":"Point","coordinates":[-1.90848,50.72588]}},{"type":"Feature","properties":{"n":"Works Delivery Western Route and Infrastructure Maintenance Depot","g":"uk","from":"object"},"geometry":{"type":"Point","coordinates":[-2.23182,51.86276]}},{"type":"Feature","properties":{"n":"Burton Rail Depot","g":"uk","from":"ground"},"geometry":{"type":"Point","coordinates":[-1.62941,52.81674]}},{"type":"Feature","properties":{"n":"Bounds Green Railway Depot","g":"uk","from":"ground"},"geometry":{"type":"Point","coordinates":[-0.12269,51.60127]}},{"type":"Feature","properties":{"n":"Belmont Yard","g":"uk","from":"ground"},"geometry":{"type":"Point","coordinates":[-1.13371,53.50715]}},{"type":"Feature","properties":{"n":"Loco Shed","g":"uk","from":"object"},"geometry":{"type":"Point","coordinates":[-0.53732,51.84792]}},{"type":"Feature","properties":{"n":"Horse Sidings","g":"uk","from":"ground"},"geometry":{"type":"Point","coordinates":[-1.62746,51.2567]}},{"type":"Feature","properties":{"n":"Clayhills Depot","g":"uk","from":"ground"},"geometry":{"type":"Point","coordinates":[-2.09802,57.14075]}},{"type":"Feature","properties":{"n":"Tottenham Maintenance Delivery Unit","g":"uk","from":"ground"},"geometry":{"type":"Point","coordinates":[-0.05966,51.59015]}},{"type":"Feature","properties":{"n":"Heaton Yard","g":"uk","from":"ground"},"geometry":{"type":"Point","coordinates":[-1.56686,54.9858]}},{"type":"Feature","properties":{"n":"Acton Works","g":"uk","from":"ground"},"geometry":{"type":"Point","coordinates":[-0.28006,51.49769]}},{"type":"Feature","properties":{"n":"Doncaster Royal Mail Terminal","g":"uk","from":"ground"},"geometry":{"type":"Point","coordinates":[-1.11143,53.50091]}},{"type":"Feature","properties":{"n":"Northfields Depot","g":"uk","from":"ground"},"geometry":{"type":"Point","coordinates":[-0.32057,51.49721]}},{"type":"Feature","properties":{"n":"Singlewell Infrastructure Maintenance Depot","g":"uk","from":"ground"},"geometry":{"type":"Point","coordinates":[0.38085,51.40807]}},{"type":"Feature","properties":{"n":"Port Talbot Depot (Network Rail)","g":"uk","from":"ground"},"geometry":{"type":"Point","coordinates":[-3.77779,51.58934]}},{"type":"Feature","properties":{"n":"Heidelberg Materials rail depot","g":"uk","from":"ground"},"geometry":{"type":"Point","coordinates":[-0.4818,51.51048]}},{"type":"Feature","properties":{"n":"Cardiff Tidal Yard","g":"uk","from":"ground"},"geometry":{"type":"Point","coordinates":[-3.14259,51.47772]}},{"type":"Feature","properties":{"n":"Bellingham Carriage Sidings","g":"uk","from":"ground"},"geometry":{"type":"Point","coordinates":[-0.01808,51.43006]}},{"type":"Feature","properties":{"n":"Wembley Yard South Junction","g":"uk","from":"ground"},"geometry":{"type":"Point","coordinates":[-0.27194,51.54076]}},{"type":"Feature","properties":{"n":"Jubilee Sidings","g":"uk","from":"ground"},"geometry":{"type":"Point","coordinates":[0.26019,51.19182]}},{"type":"Feature","properties":{"n":"Ardwick Train Maintenance Depot","g":"uk","from":"ground"},"geometry":{"type":"Point","coordinates":[-2.20725,53.47173]}},{"type":"Feature","properties":{"n":"Supertram Nunnery Depot","g":"uk","from":"ground"},"geometry":{"type":"Point","coordinates":[-1.44005,53.38605]}},{"type":"Feature","properties":{"n":"Shipley TrainCare Centre","g":"uk","from":"ground"},"geometry":{"type":"Point","coordinates":[-1.77528,53.82909]}},{"type":"Feature","properties":{"n":"Midland Metro Depot Wednesdbury","g":"uk","from":"ground"},"geometry":{"type":"Point","coordinates":[-2.02618,52.54858]}},{"type":"Feature","properties":{"n":"Millburn Yard & Freight Depot","g":"uk","from":"ground"},"geometry":{"type":"Point","coordinates":[-4.2124,57.48285]}},{"type":"Feature","properties":{"n":"Ash House Depot","g":"uk","from":"ground"},"geometry":{"type":"Point","coordinates":[-0.13343,51.61364]}},{"type":"Feature","properties":{"n":"Barking Maintenance Depot","g":"uk","from":"object"},"geometry":{"type":"Point","coordinates":[0.08287,51.53895]}},{"type":"Feature","properties":{"n":"Dunbar Engineers' Sidings","g":"uk","from":"ground"},"geometry":{"type":"Point","coordinates":[-2.5116,55.9978]}},{"type":"Feature","properties":{"n":"East Ham Depot","g":"uk","from":"ground"},"geometry":{"type":"Point","coordinates":[0.06222,51.54339]}},{"type":"Feature","properties":{"n":"Hillhouse Sidings","g":"uk","from":"ground"},"geometry":{"type":"Point","coordinates":[-1.77778,53.65918]}},{"type":"Feature","properties":{"n":"Pureley Aggregates Terminal","g":"uk","from":"ground"},"geometry":{"type":"Point","coordinates":[-0.11123,51.339]}},{"type":"Feature","properties":{"n":"Mile Thorn Siding","g":"uk","from":"ground"},"geometry":{"type":"Point","coordinates":[-1.13664,53.53077]}},{"type":"Feature","properties":{"n":"Leicester Loco Sidings","g":"uk","from":"ground"},"geometry":{"type":"Point","coordinates":[-1.12058,52.63441]}},{"type":"Feature","properties":{"n":"Daventry International Rail Freight Terminal (DIRFT)","g":"uk","from":"ground"},"geometry":{"type":"Point","coordinates":[-1.16725,52.34736]}},{"type":"Feature","properties":{"n":"Crown Point Depot","g":"uk","from":"ground"},"geometry":{"type":"Point","coordinates":[1.31777,52.62238]}},{"type":"Feature","properties":{"n":"Gosforth Depot","g":"uk","from":"ground"},"geometry":{"type":"Point","coordinates":[-1.60967,55.01122]}},{"type":"Feature","properties":{"n":"Stonehenge Works","g":"uk","from":"object"},"geometry":{"type":"Point","coordinates":[-0.63242,51.93813]}},{"type":"Feature","properties":{"n":"Hanson Aggregates Terminal","g":"uk","from":"object"},"geometry":{"type":"Point","coordinates":[-0.09146,51.03247]}},{"type":"Feature","properties":{"n":"Network Rail Truro Depot","g":"uk","from":"object"},"geometry":{"type":"Point","coordinates":[-5.06568,50.26409]}},{"type":"Feature","properties":{"n":"Chaddesden Sidings","g":"uk","from":"object"},"geometry":{"type":"Point","coordinates":[-1.45185,52.91993]}},{"type":"Feature","properties":{"n":"Low Fell Mail Terminal","g":"uk","from":"object"},"geometry":{"type":"Point","coordinates":[-1.61538,54.94297]}},{"type":"Feature","properties":{"n":"Llanwern Works Exchange Sidings","g":"uk","from":"object"},"geometry":{"type":"Point","coordinates":[-2.89997,51.5799]}},{"type":"Feature","properties":{"n":"Viridor Dunbar Rail Terminal","g":"uk","from":"object"},"geometry":{"type":"Point","coordinates":[-2.46702,55.97986]}},{"type":"Feature","properties":{"n":"Knowsley Freight Terminal","g":"uk","from":"object"},"geometry":{"type":"Point","coordinates":[-2.85804,53.49038]}},{"type":"Feature","properties":{"n":"Dingwall Civil Engineer","g":"uk","from":"object"},"geometry":{"type":"Point","coordinates":[-4.42286,57.59284]}},{"type":"Feature","properties":{"n":"Brora Civil Engineer's Sidings","g":"uk","from":"object"},"geometry":{"type":"Point","coordinates":[-3.8528,58.01465]}},{"type":"Feature","properties":{"n":"Swansea Maliphant Depot","g":"uk","from":"object"},"geometry":{"type":"Point","coordinates":[-3.93697,51.63045]}},{"type":"Feature","properties":{"n":"St Philip's Marsh Depot","g":"uk","from":"object"},"geometry":{"type":"Point","coordinates":[-2.56481,51.44668]}},{"type":"Feature","properties":{"n":"Cricklewood South Sidings","g":"uk","from":"object"},"geometry":{"type":"Point","coordinates":[-0.21624,51.56183]}},{"type":"Feature","properties":{"n":"Westbourne Park Carriage Sidings","g":"uk","from":"object"},"geometry":{"type":"Point","coordinates":[-0.19823,51.52075]}},{"type":"Feature","properties":{"n":"Washwood Heath Sidings","g":"uk","from":"object"},"geometry":{"type":"Point","coordinates":[-1.84083,52.50381]}},{"type":"Feature","properties":{"n":"Milbrook Freightliner Terminal","g":"uk","from":"object"},"geometry":{"type":"Point","coordinates":[-1.43905,50.91256]}},{"type":"Feature","properties":{"n":"Pitsford Sidings","g":"uk","from":"object"},"geometry":{"type":"Point","coordinates":[-0.92059,52.28979]}},{"type":"Feature","properties":{"n":"Church Path Turnback Sidings","g":"uk","from":"object"},"geometry":{"type":"Point","coordinates":[0.33414,51.44059]}},{"type":"Feature","properties":{"n":"Orient Way Carriage Sidings","g":"uk","from":"object"},"geometry":{"type":"Point","coordinates":[-0.02959,51.56273]}},{"type":"Feature","properties":{"n":"Trent Sidings","g":"uk","from":"object"},"geometry":{"type":"Point","coordinates":[-0.6218,53.59506]}},{"type":"Feature","properties":{"n":"Lindsey Oil Refinery","g":"uk","from":"object"},"geometry":{"type":"Point","coordinates":[-0.24292,53.64246]}},{"type":"Feature","properties":{"n":"Humber Refinery","g":"uk","from":"object"},"geometry":{"type":"Point","coordinates":[-0.25002,53.63667]}},{"type":"Feature","properties":{"n":"Cheddleton","g":"uk","from":"object"},"geometry":{"type":"Point","coordinates":[-2.02605,53.06419]}},{"type":"Feature","properties":{"n":"Tyseley Yard","g":"uk","from":"object"},"geometry":{"type":"Point","coordinates":[-1.84692,52.45594]}},{"type":"Feature","properties":{"n":"Walsall Midland Goods Depot","g":"uk","from":"object"},"geometry":{"type":"Point","coordinates":[-1.9897,52.5802]}},{"type":"Feature","properties":{"n":"Fort William Yard","g":"uk","from":"object"},"geometry":{"type":"Point","coordinates":[-5.08444,56.83]}},{"type":"Feature","properties":{"n":"Dee Marsh Shotton Works Sidings","g":"uk","from":"object"},"geometry":{"type":"Point","coordinates":[-3.02715,53.22641]}},{"type":"Feature","properties":{"n":"Birkenhead North TMD","g":"uk","from":"object"},"geometry":{"type":"Point","coordinates":[-3.05995,53.40623]}},{"type":"Feature","properties":{"n":"Allerton Depot","g":"uk","from":"object"},"geometry":{"type":"Point","coordinates":[-2.88108,53.35752]}},{"type":"Feature","properties":{"n":"Wavertree and Edge Hill Goods Depot","g":"uk","from":"object"},"geometry":{"type":"Point","coordinates":[-2.93252,53.40341]}},{"type":"Feature","properties":{"n":"Longport Down Yard","g":"uk","from":"object"},"geometry":{"type":"Point","coordinates":[-2.21789,53.04278]}},{"type":"Feature","properties":{"n":"Etruria North Sidings","g":"uk","from":"object"},"geometry":{"type":"Point","coordinates":[-2.20341,53.02203]}},{"type":"Feature","properties":{"n":"Basford Hall Sidings","g":"uk","from":"object"},"geometry":{"type":"Point","coordinates":[-2.42855,53.07562]}},{"type":"Feature","properties":{"n":"Wolverhampton Steel Terminal","g":"uk","from":"object"},"geometry":{"type":"Point","coordinates":[-2.10888,52.58092]}},{"type":"Feature","properties":{"n":"Long Marston Depot","g":"uk","from":"object"},"geometry":{"type":"Point","coordinates":[-1.77768,52.12289]}},{"type":"Feature","properties":{"n":"Kineton","g":"uk","from":"object"},"geometry":{"type":"Point","coordinates":[-1.45868,52.16656]}},{"type":"Feature","properties":{"n":"West Midland Railway Birmingham Soho","g":"uk","from":"object"},"geometry":{"type":"Point","coordinates":[-1.94376,52.49291]}},{"type":"Feature","properties":{"n":"Coventry Depot","g":"uk","from":"object"},"geometry":{"type":"Point","coordinates":[-1.52311,52.40252]}},{"type":"Feature","properties":{"n":"Langwith Sidings","g":"uk","from":"object"},"geometry":{"type":"Point","coordinates":[-1.20863,53.21078]}},{"type":"Feature","properties":{"n":"Tinsley Yard","g":"uk","from":"object"},"geometry":{"type":"Point","coordinates":[-1.3877,53.40225]}},{"type":"Feature","properties":{"n":"Balm Lane Goods Depot","g":"uk","from":"object"},"geometry":{"type":"Point","coordinates":[-1.52734,53.77428]}},{"type":"Feature","properties":{"n":"Felixstowe South Terminal","g":"uk","from":"object"},"geometry":{"type":"Point","coordinates":[1.32467,51.94407]}},{"type":"Feature","properties":{"n":"Speke Sidings","g":"uk","from":"object"},"geometry":{"type":"Point","coordinates":[-2.88255,53.35298]}},{"type":"Feature","properties":{"n":"Haymarket Depot","g":"uk","from":"object"},"geometry":{"type":"Point","coordinates":[-3.23407,55.94246]}},{"type":"Feature","properties":{"n":"Wembley Light Maintenance Depot","g":"uk","from":"object"},"geometry":{"type":"Point","coordinates":[-0.27799,51.55411]}},{"type":"Feature","properties":{"n":"Willesden Freightliner Depot","g":"uk","from":"object"},"geometry":{"type":"Point","coordinates":[-0.25275,51.53366]}},{"type":"Feature","properties":{"n":"Mauchline Junction Sidings","g":"uk","from":"object"},"geometry":{"type":"Point","coordinates":[-4.38181,55.509]}},{"type":"Feature","properties":{"n":"Glasgow Works","g":"uk","from":"object"},"geometry":{"type":"Point","coordinates":[-4.2314,55.87217]}},{"type":"Feature","properties":{"n":"Bridgeton Yard","g":"uk","from":"object"},"geometry":{"type":"Point","coordinates":[-4.21409,55.83373]}},{"type":"Feature","properties":{"n":"Deanside Intermodal","g":"uk","from":"object"},"geometry":{"type":"Point","coordinates":[-4.35917,55.86299]}},{"type":"Feature","properties":{"n":"Landore Traction Maintenance Depot","g":"uk","from":"object"},"geometry":{"type":"Point","coordinates":[-3.94027,51.63989]}},{"type":"Feature","properties":{"n":"Hitachi Rail","g":"uk","from":"object"},"geometry":{"type":"Point","coordinates":[-1.58607,54.59443]}},{"type":"Feature","properties":{"n":"Redbourne Rail Steel Terminal","g":"uk","from":"object"},"geometry":{"type":"Point","coordinates":[-0.609,53.58946]}},{"type":"Feature","properties":{"n":"Goodrington Carriage Sidings","g":"uk","from":"object"},"geometry":{"type":"Point","coordinates":[-3.56435,50.42877]}},{"type":"Feature","properties":{"n":"Harwich Parkeston Quay Goods Yard","g":"uk","from":"object"},"geometry":{"type":"Point","coordinates":[1.24765,51.94675]}},{"type":"Feature","properties":{"n":"Hitachi EMU Depot","g":"uk","from":"object"},"geometry":{"type":"Point","coordinates":[1.40242,51.34231]}},{"type":"Feature","properties":{"n":"St Leonards Traction Maintenance Depot","g":"uk","from":"object"},"geometry":{"type":"Point","coordinates":[0.52096,50.84866]}},{"type":"Feature","properties":{"n":"Jarrow Fuels Terminal","g":"uk","from":"object"},"geometry":{"type":"Point","coordinates":[-1.47694,54.98126]}},{"type":"Feature","properties":{"n":"Castleton Rail Welding Depot","g":"uk","from":"object"},"geometry":{"type":"Point","coordinates":[-2.18434,53.5878]}},{"type":"Feature","properties":{"n":"Buckley Wells Loco Yard","g":"uk","from":"object"},"geometry":{"type":"Point","coordinates":[-2.30568,53.58645]}},{"type":"Feature","properties":{"n":"Freightliner Wagon Maintenance Facility","g":"uk","from":"object"},"geometry":{"type":"Point","coordinates":[-2.10661,53.47633]}},{"type":"Feature","properties":{"n":"Grangemouth Oil Terminal","g":"uk","from":"object"},"geometry":{"type":"Point","coordinates":[-3.68832,56.02323]}},{"type":"Feature","properties":{"n":"DB Grangemouth Logistics Centre","g":"uk","from":"object"},"geometry":{"type":"Point","coordinates":[-3.74427,56.00849]}},{"type":"Feature","properties":{"n":"Gartsherrie Freightliner Depot","g":"uk","from":"object"},"geometry":{"type":"Point","coordinates":[-4.04041,55.87206]}},{"type":"Feature","properties":{"n":"Mossend EuroTerminal","g":"uk","from":"object"},"geometry":{"type":"Point","coordinates":[-3.99877,55.82696]}},{"type":"Feature","properties":{"n":"Portbury Dock","g":"uk","from":"object"},"geometry":{"type":"Point","coordinates":[-2.71527,51.49886]}},{"type":"Feature","properties":{"n":"Tilbury Railport","g":"uk","from":"object"},"geometry":{"type":"Point","coordinates":[0.38791,51.46097]}},{"type":"Feature","properties":{"n":"Drax Power Station","g":"uk","from":"object","nz":"德拉克斯发电站"},"geometry":{"type":"Point","coordinates":[-1.00167,53.735]}},{"type":"Feature","properties":{"n":"Horton Road Depot","g":"uk","from":"object"},"geometry":{"type":"Point","coordinates":[-2.23272,51.86377]}},{"type":"Feature","properties":{"n":"Severnside Energy Recovery Centre","g":"uk","from":"object"},"geometry":{"type":"Point","coordinates":[-2.6674,51.54247]}},{"type":"Feature","properties":{"n":"Avonmouth Container Port","g":"uk","from":"object"},"geometry":{"type":"Point","coordinates":[-2.70542,51.50757]}},{"type":"Feature","properties":{"n":"Bedford Cauldwell Walk Depot","g":"uk","from":"object"},"geometry":{"type":"Point","coordinates":[-0.47622,52.12511]}},{"type":"Feature","properties":{"n":"Forders Sidings","g":"uk","from":"object"},"geometry":{"type":"Point","coordinates":[-0.51684,52.07574]}},{"type":"Feature","properties":{"n":"Aylesbury DMU Depot","g":"uk","from":"object"},"geometry":{"type":"Point","coordinates":[-0.8175,51.81419]}},{"type":"Feature","properties":{"n":"Chingford Carriage Sidings","g":"uk","from":"object"},"geometry":{"type":"Point","coordinates":[0.00578,51.6291]}},{"type":"Feature","properties":{"n":"Gidea Park Carriage Sidings","g":"uk","from":"object"},"geometry":{"type":"Point","coordinates":[0.21366,51.58527]}},{"type":"Feature","properties":{"n":"Hornsey EMU Depot","g":"uk","from":"object"},"geometry":{"type":"Point","coordinates":[-0.1089,51.5846]}},{"type":"Feature","properties":{"n":"Barking Freightliner Terminal","g":"uk","from":"object"},"geometry":{"type":"Point","coordinates":[0.12647,51.52757]}},{"type":"Feature","properties":{"n":"West Ealing Engineer's Depot","g":"uk","from":"object"},"geometry":{"type":"Point","coordinates":[-0.32896,51.51316]}},{"type":"Feature","properties":{"n":"Holbeck Depot","g":"uk","from":"object"},"geometry":{"type":"Point","coordinates":[-1.5573,53.78817]}},{"type":"Feature","properties":{"n":"Merehead Rail Sidings","g":"uk","from":"object"},"geometry":{"type":"Point","coordinates":[-2.4461,51.18863]}},{"type":"Feature","properties":{"n":"Kingsland Road Sidings","g":"uk","from":"object"},"geometry":{"type":"Point","coordinates":[-2.57097,51.45158]}},{"type":"Feature","properties":{"n":"Bristol East Depot","g":"uk","from":"object"},"geometry":{"type":"Point","coordinates":[-2.55375,51.44863]}},{"type":"Feature","properties":{"n":"Bristol West Depot","g":"uk","from":"object"},"geometry":{"type":"Point","coordinates":[-2.61841,51.43002]}},{"type":"Feature","properties":{"n":"Bridgwater Freight Depot","g":"uk","from":"object"},"geometry":{"type":"Point","coordinates":[-2.99126,51.13026]}},{"type":"Feature","properties":{"n":"Hertford North Carriage Holding Sidings","g":"uk","from":"object"},"geometry":{"type":"Point","coordinates":[-0.09168,51.79482]}},{"type":"Feature","properties":{"n":"Fratton Traincare Depot","g":"uk","from":"object"},"geometry":{"type":"Point","coordinates":[-1.07055,50.79559]}},{"type":"Feature","properties":{"n":"Newhaven Marine Aggregates Terminal","g":"uk","from":"object"},"geometry":{"type":"Point","coordinates":[0.06049,50.78445]}},{"type":"Feature","properties":{"n":"Brierley Hill Freight and Steel Terminal","g":"uk","from":"object"},"geometry":{"type":"Point","coordinates":[-2.1315,52.48014]}},{"type":"Feature","properties":{"n":"Padworth Oil Terminal","g":"uk","from":"object"},"geometry":{"type":"Point","coordinates":[-1.12944,51.40332]}},{"type":"Feature","properties":{"n":"Riverside Freight Yard","g":"uk","from":"object"},"geometry":{"type":"Point","coordinates":[-3.54589,50.73717]}},{"type":"Feature","properties":{"n":"Etches Park Rail Depot","g":"uk","from":"object"},"geometry":{"type":"Point","coordinates":[-1.45904,52.9118]}},{"type":"Feature","properties":{"n":"Woking Down Yard Country End","g":"uk","from":"object"},"geometry":{"type":"Point","coordinates":[-0.56056,51.31694]}},{"type":"Feature","properties":{"n":"Hendon Road Sidings","g":"uk","from":"object"},"geometry":{"type":"Point","coordinates":[-0.26258,53.74614]}},{"type":"Feature","properties":{"n":"Kingston Bulk Terminal","g":"uk","from":"object"},"geometry":{"type":"Point","coordinates":[-0.24937,53.73843]}},{"type":"Feature","properties":{"n":"Blackpool Carriage Sidings","g":"uk","from":"object"},"geometry":{"type":"Point","coordinates":[-3.04348,53.82778]}},{"type":"Feature","properties":{"n":"Laira Diesel Depot","g":"uk","from":"object"},"geometry":{"type":"Point","coordinates":[-4.10435,50.38157]}},{"type":"Feature","properties":{"n":"Leith South Freight Yard","g":"uk","from":"object"},"geometry":{"type":"Point","coordinates":[-3.15313,55.97286]}},{"type":"Feature","properties":{"n":"Welton International Petroleum Sidings","g":"uk","from":"object"},"geometry":{"type":"Point","coordinates":[-0.4329,53.2596]}},{"type":"Feature","properties":{"n":"Wabtec Rail, Kilmarnock","g":"uk","from":"object"},"geometry":{"type":"Point","coordinates":[-4.50199,55.6131]}},{"type":"Feature","properties":{"n":"Barassie Overhead Line Depot","g":"uk","from":"object"},"geometry":{"type":"Point","coordinates":[-4.64955,55.55515]}},{"type":"Feature","properties":{"n":"Riccarton Oil Depot","g":"uk","from":"object"},"geometry":{"type":"Point","coordinates":[-4.49249,55.59716]}},{"type":"Feature","properties":{"n":"Staveley Up Sidings","g":"uk","from":"object"},"geometry":{"type":"Point","coordinates":[-1.38746,53.27164]}},{"type":"Feature","properties":{"n":"Stoke Cliffe Vale","g":"uk","from":"object"},"geometry":{"type":"Point","coordinates":[-2.19132,53.01249]}},{"type":"Feature","properties":{"n":"Pendleton (Brindle Heath) Aggregate Sidings","g":"uk","from":"object"},"geometry":{"type":"Point","coordinates":[-2.29267,53.50062]}},{"type":"Feature","properties":{"n":"Stockport Carriage Sidings","g":"uk","from":"object"},"geometry":{"type":"Point","coordinates":[-2.16408,53.40522]}},{"type":"Feature","properties":{"n":"iPort Rail Terminat","g":"uk","from":"object"},"geometry":{"type":"Point","coordinates":[-1.11107,53.47797]}},{"type":"Feature","properties":{"n":"Wilton Energy From Waste Terminal","g":"uk","from":"object"},"geometry":{"type":"Point","coordinates":[-1.12474,54.59103]}},{"type":"Feature","properties":{"n":"Chester Diesel Multiple Unit Depot","g":"uk","from":"object"},"geometry":{"type":"Point","coordinates":[-2.88494,53.19979]}},{"type":"Feature","properties":{"n":"Torness Nuclear Power Station","g":"uk","from":"object"},"geometry":{"type":"Point","coordinates":[-2.43624,55.96991]}},{"type":"Feature","properties":{"n":"East Usk Junction Marshalling Yard","g":"uk","from":"object"},"geometry":{"type":"Point","coordinates":[-2.973,51.58681]}},{"type":"Feature","properties":{"n":"Salisbury DMU Depot","g":"uk","from":"object"},"geometry":{"type":"Point","coordinates":[-1.80742,51.07124]}},{"type":"Feature","properties":{"n":"Corby Automotive Terminal","g":"uk","from":"object"},"geometry":{"type":"Point","coordinates":[-0.66586,52.48908]}},{"type":"Feature","properties":{"n":"Southall Railway Centre","g":"uk","from":"object"},"geometry":{"type":"Point","coordinates":[-0.3703,51.50655]}},{"type":"Feature","properties":{"n":"Eurotunnel Folkestone Terminal","g":"uk","from":"object"},"geometry":{"type":"Point","coordinates":[1.1294,51.09322]}},{"type":"Feature","properties":{"n":"Rail Yard Welwyn Garden City","g":"uk","from":"object"},"geometry":{"type":"Point","coordinates":[-0.20099,51.80683]}},{"type":"Feature","properties":{"n":"Grove Park Sidings","g":"uk","from":"object"},"geometry":{"type":"Point","coordinates":[0.01799,51.43416]}},{"type":"Feature","properties":{"n":"Willesden Brent Sidings","g":"uk","from":"object"},"geometry":{"type":"Point","coordinates":[-0.26355,51.53812]}},{"type":"Feature","properties":{"n":"Watford Yard","g":"uk","from":"object"},"geometry":{"type":"Point","coordinates":[-0.39487,51.664]}},{"type":"Feature","properties":{"n":"Tinsley Intermodal Terminal","g":"uk","from":"object"},"geometry":{"type":"Point","coordinates":[-1.37403,53.39579]}},{"type":"Feature","properties":{"n":"Northampton Castle Yard","g":"uk","from":"object"},"geometry":{"type":"Point","coordinates":[-0.90703,52.23998]}},{"type":"Feature","properties":{"n":"Immingham Sorting Sidings","g":"uk","from":"object"},"geometry":{"type":"Point","coordinates":[-0.19881,53.62301]}},{"type":"Feature","properties":{"n":"Gascoigne Wood Up Sidings","g":"uk","from":"object"},"geometry":{"type":"Point","coordinates":[-1.20278,53.77841]}},{"type":"Feature","properties":{"n":"Barton Mill Carriage Servicing Depot","g":"uk","from":"object"},"geometry":{"type":"Point","coordinates":[-1.08006,51.26979]}},{"type":"Feature","properties":{"n":"Machynlleth Maintenance Depot","g":"uk","from":"object"},"geometry":{"type":"Point","coordinates":[-3.8527,52.59598]}},{"type":"Feature","properties":{"n":"Hunterston Low Level Sidings","g":"uk","from":"object"},"geometry":{"type":"Point","coordinates":[-4.8703,55.74672]}},{"type":"Feature","properties":{"n":"Dalcross Freight Facility","g":"uk","from":"object"},"geometry":{"type":"Point","coordinates":[-4.07966,57.52258]}},{"type":"Feature","properties":{"n":"Land Recovery Ltd","g":"uk","from":"object"},"geometry":{"type":"Point","coordinates":[-2.22284,53.05311]}},{"type":"Feature","properties":{"n":"Kings Norton On Track Plant Depot","g":"uk","from":"object"},"geometry":{"type":"Point","coordinates":[-1.94129,52.41325]}},{"type":"Feature","properties":{"n":"Cooper's Metals Sidings","g":"uk","from":"object"},"geometry":{"type":"Point","coordinates":[-1.95471,52.50189]}},{"type":"Feature","properties":{"n":"Upperby Up Sidings","g":"uk","from":"object"},"geometry":{"type":"Point","coordinates":[-2.92428,54.88394]}},{"type":"Feature","properties":{"n":"Weaste Depot","g":"uk","from":"object"},"geometry":{"type":"Point","coordinates":[-2.3134,53.47796]}},{"type":"Feature","properties":{"n":"Ealing Common Depot","g":"uk","from":"table"},"geometry":{"type":"Point","coordinates":[-0.28485,51.50636]}},{"type":"Feature","properties":{"n":"Edgware Sidings","g":"uk","from":"table"},"geometry":{"type":"Point","coordinates":[-0.27242,51.61273]}},{"type":"Feature","properties":{"n":"Broomloan Depot","g":"uk","from":"table"},"geometry":{"type":"Point","coordinates":[-4.31078,55.8597]}},{"type":"Feature","properties":{"n":"High Barnet Sidings","g":"uk","from":"table"},"geometry":{"type":"Point","coordinates":[-0.19284,51.65018]}},{"type":"Feature","properties":{"n":"Uxbridge Sidings","g":"uk","from":"table"},"geometry":{"type":"Point","coordinates":[-0.47445,51.5479]}},{"type":"Feature","properties":{"n":"Therapia Lane Depot","g":"uk","from":"table"},"geometry":{"type":"Point","coordinates":[-0.13519,51.38756]}},{"type":"Feature","properties":{"n":"St Blazey Depot","g":"uk","from":"table"},"geometry":{"type":"Point","coordinates":[-4.7104,50.35406]}},{"type":"Feature","properties":{"n":"Hoo Junction Yard","g":"uk","from":"table"},"geometry":{"type":"Point","coordinates":[0.44585,51.43574]}},{"type":"Feature","properties":{"n":"Thameslink Depot","g":"uk","from":"table"},"geometry":{"type":"Point","coordinates":[-0.16142,51.11142]}},{"type":"Feature","properties":{"n":"Arpley Extension Sidings","g":"uk","from":"table"},"geometry":{"type":"Point","coordinates":[-2.60153,53.38209]}},{"type":"Feature","properties":{"n":"Ipswich Upper Yard","g":"uk","from":"table"},"geometry":{"type":"Point","coordinates":[1.13555,52.05341]}},{"type":"Feature","properties":{"n":"Slade Green Depot","g":"uk","from":"table"},"geometry":{"type":"Point","coordinates":[0.19387,51.46414]}},{"type":"Feature","properties":{"n":"Dagenham Dock Down Sidings","g":"uk","from":"table"},"geometry":{"type":"Point","coordinates":[0.15632,51.52459]}},{"type":"Feature","properties":{"n":"Nene Carriage Sidings","g":"uk","from":"table"},"geometry":{"type":"Point","coordinates":[-0.24764,52.57018]}},{"type":"Feature","properties":{"n":"Oxford Carriage Sidings","g":"uk","from":"table"},"geometry":{"type":"Point","coordinates":[-1.27205,51.75902]}},{"type":"Feature","properties":{"n":"Healey Mills Sidings","g":"uk","from":"table"},"geometry":{"type":"Point","coordinates":[-1.5854,53.66469]}},{"type":"Feature","properties":{"n":"Craigentinny Depot","g":"uk","from":"table"},"geometry":{"type":"Point","coordinates":[-3.11352,55.94838]}},{"type":"Feature","properties":{"n":"Feltham Depot","g":"uk","from":"table"},"geometry":{"type":"Point","coordinates":[-0.39511,51.4501]}},{"type":"Feature","properties":{"n":"Kidderminster Carriage Shed","g":"uk","from":"table"},"geometry":{"type":"Point","coordinates":[-2.24123,52.38015]}},{"type":"Feature","properties":{"n":"Great Yarmouth Carriage Sidings","g":"uk","from":"table"},"geometry":{"type":"Point","coordinates":[1.71322,52.6185]}},{"type":"Feature","properties":{"n":"Slateford Yard","g":"uk","from":"table"},"geometry":{"type":"Point","coordinates":[-3.23679,55.92953]}},{"type":"Feature","properties":{"n":"Carriage and Wagon Works","g":"uk","from":"table"},"geometry":{"type":"Point","coordinates":[-0.04575,51.04507]}},{"type":"Feature","properties":{"n":"Earles Sidings","g":"uk","from":"table"},"geometry":{"type":"Point","coordinates":[-1.74453,53.35625]}},{"type":"Feature","properties":{"n":"Camden Carriage Sidings","g":"uk","from":"table"},"geometry":{"type":"Point","coordinates":[-0.1524,51.5416]}},{"type":"Feature","properties":{"n":"Clacton Depot","g":"uk","from":"table"},"geometry":{"type":"Point","coordinates":[1.155,51.79566]}},{"type":"Feature","properties":{"n":"Ayr Townhead Sidings","g":"uk","from":"table"},"geometry":{"type":"Point","coordinates":[-4.62751,55.45514]}},{"type":"Feature","properties":{"n":"Rugby Carriage Sidings","g":"uk","from":"table"},"geometry":{"type":"Point","coordinates":[-1.24576,52.37913]}},{"type":"Feature","properties":{"n":"Maidenhead Carriage Sidings","g":"uk","from":"table"},"geometry":{"type":"Point","coordinates":[-0.72956,51.51733]}},{"type":"Feature","properties":{"n":"Healey Mills Sidings","g":"uk","from":"table"},"geometry":{"type":"Point","coordinates":[-1.57658,53.66208]}},{"type":"Feature","properties":{"n":"Racecourse Sidings","g":"uk","from":"table"},"geometry":{"type":"Point","coordinates":[-0.16085,51.15173]}},{"type":"Feature","properties":{"n":"Fort William Yard","g":"uk","from":"table"},"geometry":{"type":"Point","coordinates":[-5.08897,56.82595]}},{"type":"Feature","properties":{"n":"Tanfield Railway Engine Shed","g":"uk","from":"table"},"geometry":{"type":"Point","coordinates":[-1.67803,54.90994]}},{"type":"Feature","properties":{"n":"Coalville TMD","g":"uk","from":"table"},"geometry":{"type":"Point","coordinates":[-1.37702,52.72994]}}]}